{"type":"FeatureCollection", "features": [
{"type":"Feature","geometry":{"type":"MultiPolygon","coordinates":[[[[-123.01762840299999,48.518507362999976],[-123.01764186899995,48.521693989000035],[-123.02309610599995,48.52171677400005],[-123.02308064399993,48.51604504000009],[-123.025182289,48.515638250000094],[-123.02574517199992,48.520495286000056],[-123.028551802,48.520796469000025],[-123.02855335399994,48.521739315000055],[-123.04500029999997,48.521751600000094],[-123.04496558599995,48.51802887800009],[-123.04501283199995,48.51452198600001],[-123.04005979099993,48.514470577000026],[-123.03593835599999,48.510381439000085],[-123.036121704,48.50384480300005],[-123.03601702299991,48.503404731000046],[-123.03583656200001,48.502964625000054],[-123.03427596199992,48.50002948800004],[-123.03285077899999,48.49764552400005],[-123.03255670699994,48.49652643800009],[-123.03255941400003,48.496140910000065],[-123.03124685799993,48.488511281000015],[-123.033388982,48.47146445000008],[-123.02870379899991,48.464549445],[-123.02882528499998,48.46254146900005],[-123.02907094999992,48.46237428500007],[-123.029264468,48.46234149],[-123.02943133099994,48.462345837000015],[-123.03130004199991,48.46280542300012],[-123.03232579099996,48.46327161300005],[-123.03281840399997,48.463328946],[-123.03394427099992,48.46310086100004],[-123.034221902,48.46295466500004],[-123.035078807,48.461827017000076],[-123.03562034899997,48.461216414],[-123.03577698399995,48.46095039200002],[-123.03602218600001,48.460445008000036],[-123.03653348399995,48.45968547500008],[-123.034788578,48.45910096900003],[-123.03185509999999,48.4616024],[-123.02867685799995,48.46073906600003],[-123.02808056416605,48.45871343892373],[-123.02388819999999,48.4592313],[-123.02289862251601,48.45683599586751],[-123.02169649599996,48.45787459100008],[-123.02039501299998,48.457087738000084],[-123.01797894099992,48.457954749000045],[-123.01195834,48.45601365800012],[-123.00443423499998,48.456323599],[-122.97461629999998,48.4535633],[-122.96401458499999,48.45013856700011],[-122.96196507051742,48.45138168758144],[-122.9631317,48.452842],[-122.96113583342397,48.45576550041616],[-122.9630939,48.4578207],[-122.95945829700003,48.46132537200006],[-122.96077490999997,48.464034123],[-122.9596210357971,48.464391097120846],[-122.96215971799997,48.464885891000044],[-122.9670263,48.4683839],[-122.97083631999993,48.46798734400007],[-122.97096933125901,48.46628596456099],[-122.9649152,48.4602347],[-122.97024860109848,48.46306506077444],[-122.9759843,48.461618],[-122.98036368849762,48.46260756868701],[-122.98403135599999,48.46152105500008],[-122.98897352599998,48.462335113000016],[-122.985621426,48.46130157700003],[-122.987567,48.461396779],[-122.98743765399998,48.460364991000084],[-122.98927570399995,48.459947924000026],[-122.98940021099993,48.462426271],[-123.00131129000003,48.467088895000074],[-123.00895466899995,48.47279338900007],[-123.00997529999998,48.4776851],[-123.00782471999997,48.48432271500012],[-123.008366,48.4848631],[-123.00926916899996,48.48338088400008],[-123.0121245,48.4843924],[-123.015162962,48.489411022000034],[-123.01838816799994,48.49032649400002],[-123.01813652799993,48.49230116300007],[-123.02035339999996,48.4922688],[-123.0226136,48.4938934],[-123.0220414,48.4956749],[-123.01811479100002,48.49653433900003],[-123.019412431,48.50010331700002],[-123.021063379,48.500100175000014],[-123.0220898,48.502207],[-123.0194497,48.5039329],[-123.01747857425359,48.50351857816119],[-123.01587490000001,48.5054319],[-123.02051121499994,48.507486153000066],[-123.02110226499998,48.50999029700005],[-123.01713591685376,48.51410012156746],[-123.0208517,48.5157817],[-123.01762840299999,48.518507362999976]],[[-122.96864143900001,48.45280310600003],[-122.96322175799999,48.45281066400004],[-122.96864161099988,48.45280288700011],[-122.96864448599995,48.460048564],[-122.96864143900001,48.45280310600003]]],[[[-122.96322306300003,48.454041457000095],[-122.9634705939999,48.456013333],[-122.96322162399997,48.45281066400004],[-122.96322306300003,48.454041457000095]]],[[[-123.01060001099992,48.50626206200004],[-123.00806184199998,48.50721587300008],[-123.00837516740613,48.508264716885],[-123.01135267829777,48.50819811386041],[-123.01060001099992,48.50626206200004]]]]},"properties":{"COUNTY":"San Juan","PRECCODE":11,"PRECNAME":"San Juan South East","PRECINCT":"San Juan 11","DESCRIPTIO":"Friday Harbor Rural South (San Juan Golf & Tennis Club, Cattle Point)","OFFICE":"County Councilor District 3","JURISDICTION":"County Council","RACE":"San Juan County District 3 County Councilor District 3","Name_1":"Jennifer Swanson","Party_1":"None_1","Votes_1":"98","Name_2":"Katherine Bryant Ingman","Party_2":"None_2","Votes_2":"49","Name_3":"Renee J Koplan","Party_3":"None_3","Votes_3":"9","Name_4":"Write-In","Party_4":"None_4","Votes_4":"1","Name_5":null,"Party_5":null,"Votes_5":"0","Name_6":null,"Party_6":null,"Votes_6":"0","Name_7":null,"Party_7":null,"Votes_7":"0","Votes_total":"157","Pct_1":62.42,"Pct_2":31.21,"Pct_3":5.73,"Pct_4":0.64,"Pct_5":0,"Pct_6":0,"Pct_7":0,"Margin":31.21}},
{"type":"Feature","geometry":{"type":"Polygon","coordinates":[[[-123.14773360499994,48.513522498000015],[-123.1446043,48.5127678],[-123.1445915,48.5085284],[-123.1411391,48.5052958],[-123.13729420000001,48.504178],[-123.1334136,48.4985476],[-123.12887820000002,48.4977217],[-123.1267703,48.4983423],[-123.11811318931869,48.491986764617586],[-123.10912194799998,48.49137703999999],[-123.1082418,48.49039],[-123.1030005,48.4904846],[-123.10304950000001,48.4889146],[-123.09651179999997,48.4864684],[-123.09748508386727,48.48523912691461],[-123.09366170000001,48.4816838],[-123.0905198,48.483672],[-123.08838835079675,48.48234795244276],[-123.08519730000002,48.485342],[-123.0829389,48.4848449],[-123.08264571799994,48.48307800700007],[-123.080727,48.484021],[-123.08167577793789,48.48231826223002],[-123.07962563399995,48.48163817800004],[-123.07564589999997,48.4828971],[-123.07582781347074,48.481108785109804],[-123.07458584293809,48.48208012314859],[-123.07663864299991,48.48389286200007],[-123.0770769,48.487414],[-123.07439665099999,48.487672204000056],[-123.07423024299999,48.489321466],[-123.07193979999997,48.4907111],[-123.06448730000001,48.4898131],[-123.06192389999998,48.4882291],[-123.06129361099993,48.48416150600009],[-123.06352398299998,48.482518073000016],[-123.06663747199995,48.482159016000054],[-123.06793767699999,48.47972969500005],[-123.0657267869999,48.4781888190001],[-123.067307854,48.476558502000024],[-123.06483137564564,48.473147099938956],[-123.0602926,48.4717112],[-123.0599295632844,48.47062944241449],[-123.0560883,48.4714376],[-123.0554588376824,48.470226419134285],[-123.05393235699997,48.470610983000064],[-123.05396364566515,48.46969170126001],[-123.05070481799997,48.469174721000066],[-123.05095957627509,48.467093942027724],[-123.0483143819807,48.464648289144215],[-123.04336423799997,48.46396256700003],[-123.03686646596394,48.45813959920561],[-123.034788578,48.45910096900003],[-123.03653348399995,48.45968547500008],[-123.03602218600001,48.460445008000036],[-123.03577698399995,48.46095039200002],[-123.03562034899997,48.461216414],[-123.035078807,48.461827017000076],[-123.034221902,48.46295466500004],[-123.03394427099992,48.46310086100004],[-123.03281840399997,48.463328946],[-123.03232579099996,48.46327161300005],[-123.03130004199991,48.46280542300012],[-123.02943133099994,48.462345837000015],[-123.029264468,48.46234149],[-123.02907094999992,48.46237428500007],[-123.02882528499998,48.46254146900005],[-123.02870379899991,48.464549445],[-123.033388982,48.47146445000008],[-123.03124685799993,48.488511281000015],[-123.03255941400003,48.496140910000065],[-123.03255670699994,48.49652643800009],[-123.03285077899999,48.49764552400005],[-123.03427596199992,48.50002948800004],[-123.03583656200001,48.502964625000054],[-123.03601702299991,48.503404731000046],[-123.036121704,48.50384480300005],[-123.03593835599999,48.510381439000085],[-123.04005979099993,48.514470577000026],[-123.04501283199995,48.51452198600001],[-123.04512904399998,48.5067910270001],[-123.045140047,48.49996841100003],[-123.10002322099994,48.50014538500002],[-123.10480164499992,48.499106867000066],[-123.10471091899998,48.50740867100005],[-123.14177599899996,48.50743611700001],[-123.14439853699996,48.51047409600002],[-123.143176345,48.51397647800008],[-123.14773370799993,48.513983028],[-123.14773360499994,48.513522498000015]]]},"properties":{"COUNTY":"San Juan","PRECCODE":12,"PRECNAME":"San Juan South West","PRECINCT":"San Juan 12","DESCRIPTIO":"Friday Harbor Rural Far Southwest (False Bay, Kanaka Bay, Hannah Road, Oaks Manufactured Homes)","OFFICE":"County Councilor District 3","JURISDICTION":"County Council","RACE":"San Juan County District 3 County Councilor District 3","Name_1":"Jennifer Swanson","Party_1":"None_1","Votes_1":"146","Name_2":"Katherine Bryant Ingman","Party_2":"None_2","Votes_2":"86","Name_3":"Renee J Koplan","Party_3":"None_3","Votes_3":"20","Name_4":"Write-In","Party_4":"None_4","Votes_4":"1","Name_5":null,"Party_5":null,"Votes_5":"0","Name_6":null,"Party_6":null,"Votes_6":"0","Name_7":null,"Party_7":null,"Votes_7":"0","Votes_total":"253","Pct_1":57.71,"Pct_2":33.99,"Pct_3":7.91,"Pct_4":0.4,"Pct_5":0,"Pct_6":0,"Pct_7":0,"Margin":23.72}},
{"type":"Feature","geometry":{"type":"Polygon","coordinates":[[[-123.03404314499996,48.5253745160001],[-123.03403990099991,48.52607273300004],[-123.03196651,48.526822935000034],[-123.03163216699996,48.526967551],[-123.03132040799991,48.52713293500001],[-123.030449655,48.527692013],[-123.030153319,48.52790540900006],[-123.028914566,48.528932969],[-123.02870697699994,48.52912749600002],[-123.02855040499998,48.52930259200012],[-123.02855093999993,48.530507053000036],[-123.03124094299989,48.529973131000084],[-123.03126996999998,48.53594597400011],[-123.03943510099992,48.53623730100004],[-123.03946572099989,48.5507777650001],[-123.08844572499994,48.550885529000034],[-123.10489764799993,48.5509097780001],[-123.14800080599994,48.55061601200003],[-123.14776079799995,48.52198391100004],[-123.14773370799993,48.513983028],[-123.143176345,48.51397647800008],[-123.14439853699996,48.51047409600002],[-123.14177599899996,48.50743611700001],[-123.10471091899998,48.50740867100005],[-123.10480164499992,48.499106867000066],[-123.10002322099994,48.50014538500002],[-123.045140047,48.49996841100003],[-123.04512904399998,48.5067910270001],[-123.04496558599995,48.51802887800009],[-123.04504788599994,48.52537641800008],[-123.03404314499996,48.5253745160001]]]},"properties":{"COUNTY":"San Juan","PRECCODE":13,"PRECNAME":"San Juan Central","PRECINCT":"San Juan 13","DESCRIPTIO":"Friday Harbor Rural West (Beaverton Valley, San Juan Valley, Wold Road)","OFFICE":"County Councilor District 3","JURISDICTION":"County Council","RACE":"San Juan County District 3 County Councilor District 3","Name_1":"Jennifer Swanson","Party_1":"None_1","Votes_1":"141","Name_2":"Katherine Bryant Ingman","Party_2":"None_2","Votes_2":"99","Name_3":"Renee J Koplan","Party_3":"None_3","Votes_3":"20","Name_4":"Write-In","Party_4":"None_4","Votes_4":"7","Name_5":null,"Party_5":null,"Votes_5":"0","Name_6":null,"Party_6":null,"Votes_6":"0","Name_7":null,"Party_7":null,"Votes_7":"0","Votes_total":"267","Pct_1":52.81,"Pct_2":37.08,"Pct_3":7.49,"Pct_4":2.62,"Pct_5":0,"Pct_6":0,"Pct_7":0,"Margin":15.73}},
{"type":"Feature","geometry":{"type":"Polygon","coordinates":[[[-123.14776079799995,48.52198391100004],[-123.14800080599994,48.55061601200003],[-123.10489764799993,48.5509097780001],[-123.08844572499994,48.550885529000034],[-123.083051241,48.55087889500002],[-123.08322541799996,48.56668502200008],[-123.08417179399999,48.58001461300003],[-123.08320185499996,48.57926156800008],[-123.08306967650337,48.59229333979684],[-123.08814869679667,48.59431125738016],[-123.09409681099999,48.59430554400003],[-123.1267278769999,48.59430285600008],[-123.14470773697221,48.59424169730698],[-123.14723160899999,48.59252494500005],[-123.15104538699998,48.59210035200001],[-123.15622243417029,48.59369191049541],[-123.15742715436166,48.59047341046186],[-123.1554789878997,48.58754445008661],[-123.15171836799998,48.587272466000044],[-123.149697781,48.58519209600005],[-123.15039665700004,48.58280203400009],[-123.1478249,48.5782593],[-123.15008215499992,48.57923420300003],[-123.15317326633402,48.58328129371275],[-123.155182789,48.581843614000014],[-123.15786831673667,48.58350835014239],[-123.16233816699996,48.58364926800003],[-123.16127564399991,48.585262606000114],[-123.16402530399992,48.58684919300003],[-123.16153888966569,48.58990990178071],[-123.16468620134319,48.59066952054536],[-123.165617895,48.588218618],[-123.16901387772006,48.58922055265722],[-123.1702274,48.58824030100002],[-123.1684866,48.5832186],[-123.17099079399995,48.582134320000094],[-123.17367014652793,48.57787082480374],[-123.17152572499998,48.57578508400011],[-123.16861617499991,48.575567936],[-123.16779283718596,48.573234694716305],[-123.16557627699994,48.573767596000074],[-123.16351357599997,48.57302791000007],[-123.16311770941698,48.56956239877766],[-123.16046300899997,48.57291734000007],[-123.15598927499994,48.57445697900009],[-123.1526002,48.5775648],[-123.155670361,48.5681816970001],[-123.16191760000001,48.5680498],[-123.16774445399992,48.56975258200004],[-123.1716006818085,48.57237291215045],[-123.17693050299997,48.56612291200001],[-123.1754322,48.5645873],[-123.17648171225454,48.56228104163245],[-123.17250791649256,48.555629460988655],[-123.1680536,48.5531175],[-123.16878915362766,48.551425804126715],[-123.16720536254157,48.55013761493498],[-123.1644898,48.5502526],[-123.16134969999997,48.548077],[-123.16157970000002,48.5409373],[-123.16011850800001,48.54173968700004],[-123.15897444200002,48.540426437000086],[-123.1617553478734,48.53932931148982],[-123.16401833032404,48.53621756774647],[-123.16313491613484,48.52942386955875],[-123.157177276,48.524280554],[-123.15636630785718,48.520813445238815],[-123.15225259999998,48.5198476],[-123.15169080499996,48.51483992100003],[-123.14773360499994,48.513522498000015],[-123.14776079799995,48.52198391100004]]]},"properties":{"COUNTY":"San Juan","PRECCODE":14,"PRECNAME":"San Juan West","PRECINCT":"San Juan 14","DESCRIPTIO":"Friday Harbor Rural Far Northwest (Lakedale West, Yacht Haven, Mitchell Bay, Limekiln Preserve)","OFFICE":"County Councilor District 3","JURISDICTION":"County Council","RACE":"San Juan County District 3 County Councilor District 3","Name_1":"Jennifer Swanson","Party_1":"None_1","Votes_1":"153","Name_2":"Katherine Bryant Ingman","Party_2":"None_2","Votes_2":"82","Name_3":"Renee J Koplan","Party_3":"None_3","Votes_3":"34","Name_4":"Write-In","Party_4":"None_4","Votes_4":"5","Name_5":null,"Party_5":null,"Votes_5":"0","Name_6":null,"Party_6":null,"Votes_6":"0","Name_7":null,"Party_7":null,"Votes_7":"0","Votes_total":"274","Pct_1":55.84,"Pct_2":29.93,"Pct_3":12.41,"Pct_4":1.82,"Pct_5":0,"Pct_6":0,"Pct_7":0,"Margin":25.91}},
{"type":"Feature","geometry":{"type":"MultiPolygon","coordinates":[[[[-123.18005467299999,48.61028597800002],[-123.17480797276926,48.6139407922476],[-123.17605769999999,48.617571],[-123.17502736299994,48.61931843000007],[-123.1792093,48.6205447],[-123.17956450699994,48.6221431330001],[-123.18303711399993,48.61536340500003],[-123.18763764399989,48.61089504200007],[-123.19033435799992,48.60938703000009],[-123.19218782816371,48.609586951237624],[-123.193200067,48.60744809500005],[-123.19608307299997,48.60650676700007],[-123.19776322699998,48.60182332100007],[-123.20304425699996,48.59538592700008],[-123.20198575711092,48.58826067267317],[-123.198231558,48.586206986],[-123.19430733562659,48.58733486890457],[-123.194936967,48.59140759300007],[-123.19104136299998,48.592770100000095],[-123.18866536699994,48.596896816000026],[-123.18364709999999,48.5955341],[-123.1831941,48.5932963],[-123.18589261399991,48.58825727400009],[-123.18260251792596,48.58389945427385],[-123.17963837121238,48.58354034442637],[-123.17931692099998,48.58469368600002],[-123.17657122399997,48.58567298500005],[-123.17756141484348,48.590418611612236],[-123.18057720000002,48.5945811],[-123.17573822499999,48.5988181210001],[-123.1699739062056,48.60082025747196],[-123.1731715486438,48.60289626240016],[-123.17819690698946,48.60310510577631],[-123.1823112,48.5977776],[-123.1813933,48.596742],[-123.1852974979999,48.598424977],[-123.1871494109999,48.59795315600003],[-123.18553502287793,48.59931707630559],[-123.186671404,48.602615907],[-123.17781454700001,48.606773060000066],[-123.181969946,48.60822269700002],[-123.18005467299999,48.61028597800002]]],[[[-123.1700652,48.616017],[-123.16343678285612,48.61407883781491],[-123.16095956840357,48.6140067174641],[-123.1598630055054,48.6155021914367],[-123.16068957210823,48.617137536493885],[-123.16352271999993,48.61585715800003],[-123.16962668312449,48.616753553735265],[-123.1700652,48.616017]]],[[[-123.20757172699993,48.679940867],[-123.20911861099992,48.68498230200004],[-123.2030512746254,48.686215641132506],[-123.20806084335047,48.68897648057939],[-123.21496310078277,48.689869505572155],[-123.23735727279524,48.68857853338057],[-123.235473,48.6848124],[-123.23708890938207,48.683606267554694],[-123.23018720999991,48.680285569],[-123.23104271983547,48.67792657107642],[-123.22824558599994,48.67620759500002],[-123.22216685499993,48.675060109000114],[-123.21936986636136,48.67041024826524],[-123.2028751026543,48.663355577237006],[-123.1971703,48.6627971],[-123.19603242197147,48.6614878936682],[-123.18972159999997,48.6610552],[-123.1855464,48.6581111],[-123.18380904540399,48.65808088834202],[-123.18256184599996,48.6599673320001],[-123.18123939174659,48.6594696535152],[-123.17999052883081,48.661728909005674],[-123.18016597299996,48.66598541900004],[-123.18858831799999,48.66708187900008],[-123.18928645831849,48.66845915451417],[-123.19539011200001,48.669650967000024],[-123.19680486799999,48.67148644500001],[-123.20507874299996,48.674726761000066],[-123.20405638999995,48.67652127500004],[-123.1953136,48.6739422],[-123.1942531,48.6745237],[-123.1767097809999,48.67110584900005],[-123.17107469999998,48.6680237],[-123.17231876040294,48.666847173384966],[-123.17043139999998,48.6660342],[-123.17120939433082,48.66390639966897],[-123.16699639999999,48.6634933],[-123.16628251699993,48.66747802700009],[-123.16985505699992,48.67146901000008],[-123.167809886,48.673708924000046],[-123.16457546234594,48.673105759696014],[-123.16422687200003,48.6740638570001],[-123.168892878,48.67524904500002],[-123.17252397299994,48.67978365100005],[-123.17631633593373,48.680303872368484],[-123.18192041251181,48.676292639235164],[-123.1809885659999,48.674224174000045],[-123.1834931,48.6737276],[-123.18884773208637,48.67565169218971],[-123.198388045,48.67685912100011],[-123.20140319999999,48.6789744],[-123.20757172699993,48.679940867]]],[[[-123.18767886399992,48.681713437000035],[-123.18326589999998,48.6838321],[-123.188659457,48.68518591000002],[-123.19322453199993,48.68353517700004],[-123.19667905657336,48.68509608274372],[-123.19912500584219,48.68283971879994],[-123.19413169999999,48.6829182],[-123.19380815199995,48.68164224200008],[-123.19545039999998,48.6807203],[-123.19030350000001,48.6800994],[-123.19056180000001,48.6785874],[-123.1869062,48.6774242],[-123.18550929766822,48.67816990510002],[-123.18715967199996,48.678626962000095],[-123.18767886399992,48.681713437000035]]],[[[-123.09192571713366,48.6040997088135],[-123.09266629999998,48.6045919],[-123.09339459999997,48.6030543],[-123.09192571713366,48.6040997088135]]],[[[-123.08814869679667,48.59431125738016],[-123.09251338790607,48.59641109299098],[-123.10117781999992,48.59758044600002],[-123.10602662999996,48.59963574199998],[-123.10172936199992,48.60098332300002],[-123.1030089,48.6023037],[-123.100157,48.6055504],[-123.09767391924551,48.612867063222886],[-123.09884873399996,48.61269348400001],[-123.101858249,48.61596639300009],[-123.10177888199993,48.619413437000034],[-123.10413141299996,48.61961723800001],[-123.10752561032272,48.62237064339355],[-123.11263719999997,48.62072739000002],[-123.11776904706886,48.62184280772687],[-123.12029965599997,48.61955273100009],[-123.12986046844141,48.62123642687298],[-123.13305710599992,48.619352751000065],[-123.13603640835801,48.620073421582916],[-123.1409716469999,48.61926429500003],[-123.14283390000001,48.6209519],[-123.14794174599994,48.62040862100012],[-123.15013460200002,48.621794007000084],[-123.13898299525972,48.62314247711262],[-123.14837012399994,48.62419932400006],[-123.15293469157989,48.622823613956726],[-123.15034692099998,48.621720840000066],[-123.15053703300002,48.61977201000012],[-123.15746545710329,48.615106259320534],[-123.15433198288235,48.61235538098814],[-123.1512581,48.6116823],[-123.15077574399994,48.609920801000015],[-123.15602665199998,48.60597435800006],[-123.156335643,48.60821020800006],[-123.16009860499993,48.60853433300005],[-123.16661594381267,48.605158607516216],[-123.16342450000002,48.598714],[-123.16726794199992,48.59716241300007],[-123.17053160099996,48.59738991200007],[-123.16911091900002,48.5950555640001],[-123.1715776786315,48.590762361720905],[-123.16842043562845,48.59096783311255],[-123.16616991599994,48.593920988000015],[-123.1628385,48.594984],[-123.16288959499995,48.59745457000008],[-123.1601127,48.6000856],[-123.15807390000002,48.6003702],[-123.15480350099996,48.598315398000075],[-123.1501291199653,48.59942257719227],[-123.15014174799997,48.60272901000004],[-123.14619280690296,48.60463867190351],[-123.14343441599995,48.60915317300001],[-123.14037392399993,48.60795504900009],[-123.14296108799995,48.6076751840001],[-123.13653305599993,48.60341827500005],[-123.14241314299993,48.596682530000066],[-123.14618239999999,48.5958839],[-123.14620505531242,48.59499047074444],[-123.14450435599991,48.59544182300008],[-123.14470773697221,48.59424169730698],[-123.1267278769999,48.59430285600008],[-123.09409681099999,48.59430554400003],[-123.08814869679667,48.59431125738016]]],[[[-123.15073931099995,48.63869800700011],[-123.1482015,48.6388609],[-123.15102163999995,48.641206640000014],[-123.1525411,48.6392403],[-123.15073931099995,48.63869800700011]]],[[[-123.13711307299995,48.64379483800012],[-123.14210125599996,48.644132508000084],[-123.15743255999998,48.64913188000003],[-123.16412568279799,48.648031138260066],[-123.1452378,48.6422764],[-123.1351265,48.6373309],[-123.1201253,48.6331586],[-123.1112669,48.6342249],[-123.10895805056006,48.632825513596345],[-123.1062502,48.6334856],[-123.10672227599996,48.63446655400003],[-123.11541089999997,48.6367553],[-123.11895249965588,48.63967119889015],[-123.12650702300002,48.64278723600005],[-123.13711307299995,48.64379483800012]]],[[[-123.079224631,48.6487324290001],[-123.0844051091979,48.648398450116],[-123.08702496499996,48.64528864600008],[-123.08315119999999,48.6448321],[-123.07908668299025,48.64632323011114],[-123.07806480551909,48.64789807710734],[-123.079224631,48.6487324290001]]],[[[-123.13172254862842,48.6501506519836],[-123.13260145238205,48.64893267643881],[-123.12646731591411,48.64793797316426],[-123.12920492551908,48.650550148082075],[-123.13172254862842,48.6501506519836]]],[[[-123.1362996440114,48.65160502575942],[-123.13836037839627,48.651569950128525],[-123.13882513123478,48.65054579681351],[-123.135370119,48.6501000440001],[-123.1362996440114,48.65160502575942]]],[[[-123.15297939199992,48.669814749000075],[-123.15880810000002,48.6720072],[-123.16383089999995,48.6699007],[-123.16298029999997,48.6681455],[-123.159774154,48.667435873000066],[-123.15827573399993,48.66590435500009],[-123.15380033499997,48.665203713000025],[-123.14482650507786,48.66002389283232],[-123.140808105,48.65985157300003],[-123.13743114999991,48.65820621900006],[-123.13467961384143,48.65889009721812],[-123.1373262,48.6608155],[-123.13985740000001,48.6602472],[-123.13986944699992,48.66188784900004],[-123.14432509204266,48.664481371540134],[-123.1459281,48.6638156],[-123.14853010000002,48.6646842],[-123.14887005599994,48.66614334700006],[-123.146732,48.6670047],[-123.15297939199992,48.669814749000075]]]]},"properties":{"COUNTY":"San Juan","PRECCODE":15,"PRECNAME":"San Juan North","PRECINCT":"San Juan 15","DESCRIPTIO":"Friday Harbor Rural Farthest Northwest (Roche Harbor, Limestone Point), Stuart Island","OFFICE":"County Councilor District 3","JURISDICTION":"County Council","RACE":"San Juan County District 3 County Councilor District 3","Name_1":"Jennifer Swanson","Party_1":"None_1","Votes_1":"119","Name_2":"Katherine Bryant Ingman","Party_2":"None_2","Votes_2":"61","Name_3":"Renee J Koplan","Party_3":"None_3","Votes_3":"40","Name_4":"Write-In","Party_4":"None_4","Votes_4":"1","Name_5":null,"Party_5":null,"Votes_5":"0","Name_6":null,"Party_6":null,"Votes_6":"0","Name_7":null,"Party_7":null,"Votes_7":"0","Votes_total":"221","Pct_1":53.85,"Pct_2":27.6,"Pct_3":18.1,"Pct_4":0.45,"Pct_5":0,"Pct_6":0,"Pct_7":0,"Margin":26.25}},
{"type":"Feature","geometry":{"type":"Polygon","coordinates":[[[-123.01964068299998,48.53971192100005],[-123.0161288,48.5408712],[-123.01864410000002,48.5448418],[-123.00755945499998,48.54613815100003],[-123.005784,48.5497636],[-123.005749,48.5519523],[-123.01164219999998,48.5562721],[-123.01324370000002,48.5599149],[-123.01713305399993,48.56204676400006],[-123.0334851,48.5633518],[-123.04058891499993,48.56502784500003],[-123.04897069999997,48.5694676],[-123.05155041699999,48.57432132900004],[-123.05633020000002,48.5775159],[-123.059661,48.581629],[-123.0756775,48.59098319999999],[-123.0749184170382,48.59199140197669],[-123.07882339999998,48.5929955],[-123.07969715899998,48.59152338700005],[-123.08306967650337,48.59229333979683],[-123.08305124099995,48.55087889500004],[-123.03946572099994,48.55077776500008],[-123.03943510099998,48.536237301000035],[-123.03399149899995,48.536243427000045],[-123.03400550699997,48.54350707200007],[-123.02860858899997,48.543485455000045],[-123.028608293,48.54641969300007],[-123.02744998599997,48.54641676200003],[-123.02633368599996,48.545558745000044],[-123.02555127799997,48.54423810300005],[-123.02420686599997,48.54281079500004],[-123.02307435099998,48.54216785500006],[-123.02315444799997,48.54346353600005],[-123.02052504399997,48.54497767300006],[-123.01964068299998,48.53971192100005]]]},"properties":{"COUNTY":"San Juan","PRECCODE":16,"PRECNAME":"San Juan East","PRECINCT":"San Juan 16","DESCRIPTIO":"Friday Harbor Rural North (Mineral Point, Hillview Terrace, Lakeview East)","OFFICE":"County Councilor District 3","JURISDICTION":"County Council","RACE":"San Juan County District 3 County Councilor District 3","Name_1":"Jennifer Swanson","Party_1":"None_1","Votes_1":"125","Name_2":"Katherine Bryant Ingman","Party_2":"None_2","Votes_2":"81","Name_3":"Renee J Koplan","Party_3":"None_3","Votes_3":"15","Name_4":null,"Party_4":null,"Votes_4":"0","Name_5":null,"Party_5":null,"Votes_5":"0","Name_6":null,"Party_6":null,"Votes_6":"0","Name_7":null,"Party_7":null,"Votes_7":"0","Votes_total":"221","Pct_1":56.56,"Pct_2":36.65,"Pct_3":6.79,"Pct_4":0,"Pct_5":0,"Pct_6":0,"Pct_7":0,"Margin":19.91}},
{"type":"Feature","geometry":{"type":"MultiPolygon","coordinates":[[[[-123.02855335399994,48.521739315000055],[-123.02855194299998,48.525360431000095],[-123.03404314499996,48.5253745160001],[-123.04504788599994,48.52537641800008],[-123.04500029999997,48.521751600000094],[-123.02855335399994,48.521739315000055]]],[[[-123.01762840299999,48.518507362999976],[-123.0151119981284,48.51886573733659],[-123.01676626899999,48.52087287700004],[-123.01464079999994,48.52172481100009],[-123.0110976,48.5217986],[-123.00909680400002,48.520777660000064],[-123.01221729399997,48.519648508000074],[-123.01409861825707,48.521461019592266],[-123.01298020099995,48.51940237600005],[-123.0137360466854,48.51819805366518],[-123.00377891999993,48.52074458300009],[-123.00208981299996,48.51947357000007],[-122.99961526899993,48.51969437400005],[-122.99771875699994,48.51621853300005],[-122.99157049999997,48.5151633],[-122.98821793,48.516780987000054],[-122.9825769,48.5145425],[-122.98080129999997,48.5181061],[-122.97292190000002,48.5206561],[-122.971394,48.5222868],[-122.97164831188663,48.5253677000291],[-122.9740117618903,48.52822231359261],[-122.97562939999997,48.52677489900006],[-122.97958954199999,48.527771584],[-122.97866430000002,48.5324606],[-122.98164147499995,48.535214],[-122.98783295500003,48.53605689000005],[-122.99018785799997,48.53469725300008],[-122.99538038900002,48.534945459000014],[-122.993519876,48.529257241],[-122.99668560545577,48.529585962102715],[-122.995656993,48.528265514000026],[-122.99782818899995,48.525900393],[-122.99988802399996,48.525875401000064],[-123.00033563881433,48.527232588724665],[-123.00381892599991,48.52881997200007],[-123.00510223299999,48.52881828600002],[-123.00512050399996,48.52850020700008],[-123.00509790799998,48.52834571600009],[-123.00504379499995,48.528195512000096],[-123.00497232999994,48.52808261100008],[-123.00459451399998,48.5277833740001],[-123.004453153,48.52772839800007],[-123.004271568,48.52767323000004],[-123.00385521000003,48.52758175600011],[-123.00354527999991,48.527526714],[-123.00317500799996,48.527487743000066],[-123.002343581,48.52745364],[-123.00215388699993,48.52743255400003],[-123.00198873499991,48.527390462],[-123.00188548799994,48.52734943700007],[-123.00177342499997,48.52728981600003],[-123.00164921500001,48.52719383800008],[-123.00155789599992,48.52708275900004],[-123.00150347199994,48.526961459000034],[-123.001257257,48.526069088],[-123.00126440299996,48.525332420000076],[-123.00673450599993,48.52532707799999],[-123.0067386249999,48.52713956700003],[-123.01763946299992,48.5271264460001],[-123.01914890100002,48.524754736000055],[-123.02330292599999,48.52414112700009],[-123.02322147800004,48.521717295],[-123.02855335399994,48.521739315000055],[-123.028551802,48.520796469000025],[-123.02574517199992,48.520495286000056],[-123.025182289,48.515638250000094],[-123.02308064399993,48.51604504000009],[-123.02309610599995,48.52171677400005],[-123.01764186899995,48.521693989000035],[-123.01762840299999,48.518507362999976]]],[[[-122.97161487899997,48.527639483],[-122.97035811526149,48.526898587430445],[-122.97012806681819,48.52855466008441],[-122.971998319,48.528499401],[-122.97161487899997,48.527639483]]],[[[-122.974191231,48.53157610700002],[-122.97502206498199,48.531079897249164],[-122.96907980000002,48.5321229],[-122.9704409259289,48.53567636463997],[-122.97196848675607,48.53535306285118],[-122.974191231,48.53157610700002]]],[[[-122.99803529450725,48.53607805613308],[-123.0045874339999,48.540358598000076],[-123.00811784999992,48.54041759800007],[-123.008308566,48.53781624000004],[-123.00378586899997,48.53682129500005],[-123.001400243,48.53436275000011],[-122.99803529450725,48.53607805613308]]]]},"properties":{"COUNTY":"San Juan","PRECCODE":17,"PRECNAME":"Turn Point","PRECINCT":"San Juan 17","DESCRIPTIO":"Friday Harbor Rural Southeast (Fairgrounds, Argyle Lagoon, Turn Point, Brown Island) & Near South","OFFICE":"County Councilor District 3","JURISDICTION":"County Council","RACE":"San Juan County District 3 County Councilor District 3","Name_1":"Jennifer Swanson","Party_1":"None_1","Votes_1":"67","Name_2":"Katherine Bryant Ingman","Party_2":"None_2","Votes_2":"31","Name_3":"Renee J Koplan","Party_3":"None_3","Votes_3":"8","Name_4":"Write-In","Party_4":"None_4","Votes_4":"2","Name_5":null,"Party_5":null,"Votes_5":"0","Name_6":null,"Party_6":null,"Votes_6":"0","Name_7":null,"Party_7":null,"Votes_7":"0","Votes_total":"108","Pct_1":62.04,"Pct_2":28.7,"Pct_3":7.41,"Pct_4":1.85,"Pct_5":0,"Pct_6":0,"Pct_7":0,"Margin":33.34}},
{"type":"Feature","geometry":{"type":"MultiPolygon","coordinates":[[[[-123.03366497525322,48.591160910866236],[-123.02961965392718,48.59286868792491],[-123.03226019199997,48.59303343600004],[-123.033939,48.5922524],[-123.03366497525322,48.591160910866236]]],[[[-123.0193555382471,48.59549129031907],[-123.02045350819039,48.5947100416697],[-123.01837714799997,48.59480800800004],[-123.0193555382471,48.59549129031907]]],[[[-123.02090930599996,48.59714694400002],[-123.02355203097319,48.5994077865971],[-123.02477388989134,48.594338607157574],[-123.0231967263351,48.594189113933865],[-123.01960131663637,48.59708405221029],[-123.02090930599996,48.59714694400002]]],[[[-123.03961928598054,48.6141220425207],[-123.04085748799994,48.61752046700008],[-123.04423726631819,48.619444625075616],[-123.04495809699993,48.61753518700004],[-123.048720647,48.61788441000004],[-123.04781265224513,48.61971878207128],[-123.04923949739234,48.62128390688138],[-123.05440686099996,48.61833579200004],[-123.05154990399994,48.61593633400002],[-123.05168139299995,48.61358246700008],[-123.04936075409735,48.61144702925843],[-123.04624945299994,48.61100996000005],[-123.046578728,48.612003998000034],[-123.04478018199997,48.61256956200004],[-123.03882989040217,48.61062167442291],[-123.03961928598054,48.6141220425207]]],[[[-123.00802906399996,48.708914740000075],[-123.00948820000002,48.711912],[-123.00987109999998,48.7171875],[-123.00857908199995,48.71870850900006],[-123.00965191599995,48.72084941100007],[-123.02036492110791,48.72066161874103],[-123.028386,48.7165793],[-123.04078708199992,48.71703912700008],[-123.0451684,48.709804],[-123.05037674999996,48.70563646900007],[-123.07076436233591,48.69917736458886],[-123.05305143999998,48.697349256000045],[-123.04525341299995,48.695216360000074],[-123.03956136799997,48.69173790200005],[-123.0368906,48.6899314],[-123.0363355,48.6855153],[-123.04389903799995,48.676514216000044],[-123.04357516007467,48.67581480851242],[-123.0368795,48.676354],[-123.01647341646397,48.68399732253245],[-123.007191,48.6917459],[-123.00575588411353,48.6937479788479],[-123.00613830099996,48.69748289900008],[-123.0099236,48.6995512],[-123.00910346073978,48.70122309344256],[-123.01161810000002,48.7016355],[-123.01124530000001,48.7032358],[-123.005593215,48.70326357900006],[-123.00453482599994,48.70410314700007],[-123.00802906399996,48.708914740000075]]],[[[-123.03890554799993,48.732057566000044],[-123.0350085,48.7314919],[-123.03188006993389,48.73251608541978],[-123.03816349999998,48.7329632],[-123.03980150488024,48.73262634991189],[-123.03890554799993,48.732057566000044]]],[[[-123.01539533799995,48.58996223400005],[-123.0173308,48.5893547],[-123.0119440933863,48.5907800428251],[-123.01539533799995,48.58996223400005]]],[[[-122.9798854,48.5955719],[-122.98093559699998,48.59665326000004],[-122.98117039728159,48.595464667544874],[-122.9798854,48.5955719]]],[[[-122.99094626899995,48.59692334300007],[-122.992263504,48.597764991000076],[-122.99164348899994,48.600509859000056],[-122.996429413,48.60149334000005],[-123.00383214799993,48.59963544900006],[-123.00787700857906,48.59690542381224],[-123.00691737780461,48.59447387540825],[-123.00399592899997,48.59289142100004],[-123.00163720499992,48.59378365200007],[-122.99637527268094,48.59257550046936],[-122.98963053999996,48.594469226000065],[-122.98878690999999,48.595250840000055],[-122.99094626899995,48.59692334300007]]],[[[-123.01570397799996,48.60686297500006],[-123.01806635599996,48.60320400400008],[-123.016021923,48.602451806000026],[-123.01449469499994,48.605820300000055],[-123.01570397799996,48.60686297500006]]],[[[-122.9690087239713,48.78373498582081],[-122.96532284562792,48.78434452666517],[-122.97011090865469,48.785633252477474],[-122.97154803199999,48.784979083000046],[-122.9690087239713,48.78373498582081]]],[[[-122.96147739399996,48.787075938000044],[-122.97140544586107,48.7891797995099],[-122.96872229877326,48.786286548694726],[-122.96415252399996,48.78489195800006],[-122.96463847399998,48.78402780000005],[-122.95684950899998,48.782787798000065],[-122.95488487599998,48.78156256800003],[-122.94843029499997,48.78116145900004],[-122.94408869799997,48.78253019300007],[-122.94077838799994,48.78530999700007],[-122.94261995499996,48.78513202200003],[-122.94202048557919,48.78648990746195],[-122.94454198999993,48.787108820000064],[-122.95026667199996,48.785079774000046],[-122.96147739399996,48.787075938000044]]]]},"properties":{"COUNTY":"San Juan","PRECCODE":20,"PRECNAME":"Waldron & Outer Is","PRECINCT":"San Juan 20","DESCRIPTIO":"North San Juan County (Waldron Island, Crane Island, Bell Island)","OFFICE":"County Councilor District 3","JURISDICTION":"County Council","RACE":"San Juan County District 3 County Councilor District 3","Name_1":"Jennifer Swanson","Party_1":"None_1","Votes_1":"13","Name_2":"Katherine Bryant Ingman","Party_2":"None_2","Votes_2":"11","Name_3":"Renee J Koplan","Party_3":"None_3","Votes_3":"5","Name_4":null,"Party_4":null,"Votes_4":"0","Name_5":null,"Party_5":null,"Votes_5":"0","Name_6":null,"Party_6":null,"Votes_6":"0","Name_7":null,"Party_7":null,"Votes_7":"0","Votes_total":"29","Pct_1":44.83,"Pct_2":37.93,"Pct_3":17.24,"Pct_4":0,"Pct_5":0,"Pct_6":0,"Pct_7":0,"Margin":6.9}},
{"type":"Feature","geometry":{"type":"Polygon","coordinates":[[[-122.91696928599997,48.70899733000002],[-122.91691635085758,48.71365173042825],[-122.9175015,48.7136053],[-122.926285,48.7109007],[-122.931142,48.7113053],[-122.93958339999999,48.709611],[-122.950279571001,48.71208660715725],[-122.94340976199994,48.70810020300004],[-122.94159638899997,48.702142441000035],[-122.94719491199997,48.69764930100007],[-122.94732792999997,48.695514621000015],[-122.95042247599993,48.69229252700005],[-122.953940278,48.6908171970001],[-122.9609029279999,48.690876737000046],[-122.96168011319914,48.6898259955228],[-122.9585323,48.6889324],[-122.9581413,48.6879444],[-122.95816235399995,48.6873649510001],[-122.958456483,48.68644949500002],[-122.95816725999995,48.68638902],[-122.958001564,48.68633049400004],[-122.95715499699996,48.68553542600007],[-122.95709671500002,48.685497880000064],[-122.95688482399997,48.685436238000115],[-122.95671366600003,48.685418681],[-122.95586663999991,48.685437570000055],[-122.95479428899993,48.68542060100007],[-122.95093092099994,48.68542146000006],[-122.94989928099994,48.68542761300003],[-122.94669703599999,48.68547349700001],[-122.94639397499998,48.685502057000065],[-122.94465811499995,48.68601926600004],[-122.94296936799992,48.68534566600009],[-122.94293629799998,48.684678170000026],[-122.94277271899993,48.684533476000034],[-122.94260980399994,48.68449207700007],[-122.9410290759999,48.68448286100002],[-122.940592375,48.68462204000007],[-122.93881890999992,48.68473460700006],[-122.94052789300002,48.68324106700003],[-122.94020861699997,48.681502627000086],[-122.93749363299995,48.68256240500002],[-122.93547980999992,48.6823971310001],[-122.93195218199999,48.68344989899999],[-122.93037268199996,48.68400461300006],[-122.92262736799991,48.68871868200002],[-122.92171641099996,48.689662152],[-122.91723466199996,48.69234199900005],[-122.91273161899996,48.69306198200011],[-122.911840561,48.693230143000086],[-122.91109440899996,48.693986129000024],[-122.91164505299996,48.696677709000056],[-122.9116789929999,48.70192043400005],[-122.91165228499995,48.70301589500011],[-122.91705280800002,48.703049196000016],[-122.9169936859999,48.70856429],[-122.91696928599997,48.70899733000002]]]},"properties":{"COUNTY":"San Juan","PRECCODE":21,"PRECNAME":"Orcas North","PRECINCT":"San Juan 21","DESCRIPTIO":"Orcas Island Northwest (Enchanted Forest, Beach Haven)","OFFICE":"County Councilor District 3","JURISDICTION":"County Council","RACE":"San Juan County District 3 County Councilor District 3","Name_1":"Jennifer Swanson","Party_1":"None_1","Votes_1":"54","Name_2":"Katherine Bryant Ingman","Party_2":"None_2","Votes_2":"37","Name_3":"Renee J Koplan","Party_3":"None_3","Votes_3":"5","Name_4":"Write-In","Party_4":"None_4","Votes_4":"1","Name_5":null,"Party_5":null,"Votes_5":"0","Name_6":null,"Party_6":null,"Votes_6":"0","Name_7":null,"Party_7":null,"Votes_7":"0","Votes_total":"97","Pct_1":55.67,"Pct_2":38.14,"Pct_3":5.15,"Pct_4":1.03,"Pct_5":0,"Pct_6":0,"Pct_7":0,"Margin":17.53}},
{"type":"Feature","geometry":{"type":"MultiPolygon","coordinates":[[[[-122.97297011006582,48.60501097040881],[-122.9743139367308,48.60440626341276],[-122.97327501996286,48.6036988807162],[-122.97198748599965,48.60403719925891],[-122.97297011006582,48.60501097040881]]],[[[-122.97281201047885,48.60601899130653],[-122.9715598150332,48.60738342618738],[-122.9722717,48.6096849],[-122.97373261273687,48.6092305537932],[-122.97382139999996,48.6075213],[-122.9756334,48.6074952],[-122.9748054,48.6055635],[-122.97281201047885,48.60601899130653]]],[[[-122.97474365199999,48.61408757500005],[-122.97596009999998,48.6139096],[-122.97502390000001,48.6129323],[-122.97474365199999,48.61408757500005]]],[[[-122.940592375,48.68462204000007],[-122.94102907599995,48.68448286100005],[-122.94261087299998,48.68449200600002],[-122.94277487499994,48.684534029000076],[-122.94465811499998,48.686019266000066],[-122.94639397499998,48.685502057000065],[-122.94669703599999,48.68547349700003],[-122.95059949799997,48.68542265000008],[-122.95479428899993,48.68542060100004],[-122.95586663999994,48.68543757000003],[-122.95671366599997,48.68541868100005],[-122.956884824,48.68543623800008],[-122.95709671499996,48.685497880000064],[-122.95758557,48.68602541000007],[-122.95800156399994,48.68633049400006],[-122.95816725999998,48.68638902000003],[-122.95845387699997,48.686457190000056],[-122.95854365899999,48.68619139600003],[-122.958686732,48.68598248500007],[-122.959721377,48.684932084000074],[-122.96388578799998,48.682773405000034],[-122.97902924186168,48.67746577967831],[-122.98527915449813,48.67399122288122],[-122.98472509699997,48.67253924100004],[-122.98883914699994,48.667004047000034],[-122.99635559399995,48.664264212000035],[-122.997372446,48.661704369000056],[-123.010651081,48.654421251000024],[-123.01404816499993,48.649153572000046],[-123.01511995499996,48.642675379000075],[-123.01778790000002,48.6412945],[-123.01881872599994,48.63751105500006],[-123.020889,48.6371828],[-123.03000424299995,48.63016580800007],[-123.03069889218833,48.62442972084553],[-123.0280113,48.6122006],[-123.02311433899996,48.60926673300003],[-123.01718865946667,48.611051772377664],[-123.01182890199998,48.61423907500006],[-123.0098592219343,48.61403210484873],[-123.007814199,48.61700569300007],[-123.008001364,48.623091732000034],[-123.00591010299996,48.62236564200003],[-123.00475879999998,48.623086],[-123.00411145699996,48.627041141000056],[-123.00548759999998,48.6300513],[-123.0043524,48.6306423],[-123.00193680099996,48.62826195000009],[-123.00396504499997,48.626231895000046],[-123.00101047099997,48.621880590000046],[-123.00031442456189,48.61755066857071],[-122.99637162212689,48.611928075663535],[-122.9933319,48.6108755],[-122.99051569999999,48.6016918],[-122.987848,48.6023418],[-122.9807557,48.601252],[-122.97841242107187,48.599496942591514],[-122.9785017,48.6014798],[-122.97615612899995,48.60307539400003],[-122.97825833599993,48.60643808900006],[-122.97692580143953,48.60797941167344],[-122.97916136299993,48.60788322200005],[-122.98138719699995,48.610195335000064],[-122.977722197,48.61360209800006],[-122.98092733799994,48.61582403400006],[-122.97908739315379,48.617144296664335],[-122.97960348999999,48.61859455500007],[-122.98371314899997,48.620380136000044],[-122.98383110399999,48.622034024000065],[-122.98591109999997,48.6204207],[-122.98878573399998,48.62100565600007],[-122.98824441399996,48.62737802700007],[-122.987008,48.6278398],[-122.98573043899992,48.62688972300003],[-122.98533648399996,48.629323473000056],[-122.98945691499995,48.631119755000036],[-122.99219065999995,48.630847145000075],[-122.99399045599995,48.63586148500008],[-122.99096799981253,48.63609162304464],[-122.9910408,48.6403543],[-122.9873873548074,48.64048613884765],[-122.988364,48.6430229],[-122.98622980000002,48.6423811],[-122.9828388,48.6430138],[-122.97923390000001,48.6404696],[-122.97837704499995,48.63784157200007],[-122.97540709999997,48.6376464],[-122.97488614162627,48.63515108995947],[-122.96832167839726,48.62871223396752],[-122.96704169999997,48.63037386700006],[-122.96126577113051,48.63172284518425],[-122.95926388,48.63557865900003],[-122.95847527599994,48.64585872300005],[-122.95587246699995,48.651236088000076],[-122.95147799699997,48.65545399000006],[-122.95226974199994,48.65990412900003],[-122.94395430999998,48.669035645000065],[-122.94344175599994,48.674879999000034],[-122.93451522099996,48.68214343300008],[-122.93217120399999,48.68330938100007],[-122.93547980999992,48.682397131000066],[-122.93749363299995,48.68256240500005],[-122.94020861699994,48.68150262700004],[-122.94052789299997,48.68324106700003],[-122.93881890999992,48.68473460700005],[-122.940592375,48.68462204000007]]]]},"properties":{"COUNTY":"San Juan","PRECCODE":22,"PRECNAME":"Orcas West","PRECINCT":"San Juan 22","DESCRIPTIO":"Orcas Island West (Turtleback Mountain, Deer Harbor)","OFFICE":"County Councilor District 3","JURISDICTION":"County Council","RACE":"San Juan County District 3 County Councilor District 3","Name_1":"Jennifer Swanson","Party_1":"None_1","Votes_1":"78","Name_2":"Katherine Bryant Ingman","Party_2":"None_2","Votes_2":"58","Name_3":"Renee J Koplan","Party_3":"None_3","Votes_3":"17","Name_4":null,"Party_4":null,"Votes_4":"0","Name_5":null,"Party_5":null,"Votes_5":"0","Name_6":null,"Party_6":null,"Votes_6":"0","Name_7":null,"Party_7":null,"Votes_7":"0","Votes_total":"153","Pct_1":50.98,"Pct_2":37.91,"Pct_3":11.11,"Pct_4":0,"Pct_5":0,"Pct_6":0,"Pct_7":0,"Margin":13.07}},
{"type":"Feature","geometry":{"type":"Polygon","coordinates":[[[-122.87650448299996,48.62337356800004],[-122.8785268,48.625496],[-122.87744969292707,48.62700900278513],[-122.88034940000001,48.6290825],[-122.87947485878864,48.63117868742357],[-122.88055462522117,48.63297709135953],[-122.88302969999994,48.634118477000094],[-122.88112985715837,48.63547472921803],[-122.88336095566764,48.6384154596412],[-122.88792857299997,48.63994907500007],[-122.89288928099994,48.64466664600004],[-122.90624922799996,48.649582671000104],[-122.90746972499988,48.65236543500004],[-122.9112153,48.6545535],[-122.91197251699998,48.661841478],[-122.91402724599999,48.6657616850001],[-122.91057646300001,48.668129852000014],[-122.909671189,48.670792247000044],[-122.9160492,48.6761266],[-122.91793410999993,48.68052911600009],[-122.9170444,48.6834235],[-122.9233591009999,48.68433455800001],[-122.9228207,48.6859569],[-122.91996887099998,48.68619249000008],[-122.92137689999997,48.686984],[-122.9195085,48.6906953],[-122.91378970425117,48.690737624495206],[-122.91024796999992,48.692972515000086],[-122.910648,48.6939974],[-122.90636601999996,48.69420248300007],[-122.90892222199989,48.694541753000074],[-122.90994460399995,48.69469741100007],[-122.91033080100001,48.694708954000056],[-122.91109440899996,48.693986129000024],[-122.911840561,48.693230143000086],[-122.91273161899996,48.69306198200011],[-122.91723466199996,48.69234199900005],[-122.92171641099996,48.689662152],[-122.92262736799991,48.68871868200002],[-122.93037268199996,48.68400461300006],[-122.93195218199999,48.68344989899999],[-122.93325983999993,48.682589121],[-122.93451522099996,48.68214343300008],[-122.94344175599994,48.674879999000034],[-122.94395430999998,48.669035645000086],[-122.95226974199994,48.65990412900003],[-122.95147799699997,48.65545399000006],[-122.95587246699998,48.65123608800004],[-122.95847527599994,48.64585872300008],[-122.95926388,48.63557865900003],[-122.9612657711305,48.631722845184264],[-122.95867213532935,48.6314583507443],[-122.95766122600001,48.63260794600008],[-122.95671795500002,48.629908091000075],[-122.94481352199995,48.63084994000011],[-122.94479346199998,48.627229352000036],[-122.93001544299989,48.627230777000065],[-122.92796609199998,48.625946891000055],[-122.92476116599993,48.62584430600002],[-122.92127968499992,48.62707826600005],[-122.9107665979999,48.622407322000115],[-122.90656802099991,48.62339500600004],[-122.87650448299996,48.62337356800004]]]},"properties":{"COUNTY":"San Juan","PRECCODE":23,"PRECNAME":"Orcas Central","PRECINCT":"San Juan 23","DESCRIPTIO":"Orcas Island Center (Orcas Island Golf Course, Dolphin Bay, Westsound)","OFFICE":"County Councilor District 3","JURISDICTION":"County Council","RACE":"San Juan County District 3 County Councilor District 3","Name_1":"Jennifer Swanson","Party_1":"None_1","Votes_1":"70","Name_2":"Katherine Bryant Ingman","Party_2":"None_2","Votes_2":"45","Name_3":"Renee J Koplan","Party_3":"None_3","Votes_3":"23","Name_4":"Write-In","Party_4":"None_4","Votes_4":"1","Name_5":null,"Party_5":null,"Votes_5":"0","Name_6":null,"Party_6":null,"Votes_6":"0","Name_7":null,"Party_7":null,"Votes_7":"0","Votes_total":"139","Pct_1":50.36,"Pct_2":32.37,"Pct_3":16.55,"Pct_4":0.72,"Pct_5":0,"Pct_6":0,"Pct_7":0,"Margin":17.99}},
{"type":"Feature","geometry":{"type":"Polygon","coordinates":[[[-122.87650448299996,48.62337356800004],[-122.90656802099991,48.62339500600004],[-122.9107665979999,48.622407322000115],[-122.92127968499992,48.62707826600005],[-122.92476116599993,48.62584430600002],[-122.92796609199998,48.625946891000055],[-122.93001544299989,48.627230777000065],[-122.94479346199998,48.627229352000036],[-122.94481352199995,48.63084994000011],[-122.95671795500002,48.629908091000075],[-122.9537905,48.6283103],[-122.95542372321366,48.627158991176906],[-122.950647286,48.62561332300008],[-122.95325603557119,48.62353133534435],[-122.95619539999997,48.6174362],[-122.9502133,48.6067911],[-122.95318859299996,48.606708835000084],[-122.95338709999999,48.6029692],[-122.94890110000001,48.600127],[-122.9492436,48.5979955],[-122.94706820000002,48.5971173],[-122.939244,48.5981859],[-122.93718526426811,48.59740757624083],[-122.93805972399996,48.598383220000095],[-122.9352829,48.5985355],[-122.93689759999997,48.5972114],[-122.93641926199997,48.59390501800003],[-122.93466,48.59282670000001],[-122.9290639,48.5929593],[-122.9291988,48.5915588],[-122.92758460000002,48.5910985],[-122.9262344,48.5934078],[-122.92179231899993,48.59202435800003],[-122.9178053,48.5926471],[-122.9152384769999,48.59148189100008],[-122.91209112599992,48.591878927000074],[-122.91075330000001,48.5931819],[-122.90579874499994,48.59264375300003],[-122.907377828,48.59605117700006],[-122.90573012299994,48.597552338000085],[-122.903365,48.5967204],[-122.90424431598493,48.5948463867522],[-122.899867511,48.591524949000096],[-122.8968579115087,48.59069524100739],[-122.89195851899989,48.59124817300003],[-122.88899159872949,48.58843556695401],[-122.88533974399991,48.58938044800003],[-122.88446662899999,48.590861281000066],[-122.8868219,48.5935697],[-122.8858731,48.595207],[-122.88133955701751,48.59162296339612],[-122.87341431321306,48.59470639028907],[-122.8707658024688,48.59740764937055],[-122.87116949999997,48.5992698],[-122.86507851273429,48.6013622083316],[-122.86561844299993,48.60237220200001],[-122.86403599100002,48.60299274900011],[-122.86493750000001,48.6048138],[-122.86282787911847,48.60545309909843],[-122.86274408899999,48.607730305000054],[-122.86577509699993,48.61023155700006],[-122.8633219769999,48.61149891900002],[-122.86354876299995,48.612791286000025],[-122.87148790599993,48.61649899800003],[-122.87278057853256,48.61886980990326],[-122.87753828399997,48.62206310100006],[-122.87650448299996,48.62337356800004]]]},"properties":{"COUNTY":"San Juan","PRECCODE":24,"PRECNAME":"Orcas South","PRECINCT":"San Juan 24","DESCRIPTIO":"Orcas Island South (Victorian Valley, Orcas Village, White Beach)","OFFICE":"County Councilor District 3","JURISDICTION":"County Council","RACE":"San Juan County District 3 County Councilor District 3","Name_1":"Jennifer Swanson","Party_1":"None_1","Votes_1":"62","Name_2":"Katherine Bryant Ingman","Party_2":"None_2","Votes_2":"44","Name_3":"Renee J Koplan","Party_3":"None_3","Votes_3":"16","Name_4":null,"Party_4":null,"Votes_4":"0","Name_5":null,"Party_5":null,"Votes_5":"0","Name_6":null,"Party_6":null,"Votes_6":"0","Name_7":null,"Party_7":null,"Votes_7":"0","Votes_total":"122","Pct_1":50.82,"Pct_2":36.07,"Pct_3":13.11,"Pct_4":0,"Pct_5":0,"Pct_6":0,"Pct_7":0,"Margin":14.75}},
{"type":"Feature","geometry":{"type":"Polygon","coordinates":[[[-122.88972732999996,48.71265432700009],[-122.89415719999998,48.7146957],[-122.9030124,48.7135947],[-122.90816284412155,48.71443555217154],[-122.908928,48.7107984],[-122.90866127676213,48.714268021859134],[-122.91691635087022,48.71365173042725],[-122.91696928599997,48.70899733000002],[-122.9169936859999,48.70856429],[-122.91705289199996,48.7030491570001],[-122.91165228499995,48.70301589500011],[-122.9116789929999,48.70192043400005],[-122.91164505299996,48.696677709000056],[-122.91033080100001,48.694708954000056],[-122.90994460399995,48.69469741100007],[-122.90892222199989,48.694541753000074],[-122.90636236799995,48.694558295000014],[-122.9036645283356,48.69036523563473],[-122.90018230228323,48.689280369572806],[-122.89888538199992,48.69051524700008],[-122.90135777599994,48.69217326100003],[-122.90134879999998,48.6940741],[-122.89900169400005,48.69485671100002],[-122.89855389099992,48.69569516400002],[-122.90095735099999,48.69568380100006],[-122.90092216499993,48.69933970400004],[-122.89818026399992,48.699337551000035],[-122.898148033,48.702982830000025],[-122.88480394999998,48.702782777],[-122.884513936,48.70302701700004],[-122.884528955,48.71026079100002],[-122.88925070499994,48.71026824200001],[-122.88972732999996,48.71265432700009]]]},"properties":{"COUNTY":"San Juan","PRECCODE":25,"PRECNAME":"Eastsound North","PRECINCT":"San Juan 25","DESCRIPTIO":"Orcas Island North (Orcas Island Airport, Eastsound Village)","OFFICE":"County Councilor District 3","JURISDICTION":"County Council","RACE":"San Juan County District 3 County Councilor District 3","Name_1":"Jennifer Swanson","Party_1":"None_1","Votes_1":"66","Name_2":"Katherine Bryant Ingman","Party_2":"None_2","Votes_2":"52","Name_3":"Renee J Koplan","Party_3":"None_3","Votes_3":"32","Name_4":"Write-In","Party_4":"None_4","Votes_4":"1","Name_5":null,"Party_5":null,"Votes_5":"0","Name_6":null,"Party_6":null,"Votes_6":"0","Name_7":null,"Party_7":null,"Votes_7":"0","Votes_total":"151","Pct_1":43.71,"Pct_2":34.44,"Pct_3":21.19,"Pct_4":0.66,"Pct_5":0,"Pct_6":0,"Pct_7":0,"Margin":9.27}},
{"type":"Feature","geometry":{"type":"Polygon","coordinates":[[[-122.80146690888532,48.68135145565857],[-122.83633447168417,48.699346862319736],[-122.84419490000002,48.7006714],[-122.85509470099998,48.70429787600003],[-122.8659886,48.705254],[-122.8759588,48.7123517],[-122.87945439999999,48.7130789],[-122.88011260000002,48.7118957],[-122.885343,48.71165],[-122.88879558299996,48.713273208000054],[-122.88972732999996,48.71265432700009],[-122.88925070499994,48.71026824200001],[-122.884528955,48.71026079100002],[-122.884513936,48.70302701700004],[-122.88480394999998,48.702782777],[-122.898148033,48.702982830000025],[-122.89818026399992,48.699337551000035],[-122.90092216499993,48.69933970400004],[-122.90095735099999,48.69568380100006],[-122.89855389099992,48.69569516400002],[-122.89900169400005,48.69485671100002],[-122.8912695,48.6953268],[-122.8845353,48.6900422],[-122.882077123,48.68445220500006],[-122.883561603,48.68131233800006],[-122.88086327599993,48.68100414200005],[-122.88288178199996,48.678047839000044],[-122.8812401,48.6764891],[-122.88364767471896,48.673704201657046],[-122.88177110199997,48.670009060000076],[-122.8832899,48.6686919],[-122.88287205916917,48.66676857743921],[-122.82467744499996,48.66667755700011],[-122.82450885799997,48.68105872400012],[-122.80146690888532,48.68135145565857]]]},"properties":{"COUNTY":"San Juan","PRECCODE":26,"PRECNAME":"Eastsound","PRECINCT":"San Juan 26","DESCRIPTIO":"Orcas Island Northeast (Moran State Park, Raccoon Point)","OFFICE":"County Councilor District 3","JURISDICTION":"County Council","RACE":"San Juan County District 3 County Councilor District 3","Name_1":"Jennifer Swanson","Party_1":"None_1","Votes_1":"78","Name_2":"Katherine Bryant Ingman","Party_2":"None_2","Votes_2":"53","Name_3":"Renee J Koplan","Party_3":"None_3","Votes_3":"24","Name_4":null,"Party_4":null,"Votes_4":"0","Name_5":null,"Party_5":null,"Votes_5":"0","Name_6":null,"Party_6":null,"Votes_6":"0","Name_7":null,"Party_7":null,"Votes_7":"0","Votes_total":"155","Pct_1":50.32,"Pct_2":34.19,"Pct_3":15.48,"Pct_4":0,"Pct_5":0,"Pct_6":0,"Pct_7":0,"Margin":16.13}},
{"type":"Feature","geometry":{"type":"Polygon","coordinates":[[[-122.88287205916917,48.66676857743921],[-122.88396074999993,48.66012667300006],[-122.88190159299992,48.65369791800007],[-122.87390870999995,48.643725862000096],[-122.87200799599998,48.64686105900007],[-122.86714159999997,48.6469],[-122.8528828,48.627834],[-122.850627,48.6268176],[-122.84839621598123,48.62205565380744],[-122.84658670000002,48.621867],[-122.8433053,48.6191107],[-122.8401814,48.6193971],[-122.83751359999997,48.6178549],[-122.83628141999998,48.619172238000054],[-122.83376018200002,48.61926326800003],[-122.83244849999997,48.6221139],[-122.8296109,48.6214812],[-122.83127430000002,48.6186966],[-122.83025405899998,48.61644262000006],[-122.8278837,48.6154087],[-122.82865070000001,48.6086502],[-122.83082460000001,48.6060682],[-122.83016469999997,48.6003894],[-122.82925779999997,48.6016897],[-122.8245375,48.6023478],[-122.82451210000002,48.599806],[-122.8218946,48.6018564],[-122.82164009999998,48.6006869],[-122.82037480000001,48.6011732],[-122.81832719999997,48.6047484],[-122.81427149999998,48.6067809],[-122.80905439999997,48.6055342],[-122.80542372322434,48.60250133718751],[-122.8003421,48.6025629],[-122.79981185214356,48.60144886553768],[-122.79865919999997,48.6027412],[-122.8002247,48.6037042],[-122.79895742820135,48.60457291609366],[-122.8026372,48.6063441],[-122.80224482700001,48.607633833000065],[-122.8059771,48.6115755],[-122.80441382756884,48.61258711991747],[-122.808908,48.6151358],[-122.80994060199991,48.61834560200005],[-122.80670225899995,48.62156798200004],[-122.80113094674432,48.62300224877459],[-122.80135989399997,48.624182828000116],[-122.79845839999997,48.6254316],[-122.79925090000002,48.6269513],[-122.7962145704642,48.62894581121642],[-122.79842447299993,48.6323236860001],[-122.7937325,48.6342124],[-122.79197021799997,48.633300240000075],[-122.7874347,48.6353723],[-122.7835988,48.6351328],[-122.78702327999991,48.638114884000096],[-122.78342450104081,48.63923230405003],[-122.7803492,48.6418608],[-122.77943203535976,48.639866926048924],[-122.7747197,48.639906],[-122.77354758699997,48.64125708200002],[-122.7696890085219,48.64094523859833],[-122.765471341,48.642990033000046],[-122.7637489,48.6461043],[-122.7543549,48.6498557],[-122.75646559999997,48.6528689],[-122.75493790000002,48.6563924],[-122.74184187176758,48.660558119061086],[-122.74822699799998,48.663963399000075],[-122.7772468,48.6717434],[-122.79076168499995,48.67623484100005],[-122.79457102799995,48.678579417000066],[-122.800147182,48.67944713700009],[-122.80146690888532,48.68135145565857],[-122.82450885799997,48.68105872400012],[-122.82467744499996,48.66667755700011],[-122.88287205916917,48.66676857743921]]]},"properties":{"COUNTY":"San Juan","PRECCODE":27,"PRECNAME":"Orcas East","PRECINCT":"San Juan 27","DESCRIPTIO":"Orcas Island Southeast (Rosario, Olga, Doe Bay)","OFFICE":"County Councilor District 3","JURISDICTION":"County Council","RACE":"San Juan County District 3 County Councilor District 3","Name_1":"Jennifer Swanson","Party_1":"None_1","Votes_1":"128","Name_2":"Katherine Bryant Ingman","Party_2":"None_2","Votes_2":"85","Name_3":"Renee J Koplan","Party_3":"None_3","Votes_3":"37","Name_4":"Write-In","Party_4":"None_4","Votes_4":"1","Name_5":null,"Party_5":null,"Votes_5":"0","Name_6":null,"Party_6":null,"Votes_6":"0","Name_7":null,"Party_7":null,"Votes_7":"0","Votes_total":"251","Pct_1":51,"Pct_2":33.86,"Pct_3":14.74,"Pct_4":0.4,"Pct_5":0,"Pct_6":0,"Pct_7":0,"Margin":17.14}},
{"type":"Feature","geometry":{"type":"MultiPolygon","coordinates":[[[[-122.82133165699997,48.54014176600003],[-122.82237315799995,48.54156540600007],[-122.8238006,48.5414598],[-122.82312210000002,48.5397509],[-122.82143973110684,48.53912170112476],[-122.82133165699997,48.54014176600003]]],[[[-122.81766319999993,48.590193774000056],[-122.81502268499996,48.58977329300007],[-122.80564804199994,48.594483300000036],[-122.80477109699996,48.59766738900004],[-122.81459709999997,48.6008426],[-122.8177254,48.5927605],[-122.821146,48.59173409999999],[-122.82281969999998,48.5879753],[-122.81766319999993,48.590193774000056]]],[[[-122.8210066434773,48.74508246844735],[-122.82273397864208,48.744909860965215],[-122.81954580000001,48.7439695],[-122.8210066434773,48.74508246844735]]],[[[-122.82686474699992,48.74552454600007],[-122.82680431381416,48.746219024080574],[-122.83995101327,48.74958771524851],[-122.84188749799995,48.74958556000007],[-122.84252906999993,48.74789792800004],[-122.84640365559434,48.74809101254241],[-122.846133,48.7472439],[-122.84852909999998,48.7471731],[-122.83299580999996,48.74316576700005],[-122.8314052447307,48.74352609373306],[-122.83460330399998,48.745200890000035],[-122.83294114399996,48.745554739000056],[-122.82793462899997,48.74367436400007],[-122.82828056499996,48.745401532000066],[-122.82686474699992,48.74552454600007]]],[[[-122.88706933699994,48.751484007000045],[-122.8985697600213,48.756725197921675],[-122.89070558258798,48.75217527221321],[-122.88573858999997,48.75085971600003],[-122.88706933699994,48.751484007000045]]],[[[-122.916075742,48.75405248900005],[-122.91874020315622,48.75555261384166],[-122.92289820000002,48.7553134],[-122.91894150000002,48.75448569999999],[-122.91703545263847,48.752448457806665],[-122.916075742,48.75405248900005]]],[[[-122.89270109129006,48.75794867539611],[-122.89010822301886,48.75551553434332],[-122.87980771489677,48.75100625162459],[-122.88857719899994,48.75697150100006],[-122.89270109129006,48.75794867539611]]],[[[-122.88811470099994,48.76672265600007],[-122.90108471840257,48.77018842556668],[-122.91417088706727,48.76965683316984],[-122.9183429,48.7674987],[-122.91973323786061,48.76451614139115],[-122.91655063399995,48.765902949000065],[-122.91487381999997,48.76518683800003],[-122.91347879999998,48.7634608],[-122.9138001,48.7600121],[-122.9155292,48.7590901],[-122.91954091084354,48.76152255453934],[-122.92004380000002,48.7604646],[-122.912974,48.7545144],[-122.90811750000002,48.7528277],[-122.90924009999998,48.7510185],[-122.9137919,48.7516508],[-122.91248239999997,48.7506225],[-122.9056352,48.7502251],[-122.89756769999997,48.7461081],[-122.89584222019978,48.74716321964527],[-122.90779905999996,48.75177706900007],[-122.90625464799993,48.75327201900007],[-122.90307332999996,48.752372327000046],[-122.901765,48.7538396],[-122.89507450000002,48.7509614],[-122.89550157999999,48.75028775100002],[-122.89870349999997,48.7511368],[-122.89168941399996,48.74780747100004],[-122.88941861799825,48.747554290942006],[-122.89447508999996,48.750542405000026],[-122.88629569999998,48.7478591],[-122.8842702068159,48.7480461919025],[-122.91243172699996,48.76205342700007],[-122.91002434299998,48.765289886000055],[-122.91108689099995,48.76622335300004],[-122.9081499,48.7675514],[-122.90192876999998,48.76552248400003],[-122.8889396686728,48.764423941399066],[-122.88956026199997,48.765647732000055],[-122.88811470099994,48.76672265600007]]],[[[-122.87837327399994,48.76424378000007],[-122.88653673799996,48.76585779700008],[-122.8767987818278,48.763115843934635],[-122.87837327399994,48.76424378000007]]],[[[-122.79518525599995,48.53590219400007],[-122.79713871835533,48.53596513685246],[-122.79721089999998,48.5342853],[-122.79518525599995,48.53590219400007]]],[[[-122.78781926699997,48.577299080000046],[-122.79262179199998,48.58128544300007],[-122.8071531,48.5861836],[-122.81096414309636,48.58840593708584],[-122.81604844092558,48.58649116779904],[-122.81224297899992,48.58617423000004],[-122.8145023,48.5847319],[-122.81562025763098,48.585686654830525],[-122.81929185799999,48.58323168200007],[-122.8240280227671,48.58327231838649],[-122.82903783007846,48.57949359054467],[-122.82738031099997,48.57495653900002],[-122.83110868552448,48.57240327378525],[-122.82825479999997,48.5687607],[-122.82918558346172,48.561930175321166],[-122.82716942106431,48.555095511585186],[-122.82300580589708,48.55285943701166],[-122.8195945,48.5546567],[-122.8155302,48.55262050000001],[-122.815345,48.551551],[-122.81961074998149,48.549388389823456],[-122.82158659495093,48.54622194558934],[-122.809601,48.5317572],[-122.8025031596913,48.53241160663217],[-122.80410178999993,48.53424650100004],[-122.8029168,48.5353261],[-122.80040274399994,48.53539338300004],[-122.79916213299995,48.538290285000066],[-122.79723369799997,48.53889966400004],[-122.796027,48.5375467],[-122.7937061360745,48.53758455083158],[-122.7921973,48.5404685],[-122.7874990309967,48.541442714467806],[-122.787347,48.5425922],[-122.77267295410078,48.55169753098034],[-122.77035626015898,48.55792788499893],[-122.77117959514308,48.56233641506037],[-122.77608640000001,48.5651942],[-122.78781926699997,48.577299080000046]]],[[[-122.78778299825669,48.633602058355315],[-122.7884947,48.6322064],[-122.7859397,48.6328531],[-122.78778299825669,48.633602058355315]]],[[[-122.77627349599996,48.69604031800003],[-122.77372574329068,48.69793727516117],[-122.77491107541591,48.70386501280202],[-122.77727304370602,48.69744229715246],[-122.77627349599996,48.69604031800003]]],[[[-122.76407219599997,48.69720908900006],[-122.76385775699998,48.69560361200007],[-122.76139056066215,48.69423491350215],[-122.75966205218583,48.69576789794472],[-122.76343,48.697834],[-122.76448998999997,48.70537236900003],[-122.7662732831948,48.7077936127085],[-122.76608241899999,48.70161364900007],[-122.76407219599997,48.69720908900006]]]]},"properties":{"COUNTY":"San Juan","PRECCODE":28,"PRECNAME":"Blakely & Outer Is","PRECINCT":"San Juan 28","DESCRIPTIO":"East San Juan County (Blakely Island, Obstruction Island)","OFFICE":"County Councilor District 3","JURISDICTION":"County Council","RACE":"San Juan County District 3 County Councilor District 3","Name_1":"Jennifer Swanson","Party_1":"None_1","Votes_1":"5","Name_2":"Katherine Bryant Ingman","Party_2":"None_2","Votes_2":"3","Name_3":"Renee J Koplan","Party_3":"None_3","Votes_3":"2","Name_4":null,"Party_4":null,"Votes_4":"0","Name_5":null,"Party_5":null,"Votes_5":"0","Name_6":null,"Party_6":null,"Votes_6":"0","Name_7":null,"Party_7":null,"Votes_7":"0","Votes_total":"10","Pct_1":50,"Pct_2":30,"Pct_3":20,"Pct_4":0,"Pct_5":0,"Pct_6":0,"Pct_7":0,"Margin":20}},
{"type":"Feature","geometry":{"type":"Polygon","coordinates":[[[-122.90673907499996,48.52216396300002],[-122.90765217299997,48.52431007300004],[-122.90983884999994,48.524306403000026],[-122.91008786699997,48.524295186000074],[-122.9100889599999,48.525530057000026],[-122.90899678699995,48.52554532400006],[-122.90899832699992,48.52595648600005],[-122.90781732299995,48.52595910000007],[-122.90782039299997,48.52678437200006],[-122.90724411199996,48.52678548700004],[-122.90724656499995,48.528648558000036],[-122.90527435999996,48.528655320000034],[-122.90527521899998,48.53046394800003],[-122.90984357099993,48.530449411000056],[-122.91009270899995,48.53045538600003],[-122.91009370099998,48.53226067300005],[-122.91270615599994,48.532263966000066],[-122.91270568499998,48.53207575300008],[-122.91533905999992,48.53208007300003],[-122.91532933899997,48.52974450000005],[-122.91794688608562,48.52974288672641],[-122.915842372,48.52315091300005],[-122.91822943290273,48.51959094349509],[-122.91532375199994,48.52290176400003],[-122.91286033299995,48.52183913600003],[-122.91218647399995,48.51945462400004],[-122.91510670297657,48.519335657014636],[-122.9122513,48.518124],[-122.9117929,48.5167939],[-122.913868311,48.513475656000026],[-122.91331383199999,48.51059204600006],[-122.91614940199997,48.50699724500003],[-122.91397520599998,48.50878548700007],[-122.91264859999997,48.508797462000075],[-122.91264954499995,48.50864906000003],[-122.90997544799994,48.50864151300004],[-122.90995600499996,48.511868193000055],[-122.910205137,48.51186874800004],[-122.91019663599997,48.51287379200004],[-122.90450551899995,48.512861757000046],[-122.90450332199997,48.51363047800004],[-122.90994545099996,48.513636431000066],[-122.90994417799999,48.51470636200002],[-122.90450256999996,48.514700911000034],[-122.90450991999995,48.515989227000034],[-122.90994517199996,48.51599707200006],[-122.90995215499998,48.51764949100004],[-122.90995118499994,48.51779514900005],[-122.90854971199997,48.51779490800004],[-122.90855028699998,48.51752079900006],[-122.90450719199998,48.51751698700008],[-122.90451899499999,48.522380999000056],[-122.906247648,48.52238275500008],[-122.90624747099999,48.52216346800004],[-122.90673907499996,48.52216396300002]]]},"properties":{"COUNTY":"San Juan","PRECCODE":30,"PRECNAME":"Lopez Northwest","PRECINCT":"San Juan 30","DESCRIPTIO":"Lopez Island Northwest (Lopez Village, Lopez Islander Marina, Land Trust Apartments)","OFFICE":"County Councilor District 3","JURISDICTION":"County Council","RACE":"San Juan County District 3 County Councilor District 3","Name_1":"Katherine Bryant Ingman","Party_1":"None_2","Votes_1":"47","Name_2":"Jennifer Swanson","Party_2":"None_1","Votes_2":"23","Name_3":"Renee J Koplan","Party_3":"None_3","Votes_3":"9","Name_4":null,"Party_4":null,"Votes_4":"0","Name_5":null,"Party_5":null,"Votes_5":"0","Name_6":null,"Party_6":null,"Votes_6":"0","Name_7":null,"Party_7":null,"Votes_7":"0","Votes_total":"79","Pct_1":59.49,"Pct_2":29.11,"Pct_3":11.39,"Pct_4":0,"Pct_5":0,"Pct_6":0,"Pct_7":0,"Margin":30.38}},
{"type":"Feature","geometry":{"type":"Polygon","coordinates":[[[-122.91614940199997,48.50699724500003],[-122.92443187599994,48.50297131900003],[-122.93125407556862,48.50651545737248],[-122.930592473,48.50160123700005],[-122.93522486399995,48.50029198100004],[-122.9376074,48.5010008],[-122.93202629999998,48.5081171],[-122.92311581135841,48.51182037513152],[-122.92139629999998,48.5154328],[-122.91804060000001,48.5159788],[-122.91873822099996,48.51708986800002],[-122.9214473,48.5167155],[-122.91998112287105,48.51917075097643],[-122.9240253,48.5208368],[-122.9175247393311,48.522274579868046],[-122.9258594,48.521118],[-122.93215888799995,48.51718337200003],[-122.9339371,48.5140082],[-122.93386127599997,48.50606793300005],[-122.94188650000001,48.4962599],[-122.94266763099994,48.49274871200004],[-122.92343693499998,48.49278376400008],[-122.92493305399994,48.49632860000002],[-122.92087274999996,48.49632066500004],[-122.89910054999996,48.49613082800005],[-122.899113538,48.492499344000066],[-122.86398777099997,48.492572601000056],[-122.86623510000001,48.4941962],[-122.86637210000002,48.4962838],[-122.8724607,48.4997385],[-122.8742123,48.5048887],[-122.86755275207962,48.511186905416345],[-122.8609669,48.531433],[-122.85855593099996,48.53465418700005],[-122.85201062370675,48.53653707657331],[-122.85842587199996,48.537876059000034],[-122.85932879999999,48.54097139999999],[-122.86139041509453,48.54256130531773],[-122.87016284499997,48.54063287300006],[-122.87631477699996,48.543257298000064],[-122.87703082599995,48.545731606000054],[-122.87349509999997,48.5509482],[-122.8693147,48.55423],[-122.86657619999998,48.5537446],[-122.86529981899999,48.55509308200004],[-122.8665283,48.5570566],[-122.86597011260682,48.5614305120879],[-122.8676559118486,48.56378154421284],[-122.8704034223407,48.564788656200776],[-122.87165231739031,48.564058546024974],[-122.87349673829358,48.558656194795105],[-122.8714118,48.555219],[-122.87304869999997,48.5520302],[-122.8744429,48.5528678],[-122.872888,48.5531963],[-122.87869679999999,48.5531095],[-122.8837896,48.5544539],[-122.88254290689949,48.55805686290658],[-122.884896,48.5596175],[-122.883669909,48.56295363100003],[-122.88455071699997,48.56722132500005],[-122.88285684299994,48.56976319200003],[-122.88426204742407,48.57280238270585],[-122.88946451899994,48.570444552000026],[-122.8911828,48.5679299],[-122.89176568499992,48.562960462000035],[-122.89042855099996,48.55867060400004],[-122.89232490299995,48.55682877700007],[-122.89814359624462,48.55621070201771],[-122.90567230000002,48.5498934],[-122.91353667899995,48.549203672000026],[-122.91976939999998,48.5508832],[-122.92185429999998,48.5401579],[-122.91794714255492,48.529743570402616],[-122.91532779099998,48.529743644000064],[-122.915339056,48.53207922100007],[-122.912704309,48.53207556700004],[-122.91270729799999,48.53226399500006],[-122.91009466499997,48.53226067500002],[-122.91009197999993,48.53045536900003],[-122.90527521899998,48.53046274600007],[-122.90527435999996,48.52865581900004],[-122.90724653799997,48.52862786900005],[-122.907244114,48.526787039000055],[-122.90782038599997,48.526782552000036],[-122.90781732399996,48.52595931800004],[-122.90899805499998,48.52595648700003],[-122.90899731999997,48.525545271000055],[-122.91008791799999,48.52553040700007],[-122.91008692599996,48.52429522800002],[-122.90765217299997,48.52430999200004],[-122.90673907499996,48.52216396300002],[-122.90624483799998,48.52216198400003],[-122.90624675399998,48.522382754000034],[-122.90451899099996,48.52237975700007],[-122.904507805,48.51751698800006],[-122.90855000399992,48.51752079800008],[-122.90855097699992,48.51779490800004],[-122.90995118999992,48.51779433800005],[-122.90994517199996,48.51599711800002],[-122.904510595,48.51598922900007],[-122.90450256999996,48.51470100300003],[-122.90994417699996,48.514705990000046],[-122.90994544899995,48.51363686800005],[-122.90450332199997,48.51363041900004],[-122.90450555099994,48.51286175800005],[-122.91019657299995,48.51287379200004],[-122.910205137,48.51186874800004],[-122.90995603699994,48.511868193000055],[-122.909975364,48.50864151400003],[-122.91264913199997,48.50864905800005],[-122.91264860599993,48.50879666800006],[-122.91397522999993,48.50878544000005],[-122.91614940199997,48.50699724500003]]]},"properties":{"COUNTY":"San Juan","PRECCODE":31,"PRECNAME":"Lopez North","PRECINCT":"San Juan 31","DESCRIPTIO":"Lopez Island North (Port Stanley, Fisherman Bay, Lopez Sound Road)","OFFICE":"County Councilor District 3","JURISDICTION":"County Council","RACE":"San Juan County District 3 County Councilor District 3","Name_1":"Katherine Bryant Ingman","Party_1":"None_2","Votes_1":"197","Name_2":"Jennifer Swanson","Party_2":"None_1","Votes_2":"105","Name_3":"Renee J Koplan","Party_3":"None_3","Votes_3":"55","Name_4":"Write-In","Party_4":"None_4","Votes_4":"2","Name_5":null,"Party_5":null,"Votes_5":"0","Name_6":null,"Party_6":null,"Votes_6":"0","Name_7":null,"Party_7":null,"Votes_7":"0","Votes_total":"359","Pct_1":54.87,"Pct_2":29.25,"Pct_3":15.32,"Pct_4":0.56,"Pct_5":0,"Pct_6":0,"Pct_7":0,"Margin":25.62}},
{"type":"Feature","geometry":{"type":"Polygon","coordinates":[[[-122.8630522081431,48.49034277086094],[-122.8624101389293,48.49154808077756],[-122.86398777100003,48.492572601000056],[-122.89911353799995,48.49249934400004],[-122.89910054999996,48.496130828000034],[-122.92493305399994,48.49632860000006],[-122.92343693499994,48.49278376400012],[-122.94266763099994,48.492748712000065],[-122.94527210410507,48.47669865490566],[-122.94170980000001,48.4707277],[-122.9455097,48.4654752],[-122.9425884,48.4640233],[-122.94232248299991,48.460148061000076],[-122.94003358399995,48.457627901000095],[-122.93536551939654,48.45553655424366],[-122.93487790000002,48.4581573],[-122.93049232945694,48.458639779653595],[-122.9300988,48.4602989],[-122.92773159199992,48.46087484300007],[-122.92166173899999,48.45942676600007],[-122.91835019999998,48.4559149],[-122.91583690999994,48.4559931790001],[-122.91550965177406,48.45457292884031],[-122.91351142173707,48.45438032731048],[-122.9113975,48.4556824],[-122.91285154099995,48.453085026000096],[-122.91650149999998,48.4526496],[-122.91708003767931,48.45135492970895],[-122.9148715,48.4503806],[-122.9155643,48.4483696],[-122.91047497385651,48.44652739490603],[-122.9061687698217,48.44641451713984],[-122.90650968399996,48.44774913300003],[-122.90192860000002,48.4485182],[-122.89946360000002,48.4480892],[-122.89967340000001,48.4465941],[-122.89771506054232,48.44607106779031],[-122.89635211316924,48.44727331579427],[-122.89820814699998,48.44763455100006],[-122.89758388699994,48.44926267700002],[-122.89374126899999,48.45023408700011],[-122.89025549599998,48.44800161000005],[-122.89243860146553,48.445864276246986],[-122.8870389,48.4455558],[-122.88670270000001,48.4467142],[-122.88289060000001,48.4470184],[-122.88105909499994,48.44581766900009],[-122.876960986,48.4458629260001],[-122.86382969999998,48.4421496],[-122.86243298699998,48.440720818999985],[-122.86343289599996,48.43763639700004],[-122.86660430399996,48.435053700000054],[-122.86884818674109,48.435480563408824],[-122.8680945,48.4331528],[-122.87037162200002,48.43217099],[-122.8726659,48.4318519],[-122.8762254,48.4332922],[-122.87616549999998,48.4360294],[-122.87390249999999,48.4373484],[-122.876833493,48.43918897800008],[-122.8786473,48.4386426],[-122.87786979999997,48.4374031],[-122.8790886,48.4366999],[-122.88079028181438,48.43752421911574],[-122.88317834799994,48.43679392900007],[-122.885547708,48.438250017000016],[-122.88673054799999,48.43673710700006],[-122.88898078110148,48.43665921086739],[-122.88494195999996,48.43407790200005],[-122.87732700299998,48.43220822200007],[-122.8771746,48.4294764],[-122.8793046,48.4265377],[-122.88414515928713,48.42728013857135],[-122.88343046599998,48.425384640000104],[-122.88856010000002,48.4231847],[-122.89188409178163,48.42325119539135],[-122.89154573699996,48.42223471100006],[-122.89432998101518,48.422291716484615],[-122.892563996,48.42046219300005],[-122.88831180000001,48.4207484],[-122.88447676115244,48.41874327372143],[-122.87660610599993,48.41816732000006],[-122.8728233,48.4185789],[-122.87266259999997,48.4202518],[-122.86929230000001,48.4215566],[-122.8663495,48.4216723],[-122.8656894547543,48.42020913169735],[-122.8620313,48.4193415],[-122.85967089999998,48.4205707],[-122.855597,48.4198191],[-122.8542942,48.4202661],[-122.8564496,48.4228983],[-122.85231001444039,48.423826592288954],[-122.85695353799994,48.42401379400009],[-122.86307760000001,48.4262228],[-122.86094470000002,48.4304797],[-122.85380810299993,48.42989020600004],[-122.85339859999998,48.4288687],[-122.85009349999999,48.4279866],[-122.8484801,48.4277897],[-122.848135,48.4287885],[-122.8432222,48.427604],[-122.8439991556118,48.425787842436584],[-122.8411988,48.4248978],[-122.8395312,48.4255409],[-122.84435390000002,48.4295212],[-122.8435543,48.4313188],[-122.84085020000002,48.4320883],[-122.8363577,48.4311436],[-122.83683879999997,48.4287665],[-122.831721,48.4268428],[-122.83025931827274,48.42788998251684],[-122.8305818,48.4302645],[-122.82565019999997,48.4295555],[-122.82394818099995,48.427195352000076],[-122.82757180799993,48.426090813],[-122.8273212,48.4247683],[-122.8127298,48.4215071],[-122.8123639,48.4231226],[-122.80992088735894,48.42394940408694],[-122.80988989999999,48.425694],[-122.80275492917218,48.42706739556024],[-122.80476507109125,48.431557029367475],[-122.81342221599998,48.43002702300007],[-122.814582956,48.43108183800005],[-122.808591,48.4367075],[-122.8096387,48.4388244],[-122.8080896,48.441019],[-122.80875939999999,48.4433813],[-122.80628620000002,48.4444389],[-122.80390945522375,48.44397906637557],[-122.8001947,48.4473065],[-122.80553759999997,48.4530246],[-122.813132684,48.452815523],[-122.8193117,48.4572997],[-122.8188582,48.4634841],[-122.81315110000001,48.4721248],[-122.8183312,48.4751881],[-122.81977161409944,48.47826141877949],[-122.82350284299993,48.47711686300005],[-122.83070264699998,48.47235428500007],[-122.83357856599997,48.468882979000085],[-122.8324894,48.4676821],[-122.8287273,48.4689785],[-122.82895692799997,48.465198901000086],[-122.83041903592887,48.46472929134315],[-122.82778180000001,48.4648561],[-122.82113195,48.46093318300011],[-122.82021895999992,48.46126653900007],[-122.82139254299997,48.46234608600003],[-122.8192021449999,48.463092354000054],[-122.81998321599997,48.460493471000056],[-122.82237080788468,48.460761096275334],[-122.82733602499994,48.458867663],[-122.83223243499998,48.45544340500001],[-122.83622458499995,48.45040492400003],[-122.84348855115037,48.44745147149164],[-122.8457337,48.4448792],[-122.85184595699994,48.445435053000054],[-122.85457991100003,48.4471167290001],[-122.85475229999997,48.4485128],[-122.85106570000002,48.45082],[-122.84383781195605,48.46001145193223],[-122.85313526199994,48.45885518100004],[-122.85563019999998,48.4572397],[-122.8589108,48.4582215],[-122.85997860000002,48.4598476],[-122.86288223899994,48.46029412899998],[-122.8596352,48.4620737],[-122.8551951,48.4671215],[-122.8560058,48.4690909],[-122.8540302,48.4710249],[-122.8545119,48.47289390000001],[-122.85689474399996,48.473425757],[-122.8525169,48.4758825],[-122.85144950000002,48.4809577],[-122.8553561,48.4815733],[-122.8547357,48.4831706],[-122.8561784,48.4839797],[-122.8544003,48.4860543],[-122.861370304,48.48766200900009],[-122.8630522081431,48.49034277086094]]]},"properties":{"COUNTY":"San Juan","PRECCODE":32,"PRECNAME":"Lopez South","PRECINCT":"San Juan 32","DESCRIPTIO":"Lopez Island South (Aleck Bay, Islandale, Lopez Island Airport)","OFFICE":"County Councilor District 3","JURISDICTION":"County Council","RACE":"San Juan County District 3 County Councilor District 3","Name_1":"Katherine Bryant Ingman","Party_1":"None_2","Votes_1":"161","Name_2":"Jennifer Swanson","Party_2":"None_1","Votes_2":"101","Name_3":"Renee J Koplan","Party_3":"None_3","Votes_3":"80","Name_4":"Write-In","Party_4":"None_4","Votes_4":"2","Name_5":null,"Party_5":null,"Votes_5":"0","Name_6":null,"Party_6":null,"Votes_6":"0","Name_7":null,"Party_7":null,"Votes_7":"0","Votes_total":"344","Pct_1":46.8,"Pct_2":29.36,"Pct_3":23.26,"Pct_4":0.58,"Pct_5":0,"Pct_6":0,"Pct_7":0,"Margin":17.44}},
{"type":"Feature","geometry":{"type":"MultiPolygon","coordinates":[[[[-122.88930694376091,48.427945574335176],[-122.89037693755984,48.42689116634217],[-122.888472,48.4274683],[-122.88930694376091,48.427945574335176]]],[[[-122.91212416899998,48.43492745200006],[-122.9114723617787,48.43433542521457],[-122.91118728836614,48.435737561617465],[-122.91212416899998,48.43492745200006]]],[[[-122.92021949999997,48.4416328],[-122.92093732806872,48.442836778970836],[-122.92611672882087,48.443254931146164],[-122.92805483852278,48.44026494149714],[-122.92468879851421,48.439401467930395],[-122.917789,48.4398233],[-122.9185043,48.4417576],[-122.92021949999997,48.4416328]]],[[[-122.92969938599997,48.441245375000044],[-122.92863685532261,48.44081633661615],[-122.9282119,48.4418586],[-122.9299702291567,48.442759766443686],[-122.93089597299996,48.44167909400005],[-122.92969938599997,48.441245375000044]]],[[[-122.90691492499998,48.44259693100002],[-122.90875562799997,48.443010557000036],[-122.90874431740545,48.44469263984523],[-122.9136607388561,48.443372736089756],[-122.91183779699998,48.44311531700003],[-122.91028979999997,48.4410677],[-122.90529606205001,48.44032359969523],[-122.90691492499998,48.44259693100002]]],[[[-122.94332108536503,48.45851137144878],[-122.94463135302946,48.45798761008131],[-122.94241367640407,48.45755122257779],[-122.94332108536503,48.45851137144878]]],[[[-122.82288988699997,48.41583093700007],[-122.82551756792428,48.41546595503282],[-122.81983120000001,48.4148041],[-122.82288988699997,48.41583093700007]]],[[[-122.82020676354621,48.421662148026726],[-122.82391373973111,48.4215373435873],[-122.82328590000002,48.4205858],[-122.82020676354621,48.421662148026726]]],[[[-122.80175474099997,48.431676122000056],[-122.800749,48.432001],[-122.80170650099996,48.43313295400003],[-122.80315688401686,48.43230962386603],[-122.80175474099997,48.431676122000056]]],[[[-122.83061495030722,48.47600791871335],[-122.82985981880044,48.4787129154954],[-122.83374528148967,48.47479501423837],[-122.83061495030722,48.47600791871335]]],[[[-122.82459907299994,48.49149413800006],[-122.8276278240249,48.49342758477102],[-122.83488415469888,48.493784224452995],[-122.83647316917573,48.49125369275941],[-122.83616845245874,48.48803174711289],[-122.83385470299996,48.484743753000025],[-122.82642589063302,48.48752977338515],[-122.82395912799993,48.48990284700005],[-122.82459907299994,48.49149413800006]]],[[[-122.79203439386222,48.52487684471127],[-122.79844708987358,48.5249096376695],[-122.80178129999999,48.5236575],[-122.8160762,48.5246261],[-122.82763167217931,48.522705459635134],[-122.83238404199992,48.51711640700005],[-122.8316382,48.5131809],[-122.8339389,48.5129079],[-122.8342289054732,48.51439654044187],[-122.83716463453392,48.51587916580197],[-122.83988836766402,48.51146453764833],[-122.837936,48.5093863],[-122.83320029599997,48.50997399400006],[-122.83007839299992,48.50906908100006],[-122.82740370000002,48.5045348],[-122.823913,48.5032922],[-122.8206086,48.4997253],[-122.8169663,48.4997086],[-122.81593,48.4984741],[-122.81620495199996,48.48939494900003],[-122.8214052,48.4868432],[-122.8201565,48.4829403],[-122.8219259,48.4824361],[-122.82439956426587,48.48350751172412],[-122.82518758094017,48.48124850910739],[-122.82272238999997,48.481073294000055],[-122.82026430000002,48.4826459],[-122.81785748345804,48.48135425526584],[-122.81654278499997,48.487707743000044],[-122.80017689711403,48.494558994044226],[-122.79448609999997,48.500163],[-122.79226190000001,48.5059956],[-122.7832317354487,48.51129820051761],[-122.78573168687191,48.51302941519903],[-122.78762708926884,48.5100822986824],[-122.78587154599992,48.51001712400006],[-122.79019074399994,48.50955709600003],[-122.79490360000001,48.511754],[-122.797055787,48.51459528800006],[-122.79592336199995,48.51993916500003],[-122.78739168028537,48.5227623790787],[-122.78829083066142,48.524444992208565],[-122.79203439386222,48.52487684471127]]],[[[-122.83983850829556,48.50434958685227],[-122.83916365871633,48.50216166292256],[-122.83731411909692,48.502290660386585],[-122.8356979105832,48.50538223784508],[-122.83685828390314,48.50633434012958],[-122.8393628,48.5056356],[-122.83983850829556,48.50434958685227]]],[[[-122.77866862799998,48.50942554500005],[-122.77849316699995,48.50816507300004],[-122.77604310130927,48.507678217009804],[-122.7703043,48.5082388],[-122.7692932,48.5092722],[-122.77015112237162,48.51208358383588],[-122.77430160399996,48.512322968000035],[-122.77530574999996,48.51358774400007],[-122.77398714828541,48.51595836315018],[-122.77752717766896,48.51767922660592],[-122.77968655995302,48.5162821746568],[-122.77916428199218,48.51352620962995],[-122.77602373699996,48.512634354000056],[-122.77664299299991,48.510209520000046],[-122.77866862799998,48.50942554500005]]],[[[-122.84310801404848,48.54003660445479],[-122.84556481165069,48.54242039303818],[-122.84941290000002,48.5383455],[-122.84674569999999,48.5334424],[-122.8448409,48.5341505],[-122.84576024499992,48.535681498000024],[-122.84310801404848,48.54003660445479]]]]},"properties":{"COUNTY":"San Juan","PRECCODE":33,"PRECNAME":"Decatur and Outer Is","PRECINCT":"San Juan 33","DESCRIPTIO":"Southeast San Juan County (Decatur Island, Center Island, Frost Island, Trump Island)","OFFICE":"County Councilor District 3","JURISDICTION":"County Council","RACE":"San Juan County District 3 County Councilor District 3","Name_1":"Katherine Bryant Ingman","Party_1":"None_2","Votes_1":"12","Name_2":"Jennifer Swanson","Party_2":"None_1","Votes_2":"11","Name_3":"Renee J Koplan","Party_3":"None_3","Votes_3":"4","Name_4":null,"Party_4":null,"Votes_4":"0","Name_5":null,"Party_5":null,"Votes_5":"0","Name_6":null,"Party_6":null,"Votes_6":"0","Name_7":null,"Party_7":null,"Votes_7":"0","Votes_total":"27","Pct_1":44.44,"Pct_2":40.74,"Pct_3":14.81,"Pct_4":0,"Pct_5":0,"Pct_6":0,"Pct_7":0,"Margin":3.7}},
{"type":"Feature","geometry":{"type":"MultiPolygon","coordinates":[[[[-122.92772705799989,48.555142162000074],[-122.92541085399995,48.554692679],[-122.92280163623055,48.55742641002682],[-122.925028,48.5602428],[-122.92793519999998,48.5602925],[-122.92772705799989,48.555142162000074]]],[[[-122.966175618,48.58994129500007],[-122.9668177578097,48.5952707471032],[-122.96891752960164,48.59426882743436],[-122.96869807599997,48.59063591700008],[-122.98121645000539,48.592447678558926],[-122.98333780299996,48.590789380000075],[-122.98767556075808,48.59167047837724],[-122.99328529999998,48.5879228],[-122.998819,48.5869959],[-123.0001327,48.5852161],[-123.00324639366941,48.58572956145971],[-123.0059808,48.583673],[-123.00730703825725,48.58584443791801],[-123.007597,48.5845554],[-123.00974151599996,48.584592607],[-123.00993830000002,48.586891],[-123.01412580000002,48.5867672],[-123.01179216499999,48.58134510300007],[-123.01540889283088,48.582086635844995],[-123.0168280573559,48.5807870600919],[-123.01306994599994,48.57953959200008],[-123.01036151499993,48.58120516600004],[-123.00811495499993,48.580035922000015],[-123.00494652199995,48.580845956000076],[-123.00230229799993,48.58024131500006],[-123.00105153799993,48.582001851000065],[-122.998113,48.5816782],[-122.9978233,48.5793975],[-122.9931189,48.5770715],[-122.9929803,48.5757465],[-122.989665,48.5747966],[-122.98622498599995,48.56991893700005],[-122.9838922,48.5696301],[-122.98538049999998,48.568319],[-122.98412174315102,48.566531948104064],[-122.98011572099992,48.56984708900004],[-122.97978358995144,48.56563363582011],[-122.9754735,48.5621246],[-122.9757895947999,48.56089656392655],[-122.97119400999996,48.558427623000036],[-122.9785865,48.5575445],[-122.97956017959811,48.55984033145064],[-122.98201279999998,48.5612811],[-122.98580779999998,48.5621145],[-122.98870487789584,48.56135650735373],[-122.98812219623741,48.558629926966724],[-122.9844839,48.5559192],[-122.9814388,48.5561173],[-122.97830889999996,48.5515055],[-122.9730051,48.5528669],[-122.9691754,48.5557672],[-122.966795,48.5498195],[-122.96461446800139,48.5497320848905],[-122.96281319999999,48.551728],[-122.961224,48.5517271],[-122.95959939999997,48.5493543],[-122.95613289999999,48.5501755],[-122.9488333120846,48.54668175034187],[-122.94436381999996,48.548220608000086],[-122.94107376876539,48.55250947631963],[-122.94573712092863,48.5582641677951],[-122.95185189999998,48.5601894],[-122.9449707,48.5618477],[-122.9439487,48.5587653],[-122.93848266703289,48.55760388231197],[-122.93844287099998,48.559859280000104],[-122.94070110000001,48.5612678],[-122.93812909999998,48.5637552],[-122.93078629999998,48.5643537],[-122.92572259999999,48.5634286],[-122.92441753719031,48.56219202914329],[-122.92249339599996,48.56261328500006],[-122.9233850204681,48.564004216122264],[-122.92581210000002,48.5644833],[-122.9251496,48.5659805],[-122.92307710000001,48.5666703],[-122.91858122300002,48.564288674000046],[-122.90869732599997,48.57208553500007],[-122.902981766,48.579524615],[-122.9044988,48.5817359],[-122.91557006799998,48.584069528000065],[-122.92159155699996,48.58704880200002],[-122.9235147429999,48.58478154700001],[-122.9284141476357,48.58516009830795],[-122.93059168398554,48.58367208007629],[-122.92969679999999,48.5816768],[-122.9322379,48.5806273],[-122.929526005,48.576830258],[-122.9297448,48.5749975],[-122.93720339100001,48.57317190100008],[-122.9386924279999,48.57436546300007],[-122.9382957,48.5763371],[-122.9419086,48.5762805],[-122.94227450000001,48.5785268],[-122.94495038199987,48.58005954400002],[-122.94475661899995,48.58121407400006],[-122.9406347407165,48.583202999790146],[-122.94220271777655,48.586072171704195],[-122.9441861,48.5853409],[-122.94591850000002,48.5870319],[-122.95102119999997,48.5878681],[-122.95980919999997,48.5877721],[-122.96007072699994,48.589294896000055],[-122.966175618,48.58994129500007]]]]},"properties":{"COUNTY":"San Juan","PRECCODE":41,"PRECNAME":"Shaw","PRECINCT":"San Juan 41","DESCRIPTIO":"Central San Juan County (Shaw Island)","OFFICE":"County Councilor District 3","JURISDICTION":"County Council","RACE":"San Juan County District 3 County Councilor District 3","Name_1":"Jennifer Swanson","Party_1":"None_1","Votes_1":"67","Name_2":"Katherine Bryant Ingman","Party_2":"None_2","Votes_2":"6","Name_3":"Renee J Koplan","Party_3":"None_3","Votes_3":"2","Name_4":null,"Party_4":null,"Votes_4":"0","Name_5":null,"Party_5":null,"Votes_5":"0","Name_6":null,"Party_6":null,"Votes_6":"0","Name_7":null,"Party_7":null,"Votes_7":"0","Votes_total":"75","Pct_1":89.33,"Pct_2":8,"Pct_3":2.67,"Pct_4":0,"Pct_5":0,"Pct_6":0,"Pct_7":0,"Margin":81.33}},
{"type":"Feature","geometry":{"type":"Polygon","coordinates":[[[-123.02420686599997,48.54281079500004],[-123.02555127799997,48.54423810300005],[-123.02633368599996,48.545558745000044],[-123.02744998599997,48.54641676200003],[-123.028608293,48.54641969300007],[-123.02860858899997,48.543485455000045],[-123.03400550699997,48.54350707200007],[-123.03399149899995,48.536243427000045],[-123.03126996999998,48.53594597400007],[-123.03124094299993,48.52997313100008],[-123.02855093999996,48.530507053000065],[-123.02855040499998,48.52930259200008],[-123.02837653499995,48.529541430000044],[-123.02796670899994,48.530209187000025],[-123.02761829599996,48.53071181200005],[-123.02737966099994,48.53098889900008],[-123.02692427099998,48.53121328900005],[-123.02037490699993,48.53211208000005],[-123.01520007996427,48.5354072759082],[-123.02000555799995,48.53759645500002],[-123.01964068299998,48.53971192100005],[-123.02052504399997,48.54497767300006],[-123.02315444799997,48.54346353600005],[-123.02307435099998,48.54216785500006],[-123.02420686599997,48.54281079500004]]]},"properties":{"COUNTY":"San Juan","PRECCODE":101,"PRECNAME":"Friday Harbor North","PRECINCT":"San Juan 101","DESCRIPTIO":"Friday Harbor Northwest (Friday Harbor High School, Rosewood Apartments, Linde Park)","OFFICE":"County Councilor District 3","JURISDICTION":"County Council","RACE":"San Juan County District 3 County Councilor District 3","Name_1":"Jennifer Swanson","Party_1":"None_1","Votes_1":"112","Name_2":"Katherine Bryant Ingman","Party_2":"None_2","Votes_2":"69","Name_3":"Renee J Koplan","Party_3":"None_3","Votes_3":"48","Name_4":"Write-In","Party_4":"None_4","Votes_4":"1","Name_5":null,"Party_5":null,"Votes_5":"0","Name_6":null,"Party_6":null,"Votes_6":"0","Name_7":null,"Party_7":null,"Votes_7":"0","Votes_total":"230","Pct_1":48.7,"Pct_2":30,"Pct_3":20.87,"Pct_4":0.43,"Pct_5":0,"Pct_6":0,"Pct_7":0,"Margin":18.7}},
{"type":"Feature","geometry":{"type":"Polygon","coordinates":[[[-123.02796670899994,48.530209187000025],[-123.02835727299995,48.529572038000026],[-123.02848113099998,48.52939083500007],[-123.02870697699997,48.52912749600006],[-123.02897205399995,48.52888490200007],[-123.03024829299994,48.52783197400004],[-123.03116757899994,48.527227038000035],[-123.03147327599996,48.52704774000006],[-123.03179670499998,48.52689255800004],[-123.03196650999995,48.52682293500004],[-123.03356027899997,48.526267508000046],[-123.03403990099997,48.526072733000035],[-123.03404314499996,48.52537451600005],[-123.02855194299997,48.525360431000074],[-123.02855335399994,48.52173931500005],[-123.02322147799998,48.52171729500003],[-123.02330292599999,48.524141127000064],[-123.01914890099997,48.524754736000034],[-123.01763946299997,48.52712644600007],[-123.00673862499994,48.52713956700006],[-123.00673450599999,48.52532707800004],[-123.00126440299998,48.52533242000004],[-123.00125725699995,48.52606908800004],[-123.00152588399996,48.52702306100008],[-123.00159915799995,48.52713989400007],[-123.00170751699994,48.52724399600004],[-123.00181188699996,48.527312350000045],[-123.001911727,48.527361412000054],[-123.00215388699996,48.52743255400003],[-123.002343581,48.52745364000003],[-123.00310881999998,48.52748372700006],[-123.003375271,48.52750530500003],[-123.003713394,48.52755393900003],[-123.004151821,48.527644706000046],[-123.00434808299995,48.52769506200007],[-123.00459451399996,48.52778337400008],[-123.00480785299999,48.52791886200004],[-123.00497232999994,48.528082611000066],[-123.00507599899996,48.52826979500003],[-123.00512050399996,48.52850020700003],[-123.00510223299996,48.528818286000046],[-123.00381892599997,48.528819972000065],[-123.00370582289779,48.53189009279944],[-123.00477709999997,48.531547],[-123.00708506851872,48.533662737164256],[-123.01520007996427,48.5354072759082],[-123.02037490699993,48.53211208000005],[-123.02692427099998,48.53121328900005],[-123.02737966099994,48.53098889900008],[-123.02761829599996,48.53071181200005],[-123.02796670899994,48.530209187000025]]]},"properties":{"COUNTY":"San Juan","PRECCODE":102,"PRECNAME":"Friday Harbor South","PRECINCT":"San Juan 102","DESCRIPTIO":"Friday Harbor Southeast (Harrison Street, Mullins Senior Center, Sun Rise Condos)","OFFICE":"County Councilor District 3","JURISDICTION":"County Council","RACE":"San Juan County District 3 County Councilor District 3","Name_1":"Jennifer Swanson","Party_1":"None_1","Votes_1":"79","Name_2":"Katherine Bryant Ingman","Party_2":"None_2","Votes_2":"59","Name_3":"Renee J Koplan","Party_3":"None_3","Votes_3":"21","Name_4":"Write-In","Party_4":"None_4","Votes_4":"3","Name_5":null,"Party_5":null,"Votes_5":"0","Name_6":null,"Party_6":null,"Votes_6":"0","Name_7":null,"Party_7":null,"Votes_7":"0","Votes_total":"162","Pct_1":48.77,"Pct_2":36.42,"Pct_3":12.96,"Pct_4":1.85,"Pct_5":0,"Pct_6":0,"Pct_7":0,"Margin":12.35}}
]}