{
"type": "FeatureCollection",
"crs": { "type": "name", "properties": { "name": "urn:ogc:def:crs:OGC:1.3:CRS84" } },
"features": [
{ "type": "Feature", "properties": { "DISTRICT": "Seattle District 5", "OFFICE": "City Councilor Pos. 5", "JURISDICTION": "City Council", "RACE": "Seattle District 5 City Councilor Pos. 5", "Name_1": "Nilu Jenks", "Party_1": "None_1", "Votes_1": "16,270", "Name_2": "Julie Kang", "Party_2": "None_2", "Votes_2": "9,946", "Name_3": "Dimitri Georgakopoulos", "Party_3": "None_3", "Votes_3": "2,422", "Name_4": "Silas James", "Party_4": "None_4", "Votes_4": "1,450", "Name_5": "Write-In", "Party_5": "None_5", "Votes_5": "74", "Name_6": null, "Party_6": null, "Votes_6": "0", "Name_7": null, "Party_7": null, "Votes_7": "0", "Votes_total": "30,162", "Pct_1": 53.94, "Pct_2": 32.98, "Pct_3": 8.03, "Pct_4": 4.81, "Pct_5": 0.25, "Pct_6": 0.0, "Pct_7": 0.0, "Margin": 20.96 }, "geometry": { "type": "Polygon", "coordinates": [ [ [ -122.374679817999947, 47.734164675000045 ], [ -122.374616818999982, 47.734164675000045 ], [ -122.374474818999943, 47.734166676000029 ], [ -122.374318818999939, 47.734164676000034 ], [ -122.374300818999984, 47.734164676000034 ], [ -122.374239817999978, 47.734164676000034 ], [ -122.374194818999968, 47.734164676000034 ], [ -122.373465817999943, 47.734162678000075 ], [ -122.373352819, 47.734162678000075 ], [ -122.372446818999947, 47.734161680000057 ], [ -122.372158817999946, 47.734160681000048 ], [ -122.372083817999965, 47.734160681000048 ], [ -122.371752819, 47.73415968200004 ], [ -122.371667818, 47.73415968200004 ], [ -122.370361818, 47.734157684000081 ], [ -122.370247817999939, 47.734157685000071 ], [ -122.369028817999947, 47.734155687000055 ], [ -122.367152818999955, 47.734145692000027 ], [ -122.367053817999988, 47.734145692000027 ], [ -122.366298817999962, 47.734141693000026 ], [ -122.363915817999953, 47.73413769800004 ], [ -122.363851817999944, 47.73413769900003 ], [ -122.36195781899994, 47.734146703000079 ], [ -122.360929818999978, 47.734140705000073 ], [ -122.359167817999946, 47.734137709000038 ], [ -122.355570818, 47.734130716000038 ], [ -122.354258819, 47.734129719000066 ], [ -122.353038817999959, 47.734129722000034 ], [ -122.351772817999972, 47.734129725000059 ], [ -122.350505818999977, 47.734129727000038 ], [ -122.347801818, 47.734128733000034 ], [ -122.34629881799998, 47.734128737000049 ], [ -122.345209819, 47.734128739000028 ], [ -122.345096817999945, 47.734128739000028 ], [ -122.34499281899997, 47.734128739000028 ], [ -122.344003817999976, 47.734129741000061 ], [ -122.343423817999962, 47.73412974200005 ], [ -122.342391817999953, 47.734130745000073 ], [ -122.341335819, 47.734131747000049 ], [ -122.341032817999974, 47.734131748000038 ], [ -122.340742817999967, 47.734131748000038 ], [ -122.339686817999961, 47.734132750000072 ], [ -122.338629817999959, 47.734133753000037 ], [ -122.338074817999939, 47.734133754000027 ], [ -122.33698181799997, 47.734134757000049 ], [ -122.335924817999967, 47.734135759000026 ], [ -122.335544818999949, 47.734135759000026 ], [ -122.335331818999975, 47.734135760000072 ], [ -122.33427581899997, 47.734136762000048 ], [ -122.333747817999949, 47.73413176400004 ], [ -122.333028819, 47.734126765000042 ], [ -122.331577817999971, 47.734115768000038 ], [ -122.330224818999966, 47.734104771000034 ], [ -122.328879817999962, 47.734094774000027 ], [ -122.326380817999961, 47.734075779000079 ], [ -122.326214817999983, 47.734074779000025 ], [ -122.325653817999978, 47.734070781000071 ], [ -122.325318817999971, 47.734063782000078 ], [ -122.325244817999987, 47.73406678200007 ], [ -122.324980817999972, 47.734064782000075 ], [ -122.324732817999973, 47.73406278300007 ], [ -122.324521818999983, 47.734061783000072 ], [ -122.324455818, 47.734060783000075 ], [ -122.323587818999954, 47.734053785000071 ], [ -122.322217817999956, 47.734040788000073 ], [ -122.320799817999955, 47.734027791000074 ], [ -122.318115817999967, 47.734002797000073 ], [ -122.316758817999983, 47.733989800000074 ], [ -122.315441817999954, 47.733976803000076 ], [ -122.312748817999989, 47.733951809000075 ], [ -122.310046816999943, 47.733920815000033 ], [ -122.308694816999946, 47.73390581700005 ], [ -122.308397817999946, 47.733901818000049 ], [ -122.308043817999987, 47.733897818000059 ], [ -122.307324817, 47.733890820000056 ], [ -122.306169816999954, 47.733877823000057 ], [ -122.305992818, 47.733875824000052 ], [ -122.304842816999951, 47.733861826000066 ], [ -122.304572816999951, 47.733857826000076 ], [ -122.303597817999957, 47.73384782800008 ], [ -122.301953816999969, 47.733829831000037 ], [ -122.300584816999958, 47.733818835000079 ], [ -122.299228816999971, 47.733807838000075 ], [ -122.297875816999976, 47.733796840000025 ], [ -122.296518817, 47.733785843000078 ], [ -122.295304816999987, 47.733775846000071 ], [ -122.295161816999951, 47.733774847000063 ], [ -122.294690816999946, 47.733770847000073 ], [ -122.293808816999956, 47.73376384900007 ], [ -122.29243381699996, 47.733752852000066 ], [ -122.291442816999961, 47.733743855000057 ], [ -122.291096816, 47.733741855000062 ], [ -122.289751815999978, 47.733733858000051 ], [ -122.288413817, 47.733730861000026 ], [ -122.287048815999981, 47.733722864000072 ], [ -122.286709816999974, 47.733725864000064 ], [ -122.286321816999987, 47.733730865000041 ], [ -122.285955815999955, 47.73373386600008 ], [ -122.284661816999972, 47.733738869000035 ], [ -122.284536815999957, 47.733738869000035 ], [ -122.283756816, 47.733736871000076 ], [ -122.282010816999957, 47.733738875000029 ], [ -122.280632815999979, 47.733736878000059 ], [ -122.279631815999949, 47.733736880000038 ], [ -122.274926817, 47.733733890000053 ], [ -122.274395815999981, 47.733733891000043 ], [ -122.27436681599994, 47.733491891000028 ], [ -122.273586786999942, 47.726929893000033 ], [ -122.273517784999967, 47.72668189400008 ], [ -122.273489784999981, 47.726579894000054 ], [ -122.273460784999941, 47.726477894000027 ], [ -122.273305781999966, 47.725914894000027 ], [ -122.273273782, 47.725787894000064 ], [ -122.271921757999962, 47.720435898000062 ], [ -122.271221750999985, 47.718858899000054 ], [ -122.270404742999972, 47.71700590100005 ], [ -122.269136728999968, 47.71412590400007 ], [ -122.267940720999945, 47.712255907000042 ], [ -122.267625718999966, 47.711763907000034 ], [ -122.267092715, 47.710931909000067 ], [ -122.265261701999975, 47.708069912000042 ], [ -122.26232168599995, 47.704309919000082 ], [ -122.260723676999987, 47.702265922000038 ], [ -122.255060652999987, 47.696867933000078 ], [ -122.251048638999976, 47.693616942000062 ], [ -122.246954629999948, 47.691203949000055 ], [ -122.243421624999939, 47.689525955000079 ], [ -122.249220623999975, 47.690221945000076 ], [ -122.265805622999949, 47.690317913000058 ], [ -122.265451623, 47.690102913000032 ], [ -122.26612062199996, 47.690103912000041 ], [ -122.267291622999949, 47.690123910000068 ], [ -122.267311621999966, 47.690122910000071 ], [ -122.267359622999948, 47.690177909000056 ], [ -122.26748562399996, 47.690316909000046 ], [ -122.267610624999975, 47.690455909000036 ], [ -122.267848624999942, 47.690689909000071 ], [ -122.268041625999956, 47.690868909000073 ], [ -122.268421627999942, 47.691176907000056 ], [ -122.26895062899996, 47.691547907000029 ], [ -122.270244631999958, 47.692383903000064 ], [ -122.270538634, 47.692557903000079 ], [ -122.270819634999953, 47.69269690200008 ], [ -122.270971633999977, 47.692677902000071 ], [ -122.271125633999986, 47.692691902000035 ], [ -122.271202634999952, 47.692719902000078 ], [ -122.271703633999948, 47.692894901000045 ], [ -122.271790634999945, 47.692879900000037 ], [ -122.271849634999967, 47.692815901000074 ], [ -122.271910634999983, 47.692727900000079 ], [ -122.271970633999956, 47.692690900000059 ], [ -122.272069634, 47.69267190000005 ], [ -122.272177633999945, 47.692680900000028 ], [ -122.272434633999978, 47.692759900000055 ], [ -122.272631634999982, 47.692794899000035 ], [ -122.272811634999982, 47.692807899000059 ], [ -122.273010635, 47.692790898000055 ], [ -122.273158633999969, 47.692750898000043 ], [ -122.273260634999986, 47.69270689800004 ], [ -122.273482633999947, 47.692547898000043 ], [ -122.273610632999976, 47.692479898000045 ], [ -122.273705631999974, 47.692452897000067 ], [ -122.273906631999978, 47.69242489700008 ], [ -122.274455631999956, 47.692366895000077 ], [ -122.27535463199996, 47.692143894000026 ], [ -122.275591631999987, 47.692233893000036 ], [ -122.275848631999963, 47.692292893000058 ], [ -122.276119631999961, 47.692319892000057 ], [ -122.276233631999958, 47.692315892000067 ], [ -122.276417631999948, 47.69231089200008 ], [ -122.276668631999939, 47.692270891000078 ], [ -122.276874631999988, 47.692213891000051 ], [ -122.277065630999971, 47.692136890000029 ], [ -122.278088629999957, 47.691617889000042 ], [ -122.278247628999964, 47.69157788800004 ], [ -122.278431629999943, 47.691574888000048 ], [ -122.278610629999946, 47.691616887000066 ], [ -122.278764629999955, 47.691706887000066 ], [ -122.279230631999951, 47.692291886000078 ], [ -122.279833633999942, 47.692868885000053 ], [ -122.279899635, 47.69296788500003 ], [ -122.279932635999955, 47.693053884000051 ], [ -122.279964637999967, 47.693701885000053 ], [ -122.279996639, 47.693838884000058 ], [ -122.279999643999986, 47.694822884000075 ], [ -122.279997644, 47.694838885000081 ], [ -122.280000645999962, 47.695285884000043 ], [ -122.280008648999967, 47.696225884000057 ], [ -122.280011651999985, 47.696669884000073 ], [ -122.280017653999948, 47.697377884000048 ], [ -122.281357654999965, 47.697387881000054 ], [ -122.281743655999946, 47.697390880000057 ], [ -122.282698655, 47.697398879000048 ], [ -122.283824655999979, 47.697406877000049 ], [ -122.284254654999984, 47.697409875000062 ], [ -122.284336654999947, 47.69741087500006 ], [ -122.285268654999982, 47.697417874000053 ], [ -122.290572654999949, 47.697458863000065 ], [ -122.293267654999966, 47.697478858000068 ], [ -122.296018655999944, 47.697498852000081 ], [ -122.298784654999963, 47.697519847000081 ], [ -122.301546655999971, 47.697538841000039 ], [ -122.304180655999971, 47.697558836000042 ], [ -122.304890655999941, 47.697563835000039 ], [ -122.305466655999965, 47.697568833000048 ], [ -122.305598654999983, 47.697242833000075 ], [ -122.305690652999942, 47.696891833000052 ], [ -122.305735650999964, 47.696548833000065 ], [ -122.305746649999946, 47.696393833000059 ], [ -122.305713648999983, 47.695993833000045 ], [ -122.305693647999988, 47.695750833000034 ], [ -122.305606642999976, 47.694840834000047 ], [ -122.305520638999951, 47.693930834000071 ], [ -122.305464636999943, 47.693310834000044 ], [ -122.305480634999981, 47.693021834000035 ], [ -122.305527634999976, 47.692789835000042 ], [ -122.305604632999973, 47.692562835000047 ], [ -122.305711632999987, 47.692341834000047 ], [ -122.305856630999983, 47.692114834000051 ], [ -122.306054631, 47.691872834000037 ], [ -122.306249629999968, 47.691681833000075 ], [ -122.306469629, 47.691502833000072 ], [ -122.306848627999955, 47.691235832000075 ], [ -122.308169622999969, 47.690312830000039 ], [ -122.309473622999974, 47.690321828000037 ], [ -122.310080623999966, 47.690325826000048 ], [ -122.31115562399998, 47.690333824000049 ], [ -122.312231624, 47.690340822000053 ], [ -122.31348262399996, 47.690341819000025 ], [ -122.313443615999972, 47.688517820000072 ], [ -122.314336616, 47.688525818000073 ], [ -122.314931615999967, 47.688529817000074 ], [ -122.316263615999958, 47.688540814000078 ], [ -122.317584615999976, 47.688550812000074 ], [ -122.317590616999951, 47.688921811000057 ], [ -122.317603620999989, 47.689645812000037 ], [ -122.317615623, 47.690368811000042 ], [ -122.320307623999952, 47.690382806000059 ], [ -122.323000623999974, 47.69039680000003 ], [ -122.324339623999947, 47.690407798000081 ], [ -122.325679623999974, 47.690417796000077 ], [ -122.327019623999945, 47.690427793000026 ], [ -122.32767462399994, 47.69043079100004 ], [ -122.328185623999957, 47.690432790000045 ], [ -122.328267623999977, 47.690444791000061 ], [ -122.328317623999965, 47.69046779100006 ], [ -122.328623624999977, 47.690467789000081 ], [ -122.328954623999948, 47.690447789000075 ], [ -122.328906623999956, 47.690290789000073 ], [ -122.328887622999957, 47.690247789000068 ], [ -122.328959622999946, 47.690294789000063 ], [ -122.329134623999948, 47.690369789000044 ], [ -122.329177623999954, 47.690388789000053 ], [ -122.329383623999945, 47.690452788000073 ], [ -122.329427623999948, 47.690466788000037 ], [ -122.329704623999987, 47.690504787000066 ], [ -122.329975623999985, 47.69052178700008 ], [ -122.330332624, 47.69052578700007 ], [ -122.330724624999959, 47.69052978600007 ], [ -122.331060624999964, 47.69054178500005 ], [ -122.331395624999971, 47.690554784000028 ], [ -122.332149623999953, 47.690543783000066 ], [ -122.332594624999956, 47.690537782000035 ], [ -122.33321962499997, 47.690520780000043 ], [ -122.335088624999969, 47.690502777000063 ], [ -122.335322624999947, 47.690501777000065 ], [ -122.336440623999977, 47.690512774000069 ], [ -122.337161623999975, 47.690515773000072 ], [ -122.337788624999973, 47.690511772000036 ], [ -122.338067624999951, 47.690513771000042 ], [ -122.339134624999986, 47.690521769000043 ], [ -122.34022162399998, 47.690529767000044 ], [ -122.340479624999944, 47.690531766000049 ], [ -122.341295624999987, 47.690537765000045 ], [ -122.341827623999961, 47.690541764000045 ], [ -122.342373623999947, 47.690545763000046 ], [ -122.343449623999959, 47.690554760000055 ], [ -122.344459623999967, 47.690562759000045 ], [ -122.34452162499997, 47.690562759000045 ], [ -122.344591623999975, 47.690562758000056 ], [ -122.347207624999953, 47.690570753000031 ], [ -122.349911623999958, 47.690578748000064 ], [ -122.351274624999974, 47.690583745000026 ], [ -122.351282629999957, 47.691676744000063 ], [ -122.351290631999973, 47.692406744000039 ], [ -122.352620632999958, 47.69241074200005 ], [ -122.353950633999943, 47.692414739000071 ], [ -122.355320632999963, 47.692418737000025 ], [ -122.356660633, 47.692425734000039 ], [ -122.357384632999981, 47.692429732000051 ], [ -122.358000632999961, 47.692433731000051 ], [ -122.359340632999988, 47.692441729000052 ], [ -122.360662632999947, 47.692448726000066 ], [ -122.360658630999978, 47.692050726000048 ], [ -122.360653627999966, 47.691348726000058 ], [ -122.360647624999956, 47.690625727000054 ], [ -122.363320625999961, 47.690640721000079 ], [ -122.365992625, 47.690655717000027 ], [ -122.367267624999954, 47.690649714000074 ], [ -122.368323625999949, 47.690645712000048 ], [ -122.369345625, 47.690640710000025 ], [ -122.37040262499994, 47.690636708000056 ], [ -122.371440625, 47.690632706000031 ], [ -122.37276262499995, 47.690626704000067 ], [ -122.374102624999978, 47.690620701000057 ], [ -122.375466624999945, 47.690614698000047 ], [ -122.376805624999974, 47.690608695000037 ], [ -122.376802632999954, 47.692429695000044 ], [ -122.376585635999959, 47.693144694000068 ], [ -122.376733636999973, 47.693238694000058 ], [ -122.376780636999968, 47.693319694000081 ], [ -122.376801636999971, 47.693393694000065 ], [ -122.376799641, 47.694249693000074 ], [ -122.376798642999972, 47.694688693000046 ], [ -122.38249964299996, 47.69466968200004 ], [ -122.382810642999971, 47.694651681000039 ], [ -122.383199641999965, 47.694610680000039 ], [ -122.383582641999965, 47.694551680000075 ], [ -122.383957642999974, 47.694473679000055 ], [ -122.384603641999945, 47.694315678000066 ], [ -122.385012640999946, 47.694240677000039 ], [ -122.385016642999972, 47.694826676000048 ], [ -122.385056644999963, 47.695049677000043 ], [ -122.385161644999982, 47.695287676000078 ], [ -122.385396647, 47.695606676000068 ], [ -122.385484646999942, 47.69577167500006 ], [ -122.385550648999981, 47.695986675000029 ], [ -122.385566649999987, 47.696232675000033 ], [ -122.385554651999939, 47.696699674000058 ], [ -122.385505652999939, 47.696846675000074 ], [ -122.385330653999972, 47.697185675000071 ], [ -122.385305654999968, 47.697318675000076 ], [ -122.385301655999967, 47.697521675000075 ], [ -122.385301659, 47.698238674000038 ], [ -122.385298661999968, 47.698979674000043 ], [ -122.385295664999944, 47.699681673000043 ], [ -122.385296665999988, 47.699721673000056 ], [ -122.385293668999964, 47.700445672000058 ], [ -122.38529067199994, 47.701173673000028 ], [ -122.385289672999988, 47.701325672000053 ], [ -122.385289672999988, 47.701545672000066 ], [ -122.385288673, 47.701587672000073 ], [ -122.387491673999989, 47.701598667000042 ], [ -122.387555673999941, 47.701546668000049 ], [ -122.389432673999977, 47.701546664000034 ], [ -122.39004767299997, 47.701546663000045 ], [ -122.391993672999945, 47.701609659000042 ], [ -122.39207967599998, 47.702093658000081 ], [ -122.392825694999942, 47.706294654000033 ], [ -122.392174695999984, 47.706565655000077 ], [ -122.389299705999974, 47.709044659000028 ], [ -122.384413716999973, 47.711365668000042 ], [ -122.383665730999951, 47.714411668000025 ], [ -122.380681747999972, 47.718189672000051 ], [ -122.380703753999967, 47.71975567100003 ], [ -122.380738765999979, 47.72219566900003 ], [ -122.380180773999939, 47.724179670000069 ], [ -122.381196816999989, 47.733799662000081 ], [ -122.381266819999951, 47.734303661000069 ], [ -122.375047817999985, 47.734165675000042 ], [ -122.374884817999941, 47.734165675000042 ], [ -122.374679817999947, 47.734164675000045 ] ] ] } }
]
}
