{
"type": "FeatureCollection",
"crs": { "type": "name", "properties": { "name": "urn:ogc:def:crs:OGC:1.3:CRS84" } },
"features": [
{ "type": "Feature", "properties": { "DISTRICT": "Klickitat County", "region": "SouthCentral", "OFFICE": "PUD Commissioner District 3", "JURISDICTION": "County", "RACE": "Klickitat County PUD Commissioner District 3", "Name_1": "Logan B. Siebert", "Party_1": "None_1", "Votes_1": "786", "Name_2": "Dan G. Gunkel", "Party_2": "None_2", "Votes_2": "599", "Name_3": "Dan Christopher", "Party_3": "None_3", "Votes_3": "259", "Name_4": "Write-In", "Party_4": "None_4", "Votes_4": "6", "Name_5": null, "Party_5": null, "Votes_5": "0", "Name_6": null, "Party_6": null, "Votes_6": "0", "Name_7": null, "Party_7": null, "Votes_7": "0", "Votes_total": "1,650", "Pct_1": 47.64, "Pct_2": 36.3, "Pct_3": 15.7, "Pct_4": 0.36, "Pct_5": 0.0, "Pct_6": 0.0, "Pct_7": 0.0, "Margin": 11.34 }, "geometry": { "type": "Polygon", "coordinates": [ [ [ -121.522320532086297, 46.044006317330428 ], [ -121.508090761867322, 46.043968267300613 ], [ -121.507862892008276, 46.043998570665266 ], [ -121.497682471298333, 46.043996854797626 ], [ -121.487199917623855, 46.043931668022928 ], [ -121.469093134213438, 46.044244662201109 ], [ -121.458957911811666, 46.044333588332776 ], [ -121.448373071375983, 46.04435658539704 ], [ -121.427197527945779, 46.044347804856997 ], [ -121.416885454419614, 46.044682770448169 ], [ -121.40646409560172, 46.044715451687956 ], [ -121.40127432915601, 46.04474876747679 ], [ -121.396084560419609, 46.044781848197069 ], [ -121.385704969704221, 46.044847348676157 ], [ -121.375325389154398, 46.04491185387905 ], [ -121.365215665835677, 46.045103973312088 ], [ -121.344467104967705, 46.045011082040716 ], [ -121.323264548265257, 46.044965848878277 ], [ -121.312858256225809, 46.044945843596807 ], [ -121.307602248676602, 46.044920337124964 ], [ -121.302348206450773, 46.0448950665198 ], [ -121.297097997415207, 46.044897251384789 ], [ -121.291845319231228, 46.044898686352603 ], [ -121.286598974868397, 46.044893915567137 ], [ -121.281353103562495, 46.044888868366783 ], [ -121.276116526085758, 46.044877892548065 ], [ -121.270880423661794, 46.044866698847549 ], [ -121.265901153714594, 46.044912708478023 ], [ -121.260403829754353, 46.044878827653193 ], [ -121.255177376883239, 46.044758451489642 ], [ -121.249950950844195, 46.044637831405957 ], [ -121.244815028678929, 46.044676343739042 ], [ -121.242247062931924, 46.044695512591666 ], [ -121.239679095395203, 46.044714623226277 ], [ -121.237482653307396, 46.044705914520264 ], [ -121.237422144724576, 46.044705559789421 ], [ -121.237106336419956, 46.044703690976981 ], [ -121.237046966089906, 46.044703342350566 ], [ -121.233737558375267, 46.044682134545774 ], [ -121.22868098486353, 46.044649546232137 ], [ -121.218570981140346, 46.044589275347086 ], [ -121.197936007310716, 46.044562901640177 ], [ -121.186267776945783, 46.044853154349354 ], [ -121.175763916697875, 46.044561028763418 ], [ -121.165121778737173, 46.044554064131255 ], [ -121.163814697784403, 46.044566500896963 ], [ -121.154501398041788, 46.044654795079374 ], [ -121.143896868978032, 46.044503551821713 ], [ -121.132977087551822, 46.044522687031566 ], [ -121.111719119007958, 46.044206713898809 ], [ -121.091203437160289, 46.04294429768909 ], [ -121.068709112955091, 46.042173002267596 ], [ -121.049581296177266, 46.042869903420467 ], [ -121.030820940908541, 46.042819047613108 ], [ -121.008020713184294, 46.043035686093305 ], [ -120.987134357539588, 46.042515687880382 ], [ -120.97876194874614, 46.042462877044045 ], [ -120.976672595547569, 46.04239835045103 ], [ -120.968297335002319, 46.042359874870463 ], [ -120.966446986675209, 46.042349753303945 ], [ -120.947406651075909, 46.042198587292958 ], [ -120.945631893234108, 46.042176868686255 ], [ -120.93644617353317, 46.042087122099915 ], [ -120.9266900935705, 46.042243175802533 ], [ -120.925811449910839, 46.042243273848555 ], [ -120.905347593481054, 46.042415957075718 ], [ -120.905071873986316, 46.042407863573224 ], [ -120.884461845711797, 46.042179878815695 ], [ -120.863785495395433, 46.041860408073092 ], [ -120.842703460280703, 46.041492652569389 ], [ -120.822075449767283, 46.041265021651981 ], [ -120.80129487369112, 46.041014325775727 ], [ -120.79102888870554, 46.041008672766765 ], [ -120.780511820345438, 46.041193467324305 ], [ -120.759815372881789, 46.041399612032869 ], [ -120.73949192008169, 46.041401600685596 ], [ -120.718553945405816, 46.041376531513208 ], [ -120.718309796390997, 46.041376508740484 ], [ -120.697458754905639, 46.041414202566337 ], [ -120.697255968941207, 46.041418422571347 ], [ -120.676878935857047, 46.041316031093082 ], [ -120.655807418282166, 46.041362361611668 ], [ -120.635188057695117, 46.041150569650718 ], [ -120.624639926571987, 46.040915257299559 ], [ -120.614340553165647, 46.040959609178522 ], [ -120.592957609059695, 46.040763766017555 ], [ -120.573261544205735, 46.0415396196816 ], [ -120.562924684669497, 46.041686706269623 ], [ -120.552386872364096, 46.041715709029219 ], [ -120.531578890757174, 46.041669206324819 ], [ -120.510881218882986, 46.041521354096375 ], [ -120.489951222500153, 46.041739060316267 ], [ -120.479834813161645, 46.041502009921714 ], [ -120.470230273046994, 46.041523202348117 ], [ -120.45985554305058, 46.041526858893079 ], [ -120.449080233901242, 46.04148793308137 ], [ -120.438795180977507, 46.040961458740078 ], [ -120.42842659393375, 46.040208851528661 ], [ -120.418211717165022, 46.040560772117352 ], [ -120.407781180462507, 46.040902039226161 ], [ -120.397355635169433, 46.041249913690983 ], [ -120.386744080556312, 46.041509525175812 ], [ -120.376267281918018, 46.041499529967822 ], [ -120.366044958632415, 46.041626892800522 ], [ -120.345351907424401, 46.041389810436385 ], [ -120.340673618447312, 46.041420182881303 ], [ -120.324539675533046, 46.041532384685226 ], [ -120.319310221674812, 46.041500137547281 ], [ -120.314015800001727, 46.041467300971362 ], [ -120.308985256434113, 46.041435948372431 ], [ -120.30354711715637, 46.041401856186035 ], [ -120.293492193020299, 46.041529200236518 ], [ -120.282817937862717, 46.041668018430556 ], [ -120.271860897491592, 46.041613543471712 ], [ -120.261418708918882, 46.041569706931149 ], [ -120.240757706940045, 46.041277630472585 ], [ -120.219590877375438, 46.041366186257775 ], [ -120.218125977967759, 46.041366663608279 ], [ -120.19862925588771, 46.041358971267989 ], [ -120.196991037199737, 46.041362144623783 ], [ -120.17765883030053, 46.041500544695367 ], [ -120.176666483922332, 46.041499251916733 ], [ -120.156449176796613, 46.041469899240425 ], [ -120.155787576719689, 46.041474746384282 ], [ -120.135486773384514, 46.0415654613602 ], [ -120.1349117857322, 46.041573043075871 ], [ -120.114052580571894, 46.041672869061294 ], [ -120.093644977945829, 46.041269312074824 ], [ -120.072817349264966, 46.041236359447424 ], [ -120.052226083109048, 46.041192119927771 ], [ -120.031541015462352, 46.041065095460127 ], [ -120.010654383915877, 46.041027161541351 ], [ -119.990039606307676, 46.040973872898952 ], [ -119.96991407656374, 46.040831367131382 ], [ -119.949202651604182, 46.04060669278487 ], [ -119.928165429162291, 46.04029771510902 ], [ -119.907703218069926, 46.040360993247603 ], [ -119.887331408236463, 46.040379190427352 ], [ -119.865818571226228, 46.040434021320287 ], [ -119.866969452960674, 46.025854879014304 ], [ -119.867064551213502, 46.011212296036454 ], [ -119.867125105181586, 45.996502149926428 ], [ -119.867181601463884, 45.981803036289584 ], [ -119.867259296357901, 45.975456146558059 ], [ -119.867355916777584, 45.967194308840853 ], [ -119.867443013986289, 45.959890473587748 ], [ -119.867530131954965, 45.952586241558805 ], [ -119.867433104931692, 45.93815473757185 ], [ -119.867653324741283, 45.923679434176506 ], [ -119.867390971339418, 45.909299256257732 ], [ -119.867508846271988, 45.894742518343499 ], [ -119.867553483521661, 45.887476316686033 ], [ -119.867609135280404, 45.880190214008728 ], [ -119.867638056000203, 45.872936625469812 ], [ -119.867682270202238, 45.865666642936574 ], [ -119.867674048461282, 45.858354849219879 ], [ -119.867886685748516, 45.851044810469155 ], [ -119.867860106517952, 45.850185190283625 ], [ -119.867833569188079, 45.849325068499468 ], [ -119.867779694697361, 45.847605665175031 ], [ -119.867726944431709, 45.84588570056868 ], [ -119.867672721414507, 45.844166819275593 ], [ -119.86769165553423, 45.843959403747483 ], [ -119.867705862171306, 45.843808010557289 ], [ -119.867782158573149, 45.84299505543148 ], [ -119.867791465741234, 45.842875660340553 ], [ -119.86831189862518, 45.83619826293274 ], [ -119.888590079388976, 45.832022253455889 ], [ -119.907245433139991, 45.828176433013539 ], [ -119.908934369722587, 45.828067207161496 ], [ -119.930653675702843, 45.826660125752056 ], [ -119.951714343376295, 45.825291681298204 ], [ -119.965771922027599, 45.824376016095123 ], [ -119.971531888427506, 45.822351973465722 ], [ -119.975176220002254, 45.821071085594461 ], [ -119.994186967788295, 45.814386768081654 ], [ -120.012538183550859, 45.807929328259938 ], [ -120.013580558429297, 45.807562405871522 ], [ -120.014837328455613, 45.807120104451478 ], [ -120.032762717923148, 45.800018079252077 ], [ -120.049155546688368, 45.793519088252772 ], [ -120.055218023780455, 45.791114420443463 ], [ -120.070236322875431, 45.785155615273716 ], [ -120.077923808652685, 45.783868756238356 ], [ -120.096764747075184, 45.78071252919171 ], [ -120.118158845413802, 45.777124332687727 ], [ -120.138236856165221, 45.773752684480002 ], [ -120.141480318751178, 45.773207674734685 ], [ -120.159071584092374, 45.76642699674403 ], [ -120.161786047873377, 45.765380237253595 ], [ -120.170602102167734, 45.76198008285975 ], [ -120.170603288141052, 45.761979622876751 ], [ -120.170622617075054, 45.761962287672638 ], [ -120.179966581899777, 45.753578709668034 ], [ -120.184152279630354, 45.749822571170299 ], [ -120.192109453229932, 45.742679419159721 ], [ -120.192292286222397, 45.742515262892333 ], [ -120.192425666866896, 45.742395506248123 ], [ -120.192616126427225, 45.742224498087204 ], [ -120.198812055141971, 45.736660624424893 ], [ -120.198897214190865, 45.736584141847949 ], [ -120.199073611823948, 45.736425710896505 ], [ -120.199149596710114, 45.736357468902618 ], [ -120.200592239178405, 45.735061741619582 ], [ -120.202041387793543, 45.73376038893818 ], [ -120.210753769059323, 45.725933156401133 ], [ -120.21077352521398, 45.725915401437057 ], [ -120.21077425764436, 45.725915353956829 ], [ -120.222712613869817, 45.725138045205483 ], [ -120.243227566526755, 45.723799310396487 ], [ -120.263853058597107, 45.722449503969919 ], [ -120.28343101176246, 45.721164718157134 ], [ -120.284633020388213, 45.720891969714863 ], [ -120.287612540371754, 45.72021570531021 ], [ -120.30531225445263, 45.716196968199583 ], [ -120.326135846507427, 45.711464530009401 ], [ -120.326332175039198, 45.711419887093129 ], [ -120.346972734310015, 45.708228646726681 ], [ -120.361912984864702, 45.70591604299694 ], [ -120.366990831303383, 45.7051296400194 ], [ -120.388420442756697, 45.701807732406493 ], [ -120.40365077443407, 45.699444140769963 ], [ -120.409344587757872, 45.699082832224313 ], [ -120.430378400956428, 45.697745566951959 ], [ -120.448983791611212, 45.696559359988342 ], [ -120.469937414565877, 45.695219685799934 ], [ -120.482614593194938, 45.694407273975138 ], [ -120.490434704485253, 45.696281616964008 ], [ -120.505742918514159, 45.699948671968194 ], [ -120.511394786575934, 45.70338814276775 ], [ -120.518768948601902, 45.707874576504864 ], [ -120.522735439853875, 45.710287344566211 ], [ -120.531952289262122, 45.717358520393617 ], [ -120.538706953995913, 45.722539077156306 ], [ -120.552674188183104, 45.733246847241034 ], [ -120.557473079576269, 45.736924389110925 ], [ -120.559287247630195, 45.738314660909296 ], [ -120.57391667593977, 45.742079084221842 ], [ -120.591143609095326, 45.746508737238855 ], [ -120.594930713791342, 45.746476294816546 ], [ -120.61587386334925, 45.746294525254967 ], [ -120.622811458584565, 45.746233424720572 ], [ -120.635050863279716, 45.745711080820179 ], [ -120.63612479974492, 45.745214751541468 ], [ -120.657323522907035, 45.735413977243432 ], [ -120.669279552697176, 45.729883012172635 ], [ -120.678607779911161, 45.723365258738077 ], [ -120.679402214121609, 45.722810082766514 ], [ -120.689535484704209, 45.715727288571131 ], [ -120.699580332552046, 45.71293891046097 ], [ -120.704144394086597, 45.711671582578276 ], [ -120.719859749373867, 45.707594138296528 ], [ -120.728625830441914, 45.705318546789918 ], [ -120.740664343826964, 45.701527781735258 ], [ -120.761049855054594, 45.695104517944635 ], [ -120.766868298194325, 45.693270244625317 ], [ -120.781540911855771, 45.688642765570528 ], [ -120.788574305387087, 45.686423610806443 ], [ -120.802410378572034, 45.68338563238499 ], [ -120.820820268949163, 45.679340267661672 ], [ -120.823230947763889, 45.678810250372599 ], [ -120.843849858467522, 45.674274650955518 ], [ -120.855415294585086, 45.67172858553463 ], [ -120.864828404316583, 45.665021421634144 ], [ -120.86494032333664, 45.664941779080166 ], [ -120.884790213859702, 45.650790222589862 ], [ -120.885728861933259, 45.650120930354099 ], [ -120.895821637027879, 45.642922707344475 ], [ -120.90641558453423, 45.641184589560986 ], [ -120.913608411289133, 45.639992012133398 ], [ -120.926633403822848, 45.647026990136183 ], [ -120.933679871767723, 45.650822796797208 ], [ -120.944017949422758, 45.656391691728011 ], [ -120.948140502438264, 45.656555620709952 ], [ -120.953115249390734, 45.656741581968014 ], [ -120.968899736179537, 45.652054569202917 ], [ -120.97305307550829, 45.650817098127739 ], [ -120.977818530851863, 45.649396951460545 ], [ -120.981602351474038, 45.648705244755419 ], [ -120.983493712024341, 45.648357988452638 ], [ -120.989808936504716, 45.649638384401094 ], [ -120.996922560848049, 45.651080156613624 ], [ -121.007369840975741, 45.653196643485273 ], [ -121.010189373114756, 45.652958882113701 ], [ -121.03079156249089, 45.651219327940545 ], [ -121.033822889799538, 45.650963053330187 ], [ -121.051588135828325, 45.651849808829212 ], [ -121.064459715052678, 45.652490502672208 ], [ -121.070965552729973, 45.651037384576782 ], [ -121.072142732229665, 45.650774446118369 ], [ -121.08486269223458, 45.647931969424235 ], [ -121.093285384367036, 45.642016740800415 ], [ -121.097429161215885, 45.639105869151187 ], [ -121.101621430441668, 45.636160463871207 ], [ -121.102070783507529, 45.635844717212862 ], [ -121.104215335251396, 45.634337735363019 ], [ -121.106978639140664, 45.632395771789447 ], [ -121.107422822533792, 45.632083596483021 ], [ -121.110064657867127, 45.630226766829011 ], [ -121.112051017414771, 45.628830533936139 ], [ -121.112172452424304, 45.628745170383532 ], [ -121.113946412238917, 45.627498137698659 ], [ -121.114759674245363, 45.626926414789544 ], [ -121.115674181734391, 45.626283538415599 ], [ -121.116469743939149, 45.625724256897477 ], [ -121.120088570890644, 45.623180001804492 ], [ -121.120110316995166, 45.623164714011473 ], [ -121.120108731472712, 45.623162032531567 ], [ -121.119258807405117, 45.621723651622844 ], [ -121.118613047069928, 45.620631344936399 ], [ -121.117181785556696, 45.618208719606613 ], [ -121.1171771333359, 45.618200844503555 ], [ -121.117201933609991, 45.618190756413931 ], [ -121.122407865867061, 45.616072964500567 ], [ -121.131833017754488, 45.609753327100115 ], [ -121.135961752878217, 45.611006155068807 ], [ -121.139385835505635, 45.612044910506583 ], [ -121.140666468300651, 45.611197668339898 ], [ -121.145583116656852, 45.607944795186619 ], [ -121.156544571660049, 45.60703176898339 ], [ -121.167850076291401, 45.606088917012379 ], [ -121.177179712872544, 45.606301832313179 ], [ -121.183683804357372, 45.606449806734268 ], [ -121.196462012506416, 45.616574796924098 ], [ -121.19591311558969, 45.622150627873189 ], [ -121.195183834021336, 45.629561112694446 ], [ -121.196982148737405, 45.636620677195353 ], [ -121.19745658231848, 45.638482319030935 ], [ -121.200350796901489, 45.649839092038548 ], [ -121.201390580274236, 45.651281980915506 ], [ -121.211890960371576, 45.665851692490946 ], [ -121.215767525178066, 45.671228168680564 ], [ -121.21810238602022, 45.671687693143411 ], [ -121.239537408806299, 45.675903545597173 ], [ -121.248962453649284, 45.677755770596207 ], [ -121.258861839494159, 45.680110175458367 ], [ -121.263516980714726, 45.68121683176274 ], [ -121.280270732368649, 45.685198087142865 ], [ -121.2872960257111, 45.686866639801941 ], [ -121.300710616976104, 45.693828890111092 ], [ -121.304721539652277, 45.695909799838027 ], [ -121.31229575638443, 45.699838856066286 ], [ -121.321435297174247, 45.701637513452312 ], [ -121.337712179000718, 45.704838654344918 ], [ -121.341841140984002, 45.704625347114138 ], [ -121.362595889714157, 45.70355068851071 ], [ -121.372573123935766, 45.703032726840945 ], [ -121.383535780089034, 45.699223064781783 ], [ -121.401740184904185, 45.692893413307317 ], [ -121.403735156284611, 45.692999532849925 ], [ -121.423962335763676, 45.694073759478975 ], [ -121.42441915705011, 45.694158617036784 ], [ -121.444988028137885, 45.697978299869042 ], [ -121.457881576627102, 45.700370496283576 ], [ -121.462795458169651, 45.701281776554623 ], [ -121.486836779690236, 45.714248907592022 ], [ -121.493117096570913, 45.717634412607978 ], [ -121.49468653920384, 45.718453864562832 ], [ -121.499086815814692, 45.720745531575076 ], [ -121.499097584744263, 45.720747361255249 ], [ -121.507273979949233, 45.722139416087586 ], [ -121.520569143028354, 45.724401512474891 ], [ -121.520586704872443, 45.724404498963821 ], [ -121.523681953541512, 45.724930919308498 ], [ -121.5232076502963, 45.726330119804835 ], [ -121.522530292322031, 45.727965073079716 ], [ -121.522485952648694, 45.728072096016369 ], [ -121.522322277338304, 45.728467128629404 ], [ -121.52205683108528, 45.729107787373742 ], [ -121.521821529762519, 45.730573076290533 ], [ -121.521600789767717, 45.731344186929483 ], [ -121.521510072108455, 45.731944439112638 ], [ -121.521621887053797, 45.732486962008252 ], [ -121.522462761794102, 45.734547125978729 ], [ -121.522762132217338, 45.735488625404983 ], [ -121.522843748039946, 45.737996647187842 ], [ -121.523033382870949, 45.739091598786672 ], [ -121.523682141843281, 45.74018221686979 ], [ -121.524810915936627, 45.741915801770986 ], [ -121.52507369577728, 45.74262262360422 ], [ -121.525104845948519, 45.742929172055803 ], [ -121.525010752613298, 45.744034491587236 ], [ -121.523985350814073, 45.745931129613687 ], [ -121.523789802532463, 45.746106014095844 ], [ -121.523060900402299, 45.747040563854156 ], [ -121.522825984214194, 45.7472054648604 ], [ -121.521507139946621, 45.74764413805277 ], [ -121.521353898598022, 45.747724703667878 ], [ -121.521179940628571, 45.748008950983063 ], [ -121.521375517841648, 45.748152284143849 ], [ -121.521630771634193, 45.748239265769243 ], [ -121.522280917020225, 45.748393283815666 ], [ -121.522935159214697, 45.748607541301986 ], [ -121.523308263332808, 45.748872754315421 ], [ -121.524277324428397, 45.7492712930039 ], [ -121.525232938729616, 45.749736040371253 ], [ -121.525671216203676, 45.750026980754477 ], [ -121.526056474650645, 45.750363190305634 ], [ -121.526447794365382, 45.750814468511471 ], [ -121.526811038888326, 45.751809624725446 ], [ -121.527069341060709, 45.752269712678888 ], [ -121.527319383282972, 45.752496185948928 ], [ -121.527536200748798, 45.752516066578274 ], [ -121.528129440229279, 45.753290131532061 ], [ -121.528222838962805, 45.75362471594098 ], [ -121.528736789092093, 45.754242328087464 ], [ -121.529015637432309, 45.754699756054123 ], [ -121.529367818490826, 45.754940046850315 ], [ -121.530688534040067, 45.755279703268528 ], [ -121.531117079350651, 45.755465177578721 ], [ -121.531276355738299, 45.755707310005889 ], [ -121.531366321857433, 45.756328790540529 ], [ -121.531529674443547, 45.756841324742759 ], [ -121.532411118712659, 45.758510766265736 ], [ -121.532847287151753, 45.759102059581146 ], [ -121.533750173579165, 45.759824249213032 ], [ -121.534456132871597, 45.760331910129956 ], [ -121.535428389280895, 45.760674708239961 ], [ -121.536045829655734, 45.76064196434659 ], [ -121.536585394648753, 45.760528837216903 ], [ -121.536780362554651, 45.760635208429136 ], [ -121.536459642274735, 45.762072251747043 ], [ -121.536546370918103, 45.762778499919271 ], [ -121.536761344942136, 45.763375954583239 ], [ -121.538107432399485, 45.765466224501488 ], [ -121.538387902618226, 45.765950629762976 ], [ -121.538513658822964, 45.766490597568549 ], [ -121.538568146360262, 45.76730179912898 ], [ -121.538438831439521, 45.767926749569433 ], [ -121.538545024319475, 45.768415996541783 ], [ -121.538414030511305, 45.768949773641296 ], [ -121.538349951587676, 45.77012641171028 ], [ -121.538082933818515, 45.770929358398782 ], [ -121.537589567703293, 45.771577187174394 ], [ -121.536773868229332, 45.772171236523448 ], [ -121.536004142473175, 45.772501435458345 ], [ -121.535258888120765, 45.772674205794715 ], [ -121.532472619467597, 45.773097761173553 ], [ -121.531922851639663, 45.773248835101235 ], [ -121.531282251763827, 45.773570417058586 ], [ -121.530900265136481, 45.773891879081503 ], [ -121.530720693685325, 45.774139662364874 ], [ -121.529871208658406, 45.776077666395182 ], [ -121.52958286375852, 45.776587995527265 ], [ -121.529375610699034, 45.776823358994825 ], [ -121.528759884986869, 45.77722080388201 ], [ -121.528355202316646, 45.777378077637266 ], [ -121.527632928820964, 45.777526864352978 ], [ -121.526892242320045, 45.777636269804816 ], [ -121.526081609690138, 45.77767074529428 ], [ -121.52530619130043, 45.777596540564353 ], [ -121.523913062616273, 45.777555121733755 ], [ -121.521711343287265, 45.77765625132443 ], [ -121.519705074631972, 45.777890912916476 ], [ -121.518857262451817, 45.778087977397554 ], [ -121.518012401039755, 45.778339091156894 ], [ -121.517053476170261, 45.778834790298497 ], [ -121.516138668843183, 45.779492330482512 ], [ -121.515341953779753, 45.78033830702482 ], [ -121.514776375476444, 45.781285370567169 ], [ -121.514380047297664, 45.78211435152177 ], [ -121.517391911229154, 45.781989356052065 ], [ -121.527790512825419, 45.782090979029824 ], [ -121.538041234025712, 45.782169337055556 ], [ -121.54828703861368, 45.782242283814448 ], [ -121.553715811988283, 45.782247836114671 ], [ -121.558831083415498, 45.782255032699339 ], [ -121.567894502026419, 45.782267442490898 ], [ -121.568751811380082, 45.782262334485608 ], [ -121.56902631801826, 45.782268973934023 ], [ -121.579443090773594, 45.782385627189221 ], [ -121.589052260206998, 45.782492503622748 ], [ -121.58971083228225, 45.782495052538685 ], [ -121.595063253738786, 45.782501408962858 ], [ -121.600297139598226, 45.782507379331264 ], [ -121.609246005599033, 45.782519039440217 ], [ -121.609111429615368, 45.789599899064534 ], [ -121.608976919301156, 45.796680675732098 ], [ -121.608783464918403, 45.800357569049631 ], [ -121.608781552087407, 45.800798890358159 ], [ -121.608772586684267, 45.802691756053697 ], [ -121.608761616582939, 45.804875490169948 ], [ -121.608729307032846, 45.811555753173558 ], [ -121.608680118898235, 45.818467958485286 ], [ -121.608631571731934, 45.825998004662829 ], [ -121.608450737271454, 45.84006858772289 ], [ -121.608465315787072, 45.854980599771679 ], [ -121.608617824519328, 45.870357092861155 ], [ -121.612501724758047, 45.870414880253747 ], [ -121.612725082113755, 45.884300733445812 ], [ -121.612731402236989, 45.884693489830269 ], [ -121.612559426853295, 45.898777282103943 ], [ -121.61255836811857, 45.898864670929413 ], [ -121.61258872881487, 45.91325383655645 ], [ -121.612589016565394, 45.913398531973733 ], [ -121.612456279634472, 45.927724446904698 ], [ -121.612455667202497, 45.927789424553225 ], [ -121.612381078841011, 45.942206812042137 ], [ -121.612379606357948, 45.942489833007322 ], [ -121.612374474679456, 45.956032865321859 ], [ -121.612402773248903, 45.956683647350687 ], [ -121.612690617849793, 45.963299587379417 ], [ -121.612544118806014, 45.970438693853794 ], [ -121.612544190134088, 45.971159664732674 ], [ -121.61254467736606, 45.977656305743281 ], [ -121.612680251955382, 45.985007741809703 ], [ -121.612675694862943, 45.985636001568075 ], [ -121.612624080346649, 45.992747877121388 ], [ -121.612570560099982, 46.000112335437855 ], [ -121.612567854128741, 46.000488040399411 ], [ -121.612513679294381, 46.007873403469326 ], [ -121.612464976392516, 46.014588673268719 ], [ -121.612461890717952, 46.015013748343335 ], [ -121.612408661857174, 46.022278071554972 ], [ -121.612358942275378, 46.029064959307966 ], [ -121.612359085452269, 46.029545545295264 ], [ -121.612332521102033, 46.03317766482953 ], [ -121.61230595323913, 46.036809784238656 ], [ -121.612268764677083, 46.040451442245399 ], [ -121.612234243358657, 46.043542221706105 ], [ -121.612231571183841, 46.044093100091352 ], [ -121.607166966782017, 46.044057591250407 ], [ -121.60180760541779, 46.044019770679611 ], [ -121.601346275375505, 46.044013860410885 ], [ -121.596656823421966, 46.043959810071392 ], [ -121.59150604898619, 46.043900221383083 ], [ -121.590974630945794, 46.043896951863587 ], [ -121.586341451104644, 46.043866335957624 ], [ -121.58208184502071, 46.043838020501767 ], [ -121.581176855083442, 46.043831984718253 ], [ -121.580674714221857, 46.043834355226977 ], [ -121.5707607493312, 46.043787181131776 ], [ -121.570124447499026, 46.043786922566397 ], [ -121.54968002756155, 46.043838807699302 ], [ -121.549169109553006, 46.043843459262135 ], [ -121.529291272701926, 46.044022224781088 ], [ -121.528905369784439, 46.044023317603205 ], [ -121.522320532086297, 46.044006317330428 ] ] ] } },
{ "type": "Feature", "properties": { "DISTRICT": "Clark County", "region": "Southwestern", "OFFICE": "PUD Commissioner District 3", "JURISDICTION": "County", "RACE": "Clark County PUD Commissioner District 3", "Name_1": "Jane A. Van Dyke", "Party_1": "None_1", "Votes_1": "18,518", "Name_2": "Gordon Matthews", "Party_2": "None_2", "Votes_2": "9,271", "Name_3": "Kevin Roegner", "Party_3": "None_3", "Votes_3": "5,772", "Name_4": "Write-In", "Party_4": "None_4", "Votes_4": "200", "Name_5": null, "Party_5": null, "Votes_5": "0", "Name_6": null, "Party_6": null, "Votes_6": "0", "Name_7": null, "Party_7": null, "Votes_7": "0", "Votes_total": "33,761", "Pct_1": 54.85, "Pct_2": 27.46, "Pct_3": 17.1, "Pct_4": 0.59, "Pct_5": 0.0, "Pct_6": 0.0, "Pct_7": 0.0, "Margin": 27.39 }, "geometry": { "type": "Polygon", "coordinates": [ [ [ -122.254462135649604, 46.056121397614902 ], [ -122.254397171252393, 46.056112910321545 ], [ -122.253986735612727, 46.056140280283124 ], [ -122.253221643579181, 46.056191291496567 ], [ -122.252771600155754, 46.056163283059476 ], [ -122.252018056540152, 46.056007783152957 ], [ -122.251682337423276, 46.055858325893972 ], [ -122.251523455166634, 46.055694475804373 ], [ -122.251581281989189, 46.055407625923181 ], [ -122.251875341519963, 46.055077349512381 ], [ -122.251956881114694, 46.054985762052269 ], [ -122.25196238555084, 46.05495305738944 ], [ -122.251997454057445, 46.054744767108588 ], [ -122.251946407117202, 46.054503159418182 ], [ -122.251800332552435, 46.054289060499933 ], [ -122.25177695214515, 46.054254797437025 ], [ -122.251469970235718, 46.054017805660145 ], [ -122.249906721846131, 46.053673035834663 ], [ -122.249075900816678, 46.053563805393622 ], [ -122.248967100983421, 46.053563288243694 ], [ -122.248710145488531, 46.053562065757887 ], [ -122.248677929533258, 46.053561913024737 ], [ -122.245856467984652, 46.053853153606418 ], [ -122.245843640689102, 46.053042198390663 ], [ -122.245841835761809, 46.052928310407822 ], [ -122.24583921469214, 46.052629037241125 ], [ -122.245838173837697, 46.052514026575764 ], [ -122.245829352073201, 46.051537232355919 ], [ -122.245829048306462, 46.051503887932533 ], [ -122.24582828849735, 46.051420886210003 ], [ -122.24579434269954, 46.047717250321412 ], [ -122.245667731643778, 46.040389831721093 ], [ -122.245546420394732, 46.032700066271595 ], [ -122.245761656484262, 46.028972059675269 ], [ -122.245941894850361, 46.025257620984092 ], [ -122.246653050180427, 46.011338382755504 ], [ -122.246701401109917, 46.004437950012225 ], [ -122.246749745908232, 45.997413863692366 ], [ -122.246722815118446, 45.996812881506266 ], [ -122.246645057623994, 45.982842943918996 ], [ -122.246658775164249, 45.982283932705577 ], [ -122.246540813012757, 45.968285487366536 ], [ -122.246516112815101, 45.96775545929853 ], [ -122.246431650321995, 45.964506198570511 ], [ -122.246335385030818, 45.960791993738241 ], [ -122.245640684834996, 45.95324163483847 ], [ -122.245183894309605, 45.938530939352781 ], [ -122.245183363185035, 45.938421228552563 ], [ -122.245113506660729, 45.924034774714244 ], [ -122.245112888757134, 45.923929755778161 ], [ -122.245027039443031, 45.909526026846564 ], [ -122.24502563488673, 45.909438328264912 ], [ -122.244796704019763, 45.89506260019801 ], [ -122.244795361692738, 45.894947086969744 ], [ -122.244626946681436, 45.880646659199293 ], [ -122.244625415252017, 45.88045571728118 ], [ -122.244514806958136, 45.866561077443173 ], [ -122.249798059293923, 45.866632997272042 ], [ -122.249322829138393, 45.851289734749841 ], [ -122.249280034472051, 45.847232179235974 ], [ -122.249178230535819, 45.837577430530729 ], [ -122.249135704384443, 45.836360897572604 ], [ -122.249163410439152, 45.836069691454924 ], [ -122.249449339685057, 45.833064055899413 ], [ -122.249715416836494, 45.830266798076771 ], [ -122.249994143847076, 45.824776637965165 ], [ -122.250055868978066, 45.823560666525438 ], [ -122.250116647615386, 45.822756226159498 ], [ -122.250010495307492, 45.821282853608551 ], [ -122.249600770739391, 45.815595352474716 ], [ -122.249599961615672, 45.815537208668644 ], [ -122.249529196003721, 45.810451809353722 ], [ -122.249501698562213, 45.808475502021395 ], [ -122.249781844299179, 45.805090029415709 ], [ -122.249676513516533, 45.795487619580939 ], [ -122.249662590357687, 45.794217923640254 ], [ -122.250203591912509, 45.779995390591182 ], [ -122.250157062044565, 45.772526913992692 ], [ -122.250135286511366, 45.769031390156869 ], [ -122.25013625804111, 45.765818713293285 ], [ -122.250036075504866, 45.7653112833572 ], [ -122.250080531084222, 45.761623773595566 ], [ -122.250123105587676, 45.758092063646863 ], [ -122.250200176814673, 45.751696878628557 ], [ -122.250210105168776, 45.750872850559134 ], [ -122.249739482031757, 45.746627702793603 ], [ -122.249639393461209, 45.745724779691322 ], [ -122.24945969991002, 45.744103674187173 ], [ -122.249463508971488, 45.743675141175402 ], [ -122.249513380447226, 45.738064728444677 ], [ -122.24951432189431, 45.73795880573288 ], [ -122.249547603313502, 45.736865332456837 ], [ -122.249658150681938, 45.733232870101133 ], [ -122.249746590586298, 45.730326503532936 ], [ -122.249251719797101, 45.722152040003522 ], [ -122.249222881031841, 45.714976915184693 ], [ -122.249200708161595, 45.707800522838923 ], [ -122.249145706248001, 45.700690067251948 ], [ -122.249094994100489, 45.693531924090074 ], [ -122.249307514881721, 45.686283469530885 ], [ -122.249311179705231, 45.679077523215831 ], [ -122.249228443418232, 45.671894213401707 ], [ -122.249549792148187, 45.668313704872546 ], [ -122.249871099269157, 45.664733196710806 ], [ -122.249639801549506, 45.65753166089403 ], [ -122.249520892825146, 45.653915843306947 ], [ -122.249401995822765, 45.650300029763336 ], [ -122.249350400303953, 45.64672656103307 ], [ -122.249315110710981, 45.643165964951557 ], [ -122.249241387579474, 45.635915231046731 ], [ -122.248951635044719, 45.621437275608336 ], [ -122.248997648347228, 45.614215716458425 ], [ -122.248998567180166, 45.614069784432722 ], [ -122.24899883927236, 45.614027190918371 ], [ -122.248999172332006, 45.613974653379621 ], [ -122.248999430789965, 45.613933483652055 ], [ -122.249043263142312, 45.606998009457158 ], [ -122.248988446078798, 45.59249131991136 ], [ -122.248972545205248, 45.585350299251978 ], [ -122.248967963847704, 45.577996923062862 ], [ -122.24899467224779, 45.572793074627192 ], [ -122.248984855659415, 45.570644179321512 ], [ -122.248972920334779, 45.56700779810263 ], [ -122.24896712871076, 45.565244452451459 ], [ -122.249006796256381, 45.563392129776865 ], [ -122.24900680326104, 45.559544198176575 ], [ -122.249006824229156, 45.558577320581023 ], [ -122.249006826767982, 45.558379143384634 ], [ -122.249006830161733, 45.558302569836755 ], [ -122.249006832931343, 45.558119859847672 ], [ -122.249077961723501, 45.558010555291105 ], [ -122.249217122836086, 45.548652936788862 ], [ -122.266949408412046, 45.54394920774871 ], [ -122.266962072353579, 45.543949115345661 ], [ -122.27017384815332, 45.543925469704838 ], [ -122.29073814659759, 45.543771877177946 ], [ -122.296671878344412, 45.543726855223845 ], [ -122.296682853134897, 45.543728360948975 ], [ -122.311448427110605, 45.54575648199318 ], [ -122.331215218730279, 45.548468325762514 ], [ -122.331477970190562, 45.548504332728079 ], [ -122.335171980699883, 45.552189594264398 ], [ -122.346721527739291, 45.563708345537457 ], [ -122.348781058597254, 45.565761747825995 ], [ -122.352311776867936, 45.569281641496104 ], [ -122.352436417002892, 45.569310822353366 ], [ -122.368344383894367, 45.573034101404225 ], [ -122.37273199896832, 45.574060544167843 ], [ -122.372885140220049, 45.574096367413198 ], [ -122.380089931167191, 45.575781425702736 ], [ -122.380100883787478, 45.57578040571029 ], [ -122.391701108323787, 45.574698070830941 ], [ -122.391711761428567, 45.574694125200807 ], [ -122.394209055810009, 45.573768947266885 ], [ -122.398600946418227, 45.572141732514552 ], [ -122.411340118253122, 45.567420310912745 ], [ -122.411350940912769, 45.567418755157142 ], [ -122.413977709621889, 45.567040811102139 ], [ -122.434411692921188, 45.56409834483361 ], [ -122.438923721111522, 45.563448088320328 ], [ -122.453785263581977, 45.567336835547586 ], [ -122.458514876233494, 45.569981157460141 ], [ -122.472470777007047, 45.57778164631646 ], [ -122.473563284487753, 45.578392182385009 ], [ -122.475764953362244, 45.578968877715283 ], [ -122.483007520228142, 45.580865793605703 ], [ -122.492869175190179, 45.583447610278533 ], [ -122.492879817972963, 45.583449709176818 ], [ -122.495312468206677, 45.583929314254895 ], [ -122.503582073905946, 45.585559327458398 ], [ -122.512767130387999, 45.587368853912594 ], [ -122.523527857147698, 45.589487690652696 ], [ -122.524592370605887, 45.589697257742529 ], [ -122.544081219923484, 45.595371783663445 ], [ -122.547870723632911, 45.596474640465367 ], [ -122.547881309891324, 45.596476877913929 ], [ -122.553467702075039, 45.597657556855026 ], [ -122.571820451670121, 45.601534292666813 ], [ -122.582053039605796, 45.603694086235322 ], [ -122.59009453031986, 45.605390755538409 ], [ -122.598191135862209, 45.606685342735048 ], [ -122.601831333225562, 45.607267142361763 ], [ -122.607122725177305, 45.608112742039815 ], [ -122.607569366164498, 45.60812770678762 ], [ -122.613626391026443, 45.60833079422752 ], [ -122.619440390866188, 45.608525384666422 ], [ -122.633919935846649, 45.609008748495867 ], [ -122.641036592717711, 45.609245629387978 ], [ -122.642040136143294, 45.609278996390863 ], [ -122.642050482476421, 45.609281731677214 ], [ -122.653589088660937, 45.612333267226688 ], [ -122.661393435602392, 45.614396328984483 ], [ -122.673257614872085, 45.617531338879871 ], [ -122.675057622764797, 45.618061843589963 ], [ -122.675357712438895, 45.618150763190606 ], [ -122.677157800959648, 45.618681266444206 ], [ -122.682412691371979, 45.620871411687915 ], [ -122.689602422412193, 45.623867177310821 ], [ -122.691166486312824, 45.624686596662102 ], [ -122.692959084078211, 45.625623366449148 ], [ -122.693139824647417, 45.62571781956224 ], [ -122.694302575407718, 45.626325437045139 ], [ -122.699826456135582, 45.629503980663927 ], [ -122.700691308180566, 45.630001575540987 ], [ -122.709898070814134, 45.635297898621559 ], [ -122.714403498940158, 45.637888972774249 ], [ -122.727759001103493, 45.641482175801734 ], [ -122.731358959093114, 45.642450371187614 ], [ -122.738153988228206, 45.644277508564365 ], [ -122.743700698882591, 45.647066461517241 ], [ -122.755754812219678, 45.653125885159341 ], [ -122.763988407291166, 45.657263267070775 ], [ -122.766683777184625, 45.663225934734797 ], [ -122.767760035477451, 45.665606735450105 ], [ -122.774544639227088, 45.680610173068878 ], [ -122.774121189443264, 45.684540456355393 ], [ -122.773263038256957, 45.692500173402756 ], [ -122.772322403230334, 45.7012210897663 ], [ -122.770242979735073, 45.706881440801453 ], [ -122.764853469941158, 45.721544209769966 ], [ -122.764270724043641, 45.723129685103444 ], [ -122.760571689697926, 45.73318917565495 ], [ -122.760100179615165, 45.734470865583781 ], [ -122.76097323087761, 45.750091100886095 ], [ -122.761489834719157, 45.759331774354678 ], [ -122.762917576723268, 45.763075211233868 ], [ -122.764800673571727, 45.768011427038552 ], [ -122.768988049049412, 45.778985517411165 ], [ -122.769629058669565, 45.780665053241272 ], [ -122.782973707841649, 45.795765394510582 ], [ -122.784161287496119, 45.797108447753416 ], [ -122.79386184987672, 45.80807824877494 ], [ -122.795658231503268, 45.810109373849542 ], [ -122.79588529757298, 45.822396572846664 ], [ -122.79593630797406, 45.825164886924654 ], [ -122.789646816083533, 45.837021585155071 ], [ -122.785797489808445, 45.844276064190595 ], [ -122.785701523036309, 45.847030146546366 ], [ -122.785575880787192, 45.850635282302378 ], [ -122.784013152857852, 45.850795646562666 ], [ -122.78217481196296, 45.850984306611153 ], [ -122.780547208763053, 45.851213889600466 ], [ -122.779680913691095, 45.851507109906727 ], [ -122.779072041364202, 45.851713150586257 ], [ -122.777815691428401, 45.852566871878736 ], [ -122.776279913066247, 45.854070402004474 ], [ -122.774529464410335, 45.855893045918606 ], [ -122.773071757651024, 45.85729473773074 ], [ -122.77201211984476, 45.857972798755462 ], [ -122.770640269096361, 45.858412773671631 ], [ -122.76840213512483, 45.859269315873242 ], [ -122.766011687057997, 45.859956528361472 ], [ -122.763207195329088, 45.86096186252459 ], [ -122.761123441639796, 45.861590720792577 ], [ -122.758290183464396, 45.862400323639484 ], [ -122.754327117049712, 45.863143620734149 ], [ -122.751368110766393, 45.863955228590406 ], [ -122.751252142375179, 45.863995049671431 ], [ -122.750767130936978, 45.864161585389482 ], [ -122.750732592288784, 45.864173445308779 ], [ -122.74965259557662, 45.864544262102093 ], [ -122.748777306190973, 45.865318030122786 ], [ -122.748742979079523, 45.865348375796088 ], [ -122.74869946584721, 45.865412269849571 ], [ -122.748179835718091, 45.866175237581821 ], [ -122.748176791424299, 45.866188301989197 ], [ -122.748052839970967, 45.866719947433467 ], [ -122.74777032230979, 45.867206683111725 ], [ -122.746675015787943, 45.868177712023893 ], [ -122.744233376671502, 45.869744759186894 ], [ -122.743718083322889, 45.869917192968387 ], [ -122.742590311542799, 45.870021466894102 ], [ -122.741656449260205, 45.870210353768336 ], [ -122.739460507869651, 45.870483837181631 ], [ -122.738203633703023, 45.870479959189844 ], [ -122.734944414618127, 45.870391727078555 ], [ -122.733528820446395, 45.870153800119652 ], [ -122.732566652856988, 45.869863159043675 ], [ -122.727567481089395, 45.86811726416321 ], [ -122.725765638808724, 45.867379747679529 ], [ -122.724869967751843, 45.866985534852958 ], [ -122.724803104548499, 45.866956104844874 ], [ -122.723990415145693, 45.866766338509066 ], [ -122.723693118859813, 45.866731160121212 ], [ -122.723051316018285, 45.866655212529665 ], [ -122.721781368404223, 45.866713301743687 ], [ -122.72151179130482, 45.866747577752193 ], [ -122.719752050940258, 45.867613086081775 ], [ -122.719327886579762, 45.868294241343413 ], [ -122.719276867712452, 45.869074886639453 ], [ -122.719899719135896, 45.871375998465531 ], [ -122.720712147517446, 45.872239795423845 ], [ -122.72180245926782, 45.872958559493192 ], [ -122.722624553823437, 45.873501015347266 ], [ -122.725809893023268, 45.875183272123998 ], [ -122.728318977379175, 45.876793966979278 ], [ -122.729331952131773, 45.877659262061506 ], [ -122.730761120373316, 45.879391798597901 ], [ -122.731487498855984, 45.880622392218143 ], [ -122.73355530827196, 45.883885495110476 ], [ -122.734021482140207, 45.884919121091436 ], [ -122.734468157166631, 45.886730364185333 ], [ -122.734454195568773, 45.887839495537349 ], [ -122.734329691425913, 45.888934189226326 ], [ -122.734082636560416, 45.889816718551216 ], [ -122.732814679521979, 45.892069409596616 ], [ -122.732503331100645, 45.892917459488032 ], [ -122.732372874030332, 45.894157476010704 ], [ -122.732557331737567, 45.894637874992796 ], [ -122.733143970021274, 45.895249302433903 ], [ -122.733578503823907, 45.895403941523753 ], [ -122.733860633437658, 45.895373805136586 ], [ -122.734709085931868, 45.895283169811449 ], [ -122.735083078174981, 45.895156916348832 ], [ -122.736914786147153, 45.894538521743783 ], [ -122.738507376102703, 45.894000823480873 ], [ -122.739662886418003, 45.893480585831632 ], [ -122.740930285333377, 45.892909587581862 ], [ -122.742384304278303, 45.892628690922763 ], [ -122.743729169183084, 45.892561894437847 ], [ -122.745019342471593, 45.892695532874178 ], [ -122.746047952437337, 45.892966240570431 ], [ -122.747048025768223, 45.893404852406071 ], [ -122.747920156423945, 45.893980265219277 ], [ -122.748764719376808, 45.894746037528023 ], [ -122.74929691703349, 45.895656293938764 ], [ -122.749439000107216, 45.896056581581199 ], [ -122.749513176145186, 45.896525764621671 ], [ -122.74947237059996, 45.896921464733708 ], [ -122.749358814723251, 45.897628263186803 ], [ -122.748710822869683, 45.89852608603038 ], [ -122.74823361551347, 45.898963913164003 ], [ -122.747160198779014, 45.89971636813474 ], [ -122.746294442018396, 45.900069658395026 ], [ -122.745094314687904, 45.90034179967224 ], [ -122.744429510923567, 45.900492347781714 ], [ -122.743428520164997, 45.900515993429586 ], [ -122.742351794653942, 45.900393593251906 ], [ -122.740605758049128, 45.900567513875323 ], [ -122.740167075232605, 45.900611207785687 ], [ -122.738825760111482, 45.901132549478987 ], [ -122.738784291078034, 45.901159367988861 ], [ -122.738187395793645, 45.901545417591194 ], [ -122.737660854533928, 45.90188595613234 ], [ -122.73737179165353, 45.902218312291865 ], [ -122.737274769533641, 45.902538304479968 ], [ -122.737296379699245, 45.906333486810048 ], [ -122.737383433459158, 45.907050178038823 ], [ -122.737752039420087, 45.907997252331917 ], [ -122.738829895935666, 45.909479882453979 ], [ -122.738928336352956, 45.909615282820639 ], [ -122.739206522210708, 45.910111735557535 ], [ -122.73944327193955, 45.910534234844114 ], [ -122.739416440576619, 45.912588857471732 ], [ -122.740128403598618, 45.914051902658521 ], [ -122.740136996933927, 45.914552760945348 ], [ -122.740013539763439, 45.914802801494567 ], [ -122.739286737258524, 45.915197144475144 ], [ -122.738931594133874, 45.915259240679752 ], [ -122.737815229811346, 45.915159582114079 ], [ -122.733570305421921, 45.914188363858955 ], [ -122.732641589143569, 45.914063019429612 ], [ -122.731623003216569, 45.914047620491978 ], [ -122.730180322618295, 45.914308173528568 ], [ -122.72735665055211, 45.915067944730431 ], [ -122.726675445704217, 45.915327757278675 ], [ -122.725933113653127, 45.915729204349162 ], [ -122.725022332821084, 45.916436587720668 ], [ -122.723821586163325, 45.917653083739815 ], [ -122.723218579048179, 45.918684121418245 ], [ -122.722007312972281, 45.921114902150805 ], [ -122.721202145203691, 45.921995329582536 ], [ -122.72043420669111, 45.922625200642081 ], [ -122.719953743760769, 45.923019267331412 ], [ -122.719725800277132, 45.923206222043035 ], [ -122.719062679112682, 45.924162451461555 ], [ -122.718734833044778, 45.924952291390007 ], [ -122.718584260240306, 45.92599534857505 ], [ -122.718767505296157, 45.927031138122921 ], [ -122.719921870786195, 45.928750024590563 ], [ -122.72064885980852, 45.930467028500878 ], [ -122.720934352883972, 45.931141268644865 ], [ -122.720899060748224, 45.931825395710128 ], [ -122.720498276389378, 45.932610693280935 ], [ -122.719935136080665, 45.933075266493866 ], [ -122.719300690320878, 45.933331861542158 ], [ -122.717327468194839, 45.933539119963669 ], [ -122.716675233852754, 45.933353513247098 ], [ -122.714029004436142, 45.931980692169574 ], [ -122.712557472092001, 45.931365283486763 ], [ -122.711708557094113, 45.931176997703929 ], [ -122.709450897842302, 45.930881557221163 ], [ -122.706438260409968, 45.930480268676945 ], [ -122.704492543134648, 45.930809217591644 ], [ -122.701014658371577, 45.930998729187685 ], [ -122.699108612717055, 45.930982154048223 ], [ -122.696971347532326, 45.929160190611967 ], [ -122.693233028126215, 45.928030105340326 ], [ -122.690871099273167, 45.928168436983782 ], [ -122.689260893554632, 45.929111583163746 ], [ -122.687997493942959, 45.932109765079971 ], [ -122.688618305243637, 45.934384199498943 ], [ -122.688695660845156, 45.934416886436246 ], [ -122.68886491621943, 45.934488397931958 ], [ -122.692895371267625, 45.936191253984703 ], [ -122.693485313200284, 45.936734900956338 ], [ -122.694142783499842, 45.93719181398572 ], [ -122.694560920488954, 45.937482393311839 ], [ -122.694881627751258, 45.93770526684991 ], [ -122.694581580419168, 45.938674502913941 ], [ -122.694686475565931, 45.939713932736574 ], [ -122.694847362463705, 45.940592636097861 ], [ -122.694766771223001, 45.940751102351186 ], [ -122.694644149949838, 45.94099221648198 ], [ -122.694570248391273, 45.941137527183116 ], [ -122.694043873957, 45.941348340856166 ], [ -122.693270830892843, 45.941448026068123 ], [ -122.693237976846589, 45.941452262867571 ], [ -122.693088222581494, 45.941458013472314 ], [ -122.69170251704773, 45.941511213958037 ], [ -122.690877445682148, 45.941576271702814 ], [ -122.689306929345236, 45.941404105060435 ], [ -122.687500924522197, 45.940859929335502 ], [ -122.685988306677217, 45.940406305091976 ], [ -122.684305852355578, 45.939901712744081 ], [ -122.683533346233176, 45.939670014315908 ], [ -122.68152161187561, 45.938815350551877 ], [ -122.681059440173996, 45.938712983259144 ], [ -122.680720770029026, 45.938637969247793 ], [ -122.680456921847082, 45.938556770294653 ], [ -122.679327195112535, 45.938391794648894 ], [ -122.677783002706846, 45.938166274041258 ], [ -122.677668600875521, 45.938149565671551 ], [ -122.67709193394019, 45.938065340945421 ], [ -122.67709176783832, 45.938065316711423 ], [ -122.676944308019273, 45.938043779634661 ], [ -122.676806251948776, 45.937998945801773 ], [ -122.674910819257221, 45.93738336401303 ], [ -122.674511138314799, 45.937329619962711 ], [ -122.671656564486327, 45.937329583280018 ], [ -122.670228962460598, 45.937221867789702 ], [ -122.6690923471362, 45.937013929625323 ], [ -122.668239917515365, 45.936734666526924 ], [ -122.665035248904289, 45.93493008291842 ], [ -122.662238231840888, 45.933489829454984 ], [ -122.661304931432127, 45.932849967739322 ], [ -122.660217162601, 45.931580686031964 ], [ -122.659970487708151, 45.931005460654958 ], [ -122.659206104472872, 45.929358542014874 ], [ -122.658125306660168, 45.928263996596087 ], [ -122.657239432331579, 45.927928887386216 ], [ -122.656296844524277, 45.927952007534259 ], [ -122.655690513955861, 45.928128175379783 ], [ -122.654559277483926, 45.928955930842264 ], [ -122.654365091366813, 45.929218520727481 ], [ -122.653960026169003, 45.930721354890721 ], [ -122.653558083146933, 45.931601557396434 ], [ -122.652349867354928, 45.933378738980053 ], [ -122.651906455369797, 45.933702308496372 ], [ -122.649171531023057, 45.935149631499847 ], [ -122.64749207292094, 45.93593989181101 ], [ -122.647098443243607, 45.936230590820976 ], [ -122.646802666072176, 45.936564957878353 ], [ -122.646294053714513, 45.937139903254035 ], [ -122.646190896965635, 45.937256519170361 ], [ -122.645422832592573, 45.937526954192158 ], [ -122.645112637674941, 45.937636174488155 ], [ -122.642209423303882, 45.938103281498122 ], [ -122.64174489046168, 45.938088766885521 ], [ -122.639835868279022, 45.937630992024459 ], [ -122.639230644053612, 45.93751197695569 ], [ -122.637943756452955, 45.937305008215475 ], [ -122.63667612792328, 45.937264651690661 ], [ -122.636217586203671, 45.937201664151523 ], [ -122.634899170342578, 45.936662962815774 ], [ -122.632995084663534, 45.936228244454782 ], [ -122.631158444149705, 45.93591087076905 ], [ -122.629559880564116, 45.935750644822235 ], [ -122.627735962955043, 45.935760279786038 ], [ -122.626919306091409, 45.93582541757624 ], [ -122.626784552041556, 45.935836166864114 ], [ -122.626062266936373, 45.935893772565194 ], [ -122.620803156857249, 45.936750498391326 ], [ -122.620601217027911, 45.936742787611486 ], [ -122.620071495798072, 45.936722557350407 ], [ -122.620035364309203, 45.936721174884987 ], [ -122.618794869834673, 45.936465635976454 ], [ -122.617002460727221, 45.936018352082897 ], [ -122.616069069308622, 45.935730914890271 ], [ -122.615003773119142, 45.935877307240574 ], [ -122.613819556468954, 45.936359286321554 ], [ -122.611450179359025, 45.93730023501071 ], [ -122.609716181786609, 45.938381592599434 ], [ -122.608620215215254, 45.938972869588575 ], [ -122.607479867228449, 45.939509600855388 ], [ -122.60629208726526, 45.940194490908716 ], [ -122.605107084798618, 45.940952833392288 ], [ -122.604190487733973, 45.941816616548167 ], [ -122.60316486183406, 45.942961112886913 ], [ -122.602356690344948, 45.943803829741441 ], [ -122.601329170228496, 45.944512672444198 ], [ -122.600515489669917, 45.944780698069373 ], [ -122.599462261867728, 45.945144262955168 ], [ -122.598321696662623, 45.945680901904232 ], [ -122.597325205732517, 45.946000194785832 ], [ -122.595924161260555, 45.946461647475402 ], [ -122.592852011253655, 45.947549295025993 ], [ -122.5908701968375, 45.948174947394619 ], [ -122.589004640021685, 45.949092987867658 ], [ -122.588112445898602, 45.950126015489097 ], [ -122.587115038758014, 45.951202025368374 ], [ -122.586467709375043, 45.951949690095717 ], [ -122.585504091161894, 45.952736370969816 ], [ -122.584181303852361, 45.953473331985762 ], [ -122.583951895551024, 45.953601139279385 ], [ -122.58335357441905, 45.953833322552043 ], [ -122.583331736955358, 45.953841795628705 ], [ -122.58106920447625, 45.954541133708744 ], [ -122.58013620210167, 45.954725971385727 ], [ -122.579438430465842, 45.954787143366325 ], [ -122.578558932100634, 45.95472271903877 ], [ -122.577429475695638, 45.95449655745243 ], [ -122.576353764475982, 45.954156073874891 ], [ -122.573657247244228, 45.953187825375736 ], [ -122.573149251316281, 45.953005407621511 ], [ -122.572339786689312, 45.952794481234619 ], [ -122.572200012302346, 45.952758058891888 ], [ -122.571559704117291, 45.952543063583946 ], [ -122.570504451688549, 45.952562366940718 ], [ -122.569659067314845, 45.952540976857016 ], [ -122.568281510185003, 45.952382197095716 ], [ -122.566795114676381, 45.952151569704043 ], [ -122.566638862323813, 45.952125273615273 ], [ -122.565413822206267, 45.951919085207962 ], [ -122.564457794971091, 45.951752392990599 ], [ -122.564061162935317, 45.951747649852997 ], [ -122.563242997330406, 45.951737864958027 ], [ -122.562312417366073, 45.95181137417751 ], [ -122.562032330501182, 45.951833499425149 ], [ -122.561251140930096, 45.951985027774164 ], [ -122.560566215224142, 45.952117875862236 ], [ -122.559366558293249, 45.952507904777626 ], [ -122.55909160722652, 45.952648538529026 ], [ -122.558350042633222, 45.953010488301786 ], [ -122.557382336989932, 45.954266482156797 ], [ -122.557024325229449, 45.954894504250817 ], [ -122.556892323583767, 45.955774648404301 ], [ -122.555748708494377, 45.956884907536057 ], [ -122.555372705215788, 45.957888753240574 ], [ -122.555351820619336, 45.958467132672531 ], [ -122.553364193566551, 45.959676793425068 ], [ -122.552445210056874, 45.960298380509947 ], [ -122.55063802488462, 45.961355171107023 ], [ -122.549160838506594, 45.962832957628102 ], [ -122.548464718970123, 45.964683301140916 ], [ -122.54698989062021, 45.966740403044305 ], [ -122.546000220999872, 45.967376406020549 ], [ -122.545351163176349, 45.967822303911724 ], [ -122.544200639271196, 45.968317358516543 ], [ -122.542625307607835, 45.96882007469214 ], [ -122.54062845756188, 45.969419299427422 ], [ -122.538255834052592, 45.970203104277246 ], [ -122.537194001032972, 45.970800230185041 ], [ -122.536257388408771, 45.971335810258545 ], [ -122.534796902204562, 45.971639712909372 ], [ -122.534182957708765, 45.971926450501563 ], [ -122.533075791722936, 45.972546739105944 ], [ -122.532409490988329, 45.973613253427359 ], [ -122.532750121261344, 45.974777939095752 ], [ -122.533192048607845, 45.975807416970831 ], [ -122.5341049931382, 45.977106031761089 ], [ -122.534457535216191, 45.977887680387695 ], [ -122.534163225010559, 45.978681042395536 ], [ -122.533501666136075, 45.979581037781834 ], [ -122.533416167677927, 45.979626672022512 ], [ -122.533141308602168, 45.979773382233319 ], [ -122.532438501458529, 45.980148498407324 ], [ -122.530718942162125, 45.980787015479741 ], [ -122.529418335017439, 45.981355211634856 ], [ -122.528413530411299, 45.981823532653117 ], [ -122.527826264335204, 45.981984060775844 ], [ -122.526539916473411, 45.981602975443344 ], [ -122.526286655462712, 45.981073554793504 ], [ -122.525056564582613, 45.980577303205934 ], [ -122.523289501117759, 45.980505181933808 ], [ -122.522281776184599, 45.981427240179755 ], [ -122.521587485103794, 45.982144229260172 ], [ -122.520408957725692, 45.983105757350629 ], [ -122.518777409838393, 45.983831437769361 ], [ -122.515780736911864, 45.983855236636252 ], [ -122.514005130676722, 45.983869084564269 ], [ -122.511312168890086, 45.983742113321988 ], [ -122.509863570766541, 45.984242106669448 ], [ -122.50874784762965, 45.98454351054805 ], [ -122.507381323826792, 45.985545900156289 ], [ -122.507197683455374, 45.986028874603662 ], [ -122.507066481158375, 45.986539134857118 ], [ -122.507057452612756, 45.986574240577191 ], [ -122.506814369565248, 45.986656149688812 ], [ -122.50670348900897, 45.986693512005253 ], [ -122.50617537111053, 45.986871472597507 ], [ -122.50480821111384, 45.986110237396687 ], [ -122.50405363093428, 45.984656409167542 ], [ -122.504358463779269, 45.983687695840757 ], [ -122.504253225767002, 45.982292642698162 ], [ -122.503558049308481, 45.980974957727909 ], [ -122.502570228323137, 45.980118058538316 ], [ -122.500532423343103, 45.980198578939564 ], [ -122.49907981523431, 45.980356487341879 ], [ -122.497171301453278, 45.980717399203364 ], [ -122.496585879678804, 45.981572483678008 ], [ -122.496455715898932, 45.982379653152151 ], [ -122.495903615988993, 45.983274020412537 ], [ -122.495617733359154, 45.984183093876091 ], [ -122.496021927023222, 45.985361574853179 ], [ -122.496493644239578, 45.986642604784976 ], [ -122.496717752412792, 45.987050127099643 ], [ -122.497363084562338, 45.987981016380232 ], [ -122.496447823321702, 45.989365721728866 ], [ -122.493014160255328, 45.989318195231924 ], [ -122.488379171434332, 45.988307537328595 ], [ -122.487246026214294, 45.985007039001623 ], [ -122.486822516690793, 45.984419946783973 ], [ -122.486124541682415, 45.9842527201858 ], [ -122.4853276574717, 45.984019921497769 ], [ -122.483816764716295, 45.984224956302334 ], [ -122.481939600708102, 45.984979026099282 ], [ -122.481101903996247, 45.986070917729606 ], [ -122.480752468258927, 45.986804887391955 ], [ -122.480535206004802, 45.987400508171191 ], [ -122.477292427569267, 45.988146433686047 ], [ -122.475874309830459, 45.988200323632306 ], [ -122.474184848037595, 45.987676653323433 ], [ -122.473149114940085, 45.986990634855978 ], [ -122.471287444408645, 45.986447004015027 ], [ -122.470420986416414, 45.986239463998551 ], [ -122.467441666690064, 45.986162948693092 ], [ -122.464088381794468, 45.985897401285129 ], [ -122.463917318277154, 45.985883851840363 ], [ -122.459726691137845, 45.985551846572804 ], [ -122.454559409929942, 45.984873271342387 ], [ -122.452528020004195, 45.984459764496762 ], [ -122.450887837545295, 45.984091732665554 ], [ -122.449078308626383, 45.983552515523954 ], [ -122.446658404983566, 45.982442226820567 ], [ -122.446469415717146, 45.982273451106146 ], [ -122.446299894451712, 45.982122049851498 ], [ -122.446166699840418, 45.98200309193637 ], [ -122.445433707655141, 45.980969658950265 ], [ -122.444929363028578, 45.980110292803644 ], [ -122.444213517533484, 45.979400259233593 ], [ -122.443604958030079, 45.978751190393758 ], [ -122.442876360521467, 45.978104180442664 ], [ -122.441985301269781, 45.97753323840184 ], [ -122.441200036629155, 45.976981412403788 ], [ -122.440539271230918, 45.976553061717425 ], [ -122.439955388712193, 45.976175738708356 ], [ -122.439406324454552, 45.975933908187457 ], [ -122.438738583319392, 45.975774145772426 ], [ -122.437674310997053, 45.97538261403033 ], [ -122.435800058447626, 45.975116199657037 ], [ -122.433154406856175, 45.975177029915272 ], [ -122.431749531784178, 45.975433156144675 ], [ -122.428550414355144, 45.976464611201678 ], [ -122.426457286886802, 45.977176079122756 ], [ -122.424406974471708, 45.977060803160384 ], [ -122.421854289572607, 45.976703196315647 ], [ -122.421078852868689, 45.976721087370152 ], [ -122.420296441384096, 45.976623770835047 ], [ -122.419271234025757, 45.976220788827348 ], [ -122.418946233383764, 45.975700475052506 ], [ -122.41876460116508, 45.974790312550951 ], [ -122.417850384957006, 45.973721039106024 ], [ -122.41705816560625, 45.973310417024031 ], [ -122.415547132986063, 45.972971137787098 ], [ -122.414537086421007, 45.972396539480528 ], [ -122.413191942116185, 45.971945944864764 ], [ -122.411190633723024, 45.971796217798165 ], [ -122.409463971965096, 45.971298908423741 ], [ -122.407088878945117, 45.97173344688224 ], [ -122.405497452323374, 45.971927918045694 ], [ -122.404256431496322, 45.97175108044555 ], [ -122.403167332715199, 45.971428225160402 ], [ -122.402157800717802, 45.971358087586609 ], [ -122.399807471460591, 45.971535597699237 ], [ -122.39850069577632, 45.971288004041668 ], [ -122.397076093648792, 45.97081746530624 ], [ -122.393216823332978, 45.969216005460929 ], [ -122.392250865880584, 45.968695732085614 ], [ -122.390417113431297, 45.967446910951594 ], [ -122.388534148987972, 45.966036344215411 ], [ -122.385226896052984, 45.965330477971179 ], [ -122.382662159432002, 45.964382061804876 ], [ -122.381492108324551, 45.963639478558221 ], [ -122.379643566898153, 45.961624471864752 ], [ -122.377196827403566, 45.960753118185394 ], [ -122.375546554256758, 45.960345521105559 ], [ -122.374184070975403, 45.960298492378847 ], [ -122.371605302120287, 45.961149699113072 ], [ -122.370356823441611, 45.961332691501255 ], [ -122.369335166722607, 45.961361737205223 ], [ -122.368626334717177, 45.961799973492973 ], [ -122.365913802585084, 45.962885376957239 ], [ -122.365374094807322, 45.962976737864594 ], [ -122.363662214499158, 45.962950949794646 ], [ -122.36329476080013, 45.962670000373919 ], [ -122.363194993736982, 45.962395471951623 ], [ -122.363172908693528, 45.960582502055949 ], [ -122.362564448164051, 45.959454840734864 ], [ -122.361533986625929, 45.958409306836018 ], [ -122.360935748139383, 45.958048321509594 ], [ -122.359619129590016, 45.957494265041433 ], [ -122.358176258317741, 45.957044121343749 ], [ -122.356851784350624, 45.956954922779779 ], [ -122.356085372653467, 45.957086500400706 ], [ -122.355207153237217, 45.957401415800078 ], [ -122.354982004925915, 45.957578358801136 ], [ -122.354310597255719, 45.958106002647767 ], [ -122.353980593087556, 45.958277226628745 ], [ -122.352823973789626, 45.958877332728697 ], [ -122.352590474475917, 45.958998479312143 ], [ -122.352189902554215, 45.959016181068129 ], [ -122.35212964434055, 45.959006258944996 ], [ -122.351806265014261, 45.958953010210031 ], [ -122.351009687461925, 45.958656855160655 ], [ -122.350616128531314, 45.958649255286211 ], [ -122.350006308438253, 45.958780227821308 ], [ -122.349033693055532, 45.95898911075799 ], [ -122.34876688791708, 45.959037244310885 ], [ -122.34687278807084, 45.959378938586568 ], [ -122.345117611781831, 45.959349604269413 ], [ -122.344558201965327, 45.959439651219881 ], [ -122.344324551392077, 45.959518646810302 ], [ -122.343663224462873, 45.959742221130526 ], [ -122.342843140638621, 45.960019462796112 ], [ -122.338863193724748, 45.961884491297369 ], [ -122.338800302982378, 45.961913959407362 ], [ -122.337637216670899, 45.962369395141742 ], [ -122.337281898255441, 45.962508522012499 ], [ -122.337115618073597, 45.962573630601732 ], [ -122.336719464401142, 45.962728744468691 ], [ -122.336424181341826, 45.962844364789959 ], [ -122.335438230134173, 45.963346001096781 ], [ -122.334180922121178, 45.963985671339508 ], [ -122.333681172311358, 45.964340875461801 ], [ -122.332663144148327, 45.965064430952417 ], [ -122.332153238010918, 45.965698271988437 ], [ -122.331783277194987, 45.966636708236891 ], [ -122.331307484788312, 45.967439183476728 ], [ -122.330254997452187, 45.968999347982312 ], [ -122.3301827881251, 45.969134404484066 ], [ -122.328373529760313, 45.971124285073586 ], [ -122.326969419321685, 45.973176718387158 ], [ -122.326418117077949, 45.974108103944417 ], [ -122.32589537069714, 45.975427275425027 ], [ -122.32524942540519, 45.976116084791634 ], [ -122.325077056715571, 45.97637550491762 ], [ -122.324941689860466, 45.976919933016738 ], [ -122.324983136713499, 45.977695709003939 ], [ -122.325521948711042, 45.979230303489487 ], [ -122.325688011602679, 45.980321245950407 ], [ -122.325600066183327, 45.981998882104477 ], [ -122.325522452597056, 45.982683151539057 ], [ -122.325363222922931, 45.983220257123214 ], [ -122.325196278887304, 45.983406569849059 ], [ -122.324863085530708, 45.983563141526169 ], [ -122.324230027933936, 45.983695060432787 ], [ -122.321508187798017, 45.984796332347045 ], [ -122.31993360901555, 45.985133831540395 ], [ -122.31960051936376, 45.985294171032095 ], [ -122.319294928953184, 45.985572346948608 ], [ -122.318843377819647, 45.986909787377662 ], [ -122.318234552477762, 45.988253017585315 ], [ -122.3165844773646, 45.990478531479653 ], [ -122.316081957090574, 45.992301526221432 ], [ -122.315821431639961, 45.993111445906919 ], [ -122.315809111257295, 45.993430054801877 ], [ -122.315803157514495, 45.993584114000534 ], [ -122.315800188801987, 45.993660914425476 ], [ -122.316086799803827, 45.994116787309245 ], [ -122.317317774697329, 45.994805411059176 ], [ -122.318804078540083, 45.995716245765607 ], [ -122.320148829838445, 45.996273045920397 ], [ -122.321014282543317, 45.996528295173803 ], [ -122.321941509427148, 45.996822684896621 ], [ -122.322361551898169, 45.996956043344277 ], [ -122.323577809973898, 45.997342179679976 ], [ -122.324359114029491, 45.997669886979551 ], [ -122.325349233558029, 45.998329752122991 ], [ -122.325758515839979, 45.998802328079194 ], [ -122.326053570417173, 45.999390557534511 ], [ -122.32607419058921, 45.999892722355575 ], [ -122.326304834125921, 46.000792832053463 ], [ -122.326228930769801, 46.001588331853661 ], [ -122.325900969021873, 46.002379505098482 ], [ -122.324931704506994, 46.004187442006966 ], [ -122.324318211413782, 46.005330784600773 ], [ -122.324105066622309, 46.006143499065551 ], [ -122.324314389689533, 46.007113026079359 ], [ -122.32455150331036, 46.007381938566141 ], [ -122.324666172788795, 46.007511980670913 ], [ -122.324686589591082, 46.007523188721535 ], [ -122.325158275920415, 46.007782140493973 ], [ -122.325295682028937, 46.007857574457901 ], [ -122.325969204624386, 46.008020445819724 ], [ -122.326918768526824, 46.008250056019435 ], [ -122.32695315295139, 46.008253330258015 ], [ -122.327143114397103, 46.008271417972182 ], [ -122.327890237585038, 46.00834255573217 ], [ -122.328496104867938, 46.008331641478108 ], [ -122.328677081246028, 46.0083284733197 ], [ -122.329029654276695, 46.008513417454743 ], [ -122.329330195971963, 46.008909208921217 ], [ -122.329366857133365, 46.009182591489115 ], [ -122.329319924871484, 46.009901341585568 ], [ -122.328988620767959, 46.010473984632782 ], [ -122.328543793575307, 46.010965593398545 ], [ -122.327378000293024, 46.011879366419969 ], [ -122.32659507806531, 46.012249806414211 ], [ -122.325715991826129, 46.012451531521599 ], [ -122.324445066521832, 46.012471830125179 ], [ -122.323280461509853, 46.012611786722815 ], [ -122.322662761644068, 46.012623463554206 ], [ -122.321913131427479, 46.012455671680186 ], [ -122.320997297301815, 46.012030709445071 ], [ -122.3206822359722, 46.011884513239181 ], [ -122.320349791873795, 46.011730248696573 ], [ -122.320009309973614, 46.011654406920194 ], [ -122.319723155725711, 46.01159066249997 ], [ -122.319626188401372, 46.011602420071071 ], [ -122.31932713006637, 46.011638670986514 ], [ -122.318089537218356, 46.01207102748193 ], [ -122.317299189445805, 46.012099821746396 ], [ -122.31690734284129, 46.012393445300681 ], [ -122.316742946556531, 46.012779423005831 ], [ -122.315674737627063, 46.013930944650298 ], [ -122.315211047628679, 46.014672307390754 ], [ -122.313908519957494, 46.018149544065054 ], [ -122.313690391285988, 46.019532948092042 ], [ -122.314331948358657, 46.022149036997938 ], [ -122.314094820360097, 46.022957230923168 ], [ -122.312863396818216, 46.025136709110917 ], [ -122.312740244604015, 46.025518247801024 ], [ -122.312594701974348, 46.027374934560854 ], [ -122.311020984565346, 46.029210490028895 ], [ -122.310509018807011, 46.030165708376103 ], [ -122.310140221826401, 46.030685758184561 ], [ -122.309718741653626, 46.031041353947167 ], [ -122.308667979570259, 46.03142228072587 ], [ -122.308113513922038, 46.03153140232137 ], [ -122.307961738344673, 46.031561275419087 ], [ -122.307747247130337, 46.031603486569892 ], [ -122.307303879665554, 46.031680434838158 ], [ -122.30714231172054, 46.03170847717977 ], [ -122.306992702552435, 46.031734441234192 ], [ -122.304461157841857, 46.031996286227098 ], [ -122.304098661751084, 46.032110741242846 ], [ -122.303482514001914, 46.032416282226158 ], [ -122.30266542193921, 46.033079228201863 ], [ -122.30229450801373, 46.033177514997149 ], [ -122.301399642739582, 46.033271110932006 ], [ -122.299514678839557, 46.033677206671342 ], [ -122.298821380653592, 46.033913150396558 ], [ -122.297864584715128, 46.034401324963142 ], [ -122.295909093578999, 46.035784115345265 ], [ -122.29538682212268, 46.036433906497258 ], [ -122.294958325674997, 46.038025229772025 ], [ -122.294850275632413, 46.038780643408685 ], [ -122.294799585564647, 46.039135026944237 ], [ -122.294653734626024, 46.040154659601832 ], [ -122.29463793586676, 46.040579791991163 ], [ -122.294624919681823, 46.040929888996281 ], [ -122.294574079648314, 46.042297530646486 ], [ -122.294610315830823, 46.044491176124659 ], [ -122.294737125440591, 46.045237680450924 ], [ -122.294964543801385, 46.045878056636411 ], [ -122.295043878148491, 46.046101441191283 ], [ -122.295210024608778, 46.046569270452771 ], [ -122.295363402831285, 46.047201090092074 ], [ -122.295403747105667, 46.047367297182781 ], [ -122.295560561635625, 46.048013232562717 ], [ -122.295508509266242, 46.048588719447523 ], [ -122.295395195943016, 46.048858124292956 ], [ -122.295009017871365, 46.04933656499346 ], [ -122.29445832001268, 46.049723635258864 ], [ -122.294128462209997, 46.049876626998774 ], [ -122.293406948715372, 46.05009995154974 ], [ -122.292941017877695, 46.050187890416069 ], [ -122.292159437440318, 46.05026093543183 ], [ -122.290643098912582, 46.050272410011452 ], [ -122.290293355446181, 46.050247384341858 ], [ -122.288293603314088, 46.050104270584505 ], [ -122.287035638164113, 46.050126018028756 ], [ -122.286214797505664, 46.050263937449778 ], [ -122.286137357203586, 46.050296843169363 ], [ -122.28587350587857, 46.050408949292091 ], [ -122.285492032661949, 46.050571029603297 ], [ -122.284901082627272, 46.050934027036298 ], [ -122.283529816515113, 46.052016457948625 ], [ -122.282930519885255, 46.052570374019446 ], [ -122.282678489169697, 46.052803313218099 ], [ -122.282581248007475, 46.052893187555583 ], [ -122.281531582831178, 46.054054905994747 ], [ -122.280920495518913, 46.054953056593789 ], [ -122.280670419384819, 46.055320600592417 ], [ -122.279794408337011, 46.056251024648596 ], [ -122.279074863994637, 46.056904190266685 ], [ -122.278271065928124, 46.057511164916995 ], [ -122.277401312920858, 46.058028676865412 ], [ -122.27674929240753, 46.058334795559219 ], [ -122.275585065825496, 46.058763454647107 ], [ -122.275310276913274, 46.058841520617108 ], [ -122.274484062635011, 46.059076237134427 ], [ -122.273766938967128, 46.059235540581071 ], [ -122.273357387328247, 46.059326513677171 ], [ -122.271059466002853, 46.059667757989416 ], [ -122.269879223989861, 46.059723919753992 ], [ -122.268385073843064, 46.059698373493923 ], [ -122.267211789343619, 46.059603534224912 ], [ -122.266137499993093, 46.059401342346021 ], [ -122.264738879153256, 46.059037724008533 ], [ -122.260566843014928, 46.05819484564816 ], [ -122.25910889933111, 46.057672326557807 ], [ -122.258251090640073, 46.057364879396353 ], [ -122.258079900803963, 46.057294345293336 ], [ -122.257236958328519, 46.05694703200593 ], [ -122.256275934297435, 46.056464580747324 ], [ -122.255671142655288, 46.056279368696465 ], [ -122.255298014564104, 46.056230615174641 ], [ -122.254462135649604, 46.056121397614902 ] ] ] } }
]
}
