{"type":"FeatureCollection", "features": [
{"type":"Feature","geometry":{"type":"MultiPolygon","coordinates":[[[[-121.35388303199441,47.71191833576572],[-121.35543686763341,47.71182382519347],[-121.35557490493008,47.71427839861618],[-121.36652029407725,47.713927132898505],[-121.36600811945215,47.706859383953976],[-121.34987937522602,47.70727854574181],[-121.35003625404947,47.710672678833966],[-121.3513173206381,47.71036618505162],[-121.35160520129234,47.712474860494545],[-121.35388303199441,47.71191833576572]]],[[[-121.34758437693145,47.711670239538996],[-121.34626131828522,47.7121820337184],[-121.34750242833803,47.71302735688854],[-121.3492227595756,47.712095980498255],[-121.34938284699867,47.711178166525116],[-121.34758437693145,47.711670239538996]]]]},"properties":{"COUNTY":"King","PRECCODE":1091,"PRECNAME":"Sky 12-1091","PRECINCT":"King 1091","DESCRIPTIO":"Skykomish","OFFICE":"School Levy 1","JURISDICTION":"School","RACE":"Skykomish School District School Levy 1 ","Name_1":"Rejected","Party_1":"No_1","Votes_1":"15","Name_2":"Approved","Party_2":"Yes_1","Votes_2":"14","Name_3":null,"Party_3":null,"Votes_3":"0","Name_4":null,"Party_4":null,"Votes_4":"0","Name_5":null,"Party_5":null,"Votes_5":"0","Name_6":null,"Party_6":null,"Votes_6":"0","Name_7":null,"Party_7":null,"Votes_7":"0","Votes_total":"29","Pct_1":51.72,"Pct_2":48.28,"Pct_3":0,"Pct_4":0,"Pct_5":0,"Pct_6":0,"Pct_7":0,"Margin":3.44}},
{"type":"Feature","geometry":{"type":"Polygon","coordinates":[[[-121.33469516610221,47.77998425344133],[-121.4555492162713,47.780582248091896],[-121.45555950115636,47.778432044396766],[-121.58524998213639,47.77782759356167],[-121.58675985911012,47.59990741685854],[-121.59806447407294,47.59957208943867],[-121.59837122710015,47.51213628479126],[-121.57758603007346,47.51206645280218],[-121.5775564013189,47.513960462088264],[-121.47181594934588,47.51367912148623],[-121.47173691438782,47.51871110554575],[-121.28362146628606,47.518763578848514],[-121.27915347799599,47.52278866478184],[-121.26195327335769,47.523932335187574],[-121.25508770765332,47.53389606046738],[-121.25123846363893,47.53205796389462],[-121.24635028870505,47.5355233393841],[-121.24261673174966,47.535974451044986],[-121.24340286909744,47.538191077867104],[-121.24145061186007,47.539102153148306],[-121.24349332840495,47.542632389593585],[-121.23476769880845,47.54551130659014],[-121.2361123876277,47.548118733315256],[-121.23345425225497,47.550154906046096],[-121.23308231483831,47.56111185734794],[-121.2282805260625,47.56551576920597],[-121.21774488614969,47.570111582425874],[-121.20723044091615,47.56634417432197],[-121.19344069594418,47.56659753371205],[-121.18836105689827,47.56863718650283],[-121.18000341446773,47.564874934385536],[-121.1766581639021,47.566974259059684],[-121.17693775381842,47.56992877140733],[-121.17158164067502,47.574402401257245],[-121.16982897855907,47.57874265267594],[-121.17318926068076,47.583488400019874],[-121.1708410255274,47.58578587500595],[-121.17204896710966,47.590175098731955],[-121.15166910291117,47.5956724359205],[-121.14264179609684,47.592115466592816],[-121.13789553770124,47.595714444457386],[-121.11964875747134,47.59143742512295],[-121.11825760748626,47.59645623500035],[-121.11608443574926,47.59791953658492],[-121.11364227862994,47.59714537365768],[-121.1117372709774,47.59888983969892],[-121.11174736474449,47.6023077071808],[-121.11599590020609,47.60434319423728],[-121.12046252471454,47.61221023054517],[-121.11913022645776,47.61589104593792],[-121.11348061550547,47.61802745028294],[-121.11286127809345,47.62086060710501],[-121.11901723814533,47.62734320882377],[-121.12482482811781,47.62820139954263],[-121.126970630628,47.6325034390675],[-121.12576672752608,47.63812422959022],[-121.13286876710525,47.64570522903536],[-121.13087036939903,47.65582774253674],[-121.12538942257514,47.657073594870276],[-121.12290060360769,47.662463062923266],[-121.12860781263677,47.67299018604648],[-121.1281904858073,47.6759838323312],[-121.12027442392557,47.68543074255987],[-121.10412437714976,47.68930386120713],[-121.09266138308494,47.69592896095938],[-121.08980551686975,47.699190950304796],[-121.08938201387151,47.70307596052207],[-121.07811932374031,47.70217959855223],[-121.06615413480917,47.7065377639094],[-121.06429424144967,47.71300195809503],[-121.06883559998556,47.718477237446635],[-121.07863799791053,47.7211767344701],[-121.08319284706535,47.72413691009041],[-121.08533525364508,47.72930830650398],[-121.0800615803931,47.734987183296475],[-121.07831122126233,47.73996598449897],[-121.0806671128088,47.74298930624013],[-121.08860876366084,47.74634632966734],[-121.09244899393586,47.75817379282645],[-121.09840565575921,47.75917069416136],[-121.10159813809689,47.757280945760876],[-121.1088200052613,47.75793412332893],[-121.10967407609739,47.761711028546884],[-121.1076538895597,47.76700997317449],[-121.11872748119731,47.776246572082385],[-121.11850772591013,47.78038368131042],[-121.19564057111923,47.780107462848406],[-121.19568724323038,47.779149517379054],[-121.33469516610221,47.77998425344133]],[[-121.38594225901068,47.597347771156684],[-121.38235919149544,47.59242950408477],[-121.38355319181996,47.58656137065717],[-121.37565258725493,47.57763017083575],[-121.3773892538653,47.578105570726336],[-121.37816185285007,47.57646350572903],[-121.38057698710254,47.57873637061779],[-121.37992198782301,47.575442770809424],[-121.38250405404743,47.57898837044039],[-121.38314658636519,47.57733290334346],[-121.38512085360472,47.57731550288298],[-121.38703098808278,47.57978097012646],[-121.38633679080222,47.58368550391285],[-121.38843619052648,47.58381377015592],[-121.38768939256128,47.591955570887684],[-121.38946745979189,47.59766737134059],[-121.38702019350315,47.59892097167005],[-121.38594225901068,47.597347771156684]],[[-121.3633928512599,47.70692681455072],[-121.36600811945193,47.706859383954104],[-121.366520294077,47.713927132898625],[-121.35557490492992,47.714278398616294],[-121.3554368676332,47.71182382519362],[-121.35160520129209,47.712474860494666],[-121.35131732063795,47.710366185051726],[-121.35003625404921,47.710672678834094],[-121.34987937522585,47.70727854574195],[-121.3633928512599,47.70692681455072]],[[-121.34941267682491,47.71160460002174],[-121.34922275957535,47.71209598049838],[-121.34836605475675,47.71275097069251],[-121.34750242833779,47.71302735688865],[-121.34626131828496,47.71218203371854],[-121.34938284699844,47.71117816652524],[-121.34941267682491,47.71160460002174]]]},"properties":{"COUNTY":"King","PRECCODE":1121,"PRECNAME":"Stevens","PRECINCT":"King 1121","DESCRIPTIO":"Skykomish Rural (Baring, Money Creek, Tye River)","OFFICE":"School Levy 1","JURISDICTION":"School","RACE":"Skykomish School District School Levy 1 ","Name_1":"Rejected","Party_1":"No_1","Votes_1":"23","Name_2":"Approved","Party_2":"Yes_1","Votes_2":"22","Name_3":null,"Party_3":null,"Votes_3":"0","Name_4":null,"Party_4":null,"Votes_4":"0","Name_5":null,"Party_5":null,"Votes_5":"0","Name_6":null,"Party_6":null,"Votes_6":"0","Name_7":null,"Party_7":null,"Votes_7":"0","Votes_total":"45","Pct_1":51.11,"Pct_2":48.89,"Pct_3":0,"Pct_4":0,"Pct_5":0,"Pct_6":0,"Pct_7":0,"Margin":2.22}},
{"type":"Feature","geometry":{"type":"Polygon","coordinates":[[[-119.47360431599989,48.99175163100017],[-119.47338640399973,49.00009872500032],[-119.70231167199985,49.00003298600018],[-119.7021311009999,48.98752682100019],[-119.7057167969999,48.985986832000265],[-119.71080925399991,48.98850996500022],[-119.71604530399998,48.988722345000156],[-119.7172164419998,48.984465827000236],[-119.70837568299994,48.98163068800022],[-119.70525348699988,48.97738141700012],[-119.70937264299985,48.96944439100031],[-119.7089731679999,48.96371773600014],[-119.7014227869999,48.961669983000256],[-119.69177717699979,48.95521403800012],[-119.6884777819999,48.95044998300022],[-119.67970177999982,48.950450984000206],[-119.67968018699992,48.946519670000214],[-119.676725859,48.94764551600024],[-119.67220786199996,48.94334727200027],[-119.66684282599994,48.94473151600022],[-119.66852477499991,48.93717198500025],[-119.65624377299986,48.938159986000244],[-119.65429476999981,48.928731986000116],[-119.62447676499984,48.92873098900014],[-119.62406039499982,48.91580339700022],[-119.56100771899992,48.9157375220002],[-119.56091524599992,48.886301619000164],[-119.53888900699997,48.886327245000125],[-119.53894760999984,48.87180273600018],[-119.5226130469999,48.87179587600013],[-119.52247697799987,48.85722352000022],[-119.47305568399993,48.85735847200016],[-119.47383146699991,48.84316100900008],[-119.45160349199988,48.843266528000186],[-119.45157238799992,48.828647598000146],[-119.42299431399994,48.82869203700016],[-119.42321592599991,48.83712523800011],[-119.42720993099991,48.84176062500024],[-119.42916284199981,48.849706024000106],[-119.43998481299984,48.86319105100022],[-119.44006822399989,48.87064738000015],[-119.44527107799998,48.88582700600022],[-119.44526256199994,48.90177582000018],[-119.44332779399986,48.904215804000096],[-119.44263389099989,48.912738416000195],[-119.44493303399997,48.923705726000094],[-119.44249990699983,48.93045873000017],[-119.44386461599987,48.933044801000214],[-119.44193763599985,48.93479172200023],[-119.44779032499977,48.94041007200025],[-119.44329972899985,48.93971199300029],[-119.44544947699987,48.942130887000246],[-119.44538087343227,48.95217685825224],[-119.45085291599999,48.95235402100018],[-119.45093238199996,48.966491916000166],[-119.45698615299992,48.96641257800019],[-119.45751140899995,48.98099172900003],[-119.47345114099987,48.98086004400005],[-119.47344531399993,48.981888712000114],[-119.47420789899994,48.979699083000185],[-119.47930655499995,48.98019790000018],[-119.476202754,48.99193952500008],[-119.47360431599989,48.99175163100017]],[[-119.51234298151418,48.87767438353107],[-119.51307464703241,48.86788738313929],[-119.51605058085093,48.8673907820686],[-119.51895544964854,48.872095048738615],[-119.51702238366667,48.87705078256453],[-119.52191765176104,48.87875224838741],[-119.52404325320391,48.88509284949035],[-119.52727858698408,48.88676818257334],[-119.52458238839493,48.88890524882267],[-119.52100225499089,48.889217050294],[-119.52224005515026,48.894741649915616],[-119.51871518856781,48.895411984088824],[-119.51693165375606,48.89780018349516],[-119.5147461875159,48.89704604994518],[-119.5156828525992,48.88354798344188],[-119.51274044997365,48.88200205102608],[-119.51234298151418,48.87767438353107]]]},"properties":{"COUNTY":"Okanogan","PRECCODE":3002,"PRECNAME":"Nighthawk","PRECINCT":"Okanogan 3002","DESCRIPTIO":"Oroville Rural West (Golden Road, Wannacut Lake, Nighthawk)","OFFICE":"School Levy 1","JURISDICTION":"School","RACE":"Oroville School District School Levy ","Name_1":"Rejected","Party_1":"No_1","Votes_1":"327","Name_2":"Approved","Party_2":"Yes_1","Votes_2":"34","Name_3":null,"Party_3":null,"Votes_3":"0","Name_4":null,"Party_4":null,"Votes_4":"0","Name_5":null,"Party_5":null,"Votes_5":"0","Name_6":null,"Party_6":null,"Votes_6":"0","Name_7":null,"Party_7":null,"Votes_7":"0","Votes_total":"361","Pct_1":90.58,"Pct_2":9.42,"Pct_3":0,"Pct_4":0,"Pct_5":0,"Pct_6":0,"Pct_7":0,"Margin":81.16}},
{"type":"Feature","geometry":{"type":"MultiPolygon","coordinates":[[[[-119.44158100199998,48.96574116700003],[-119.44119997799999,48.96597103700003],[-119.44188799202824,48.96637431559137],[-119.44158100199998,48.96574116700003]]],[[[-119.43629054499993,48.95094238000013],[-119.43625948499995,48.95206884000003],[-119.43376626182497,48.95203938533502],[-119.43558758588314,48.95537940731174],[-119.44207618692845,48.958012331212736],[-119.4424084458492,48.963863235282815],[-119.44069056499995,48.96435865500007],[-119.44102113099997,48.96460105100004],[-119.44181935899996,48.96433910700006],[-119.44208609099998,48.96413940900004],[-119.44223121699997,48.96457783500006],[-119.44259444699995,48.96456259900003],[-119.44352312899993,48.966352270000066],[-119.44225120438274,48.967086914187284],[-119.44816212471608,48.97421320760482],[-119.44933207163251,48.98064833220566],[-119.45356040717678,48.984138723824614],[-119.4527433410341,48.98802507615343],[-119.45533301518294,48.98849127822305],[-119.45346552738175,48.99286830661518],[-119.44696703838797,48.994562793650125],[-119.45776242941923,48.998075648296116],[-119.45805333558509,49.00008696531546],[-119.47338640399968,49.00009872500044],[-119.47360431599989,48.991751631000284],[-119.47620275399991,48.99193952500019],[-119.47930655499987,48.9801979000003],[-119.47420789899988,48.9796990830003],[-119.47344531399989,48.98188871200017],[-119.47345114099983,48.980860044000174],[-119.45751140899995,48.98099172900015],[-119.45698615299986,48.966412578000245],[-119.45093238199996,48.96649191600028],[-119.45085291599989,48.9523540210003],[-119.44538087343227,48.95217685825236],[-119.44539317399996,48.94862471800036],[-119.43607018599994,48.948505698000474],[-119.43648480599995,48.949743666000074],[-119.43519823499999,48.949862436000096],[-119.43629054499993,48.95094238000013]]]]},"properties":{"COUNTY":"Okanogan","PRECCODE":3003,"PRECNAME":"Westlake","PRECINCT":"Okanogan 3003","DESCRIPTIO":"Oroville Rural North (Westlake Road, Boundary Point)","OFFICE":"School Levy 1","JURISDICTION":"School","RACE":"Oroville School District School Levy ","Name_1":"Approved","Party_1":"Yes_1","Votes_1":"1","Name_2":null,"Party_2":null,"Votes_2":"0","Name_3":null,"Party_3":null,"Votes_3":"0","Name_4":null,"Party_4":null,"Votes_4":"0","Name_5":null,"Party_5":null,"Votes_5":"0","Name_6":null,"Party_6":null,"Votes_6":"0","Name_7":null,"Party_7":null,"Votes_7":"0","Votes_total":"1","Pct_1":100,"Pct_2":0,"Pct_3":0,"Pct_4":0,"Pct_5":0,"Pct_6":0,"Pct_7":0,"Margin":100}},
{"type":"Feature","geometry":{"type":"Polygon","coordinates":[[[-119.41337778815961,48.931575177665536],[-119.41425750102002,48.93058079307644],[-119.3090032969998,48.9307882450002],[-119.30908576099985,48.9343910730002],[-119.31441948899983,48.93717556500019],[-119.31957514899989,48.94129244300012],[-119.32035266599988,48.94163650300022],[-119.32163046799985,48.942001436000105],[-119.32574210199986,48.94303204900018],[-119.32569608399992,48.94489684600023],[-119.33295051199988,48.94494412900013],[-119.33320800799987,48.9456688370002],[-119.33289617599985,48.94592258000017],[-119.33258233899987,48.94608084500021],[-119.33208312699998,48.94630037700023],[-119.33174191699999,48.94640419900014],[-119.33168303099984,48.94643526500021],[-119.33162850099981,48.94648229500017],[-119.33161818299988,48.94650443600017],[-119.33162633099977,48.94655544800014],[-119.33169242299984,48.94660720100024],[-119.3318944719999,48.94663523500009],[-119.3332968549998,48.9465831380001],[-119.3339166009999,48.947023764000164],[-119.33475473199988,48.953633420000294],[-119.33281641399998,48.95529821900009],[-119.33710116399988,48.956243058000204],[-119.33703051599993,48.95811048100023],[-119.33612745499994,48.95940381200023],[-119.34229749099981,48.95938731100023],[-119.3421700739998,48.97378444600031],[-119.34228056099994,48.988410151000096],[-119.34217702499991,48.99994476600011],[-119.4310381331211,49.00006194249022],[-119.42966728935964,48.99733301627629],[-119.43393233792851,48.9948849960378],[-119.42930183903759,48.99124054473308],[-119.43142312853745,48.99131262846899],[-119.43371826276982,48.98574872053317],[-119.42617957533953,48.98604309481348],[-119.42217503598259,48.98288848106293],[-119.43000641399982,48.96634863760094],[-119.42267509704699,48.964406717579116],[-119.42037040797098,48.96151345444588],[-119.4207221106634,48.95379523033146],[-119.4250634269999,48.94328581700024],[-119.42164612299986,48.94329894400016],[-119.42166052399988,48.942203906000145],[-119.4259135289999,48.94155938600011],[-119.42701634499988,48.93934665200015],[-119.42346287599995,48.93697081400023],[-119.4221564209999,48.94141590200013],[-119.42028492399994,48.94141862600019],[-119.41885920999994,48.93355628800014],[-119.42087514299993,48.931591356000126],[-119.41337778815961,48.931575177665536]],[[-119.40796388399984,48.965090868000225],[-119.40804301899998,48.95236661700016],[-119.41021916699994,48.952356640000176],[-119.41176093599995,48.95392770400031],[-119.41323188299997,48.959364973000106],[-119.41420082399986,48.95992148900017],[-119.41486765699989,48.96695590900009],[-119.41338071799987,48.96515633300021],[-119.40796388399984,48.965090868000225]]]},"properties":{"COUNTY":"Okanogan","PRECCODE":3004,"PRECNAME":"Eastlake","PRECINCT":"Okanogan 3004","DESCRIPTIO":"Oroville Rural Northeast (Eastlake Road, Eastside Oroville Road, Gold Rush Ridge)","OFFICE":"School Levy 1","JURISDICTION":"School","RACE":"Oroville School District School Levy ","Name_1":"Rejected","Party_1":"No_1","Votes_1":"115","Name_2":"Approved","Party_2":"Yes_1","Votes_2":"53","Name_3":null,"Party_3":null,"Votes_3":"0","Name_4":null,"Party_4":null,"Votes_4":"0","Name_5":null,"Party_5":null,"Votes_5":"0","Name_6":null,"Party_6":null,"Votes_6":"0","Name_7":null,"Party_7":null,"Votes_7":"0","Votes_total":"168","Pct_1":68.45,"Pct_2":31.55,"Pct_3":0,"Pct_4":0,"Pct_5":0,"Pct_6":0,"Pct_7":0,"Margin":36.9}},
{"type":"Feature","geometry":{"type":"Polygon","coordinates":[[[-119.098187823,49.000185805],[-119.34217702499997,48.999944766000056],[-119.34228056099994,48.98841015100004],[-119.34217007399992,48.9737844460002],[-119.34229749199989,48.95938731100011],[-119.33612745499994,48.95940381400015],[-119.33608818099991,48.959129376000185],[-119.3361626969999,48.958962328000034],[-119.33703051599993,48.958110481000176],[-119.337101164,48.9562430580001],[-119.33281641399998,48.95529821899998],[-119.33475473199988,48.95363342000018],[-119.33391660099996,48.94702376400005],[-119.3332968549999,48.946583138000044],[-119.33189447199996,48.94663523499998],[-119.33169242299994,48.94660720100018],[-119.33162235199994,48.94652676100008],[-119.33162850099991,48.94648229500012],[-119.33174191699999,48.946404199000085],[-119.33289617599989,48.94592258000011],[-119.33320800799993,48.94566883700014],[-119.33295051199994,48.94494412900002],[-119.32569608399996,48.94489684600012],[-119.32574210199992,48.94303204900012],[-119.32163046799991,48.942001436],[-119.32035266599993,48.9416365030001],[-119.31988541699997,48.94145153300008],[-119.31957514899993,48.94129244300006],[-119.31915207899993,48.94098496800012],[-119.31441948899993,48.93717556500014],[-119.31021758299993,48.935391264000025],[-119.30908576099989,48.93439107300014],[-119.3090032969999,48.93078824500008],[-119.30592966699999,48.930235617000044],[-119.29824042499996,48.92791643300018],[-119.2902632439999,48.923331264000126],[-119.27387142899988,48.921899458000155],[-119.26450914799995,48.918213521999974],[-119.25273425899991,48.91584695300003],[-119.23894700799991,48.911252725000054],[-119.23542762299995,48.90797088400018],[-119.21493186999994,48.91430345300006],[-119.20578615399995,48.91304542000012],[-119.1909151079999,48.91335469700004],[-119.17673802199994,48.91694789400008],[-119.17183293699996,48.91692037400014],[-119.15876382799995,48.92572643200008],[-119.13809226799998,48.92817533600003],[-119.128992746,48.93314685400014],[-119.12084377999996,48.93319656500006],[-119.11007951099998,48.92967134700007],[-119.1033008949999,48.929676118000025],[-119.0887985949999,48.93322888200015],[-119.085723041,48.936359284],[-119.088923815,48.93811696500006],[-119.09782479499997,48.93866553900011],[-119.098187823,49.000185805]]]},"properties":{"COUNTY":"Okanogan","PRECCODE":3005,"PRECNAME":"Great Northern","PRECINCT":"Okanogan 3005","DESCRIPTIO":"Oroville Rural Far Northeast (Molson, Nine Mile Road, Fields Road)","OFFICE":"School Levy 1","JURISDICTION":"School","RACE":"Oroville School District School Levy ","Name_1":"Approved","Party_1":"Yes_1","Votes_1":"214","Name_2":"Rejected","Party_2":"No_1","Votes_2":"95","Name_3":null,"Party_3":null,"Votes_3":"0","Name_4":null,"Party_4":null,"Votes_4":"0","Name_5":null,"Party_5":null,"Votes_5":"0","Name_6":null,"Party_6":null,"Votes_6":"0","Name_7":null,"Party_7":null,"Votes_7":"0","Votes_total":"309","Pct_1":69.26,"Pct_2":30.74,"Pct_3":0,"Pct_4":0,"Pct_5":0,"Pct_6":0,"Pct_7":0,"Margin":38.52}},
{"type":"Feature","geometry":{"type":"Polygon","coordinates":[[[-118.98813508199993,49.000100278000154],[-119.098187823,49.000185805],[-119.09782479499997,48.93866553900011],[-119.088923815,48.93811696500006],[-119.085723041,48.936359284],[-119.0887985949999,48.93322888200015],[-119.1033008949999,48.929676118000025],[-119.11007951099998,48.92967134700007],[-119.12084377999996,48.93319656500006],[-119.128992746,48.93314685400014],[-119.13809226799998,48.92817533600003],[-119.15876382799995,48.92572643200008],[-119.17183293699996,48.91692037400014],[-119.17673802199994,48.91694789400008],[-119.1909151079999,48.91335469700004],[-119.20578615399995,48.91304542000012],[-119.21493186999994,48.91430345300006],[-119.23542762299995,48.90797088400018],[-119.23894700799991,48.911252725000054],[-119.25273425899991,48.91584695300003],[-119.26450914799995,48.918213521999974],[-119.27387142899988,48.921899458000155],[-119.2902632439999,48.923331264000126],[-119.29824042499996,48.92791643300018],[-119.30592966699999,48.930235617000044],[-119.40803485099991,48.93053923000019],[-119.4073607969999,48.87268426800017],[-119.3855288647293,48.87246801659102],[-119.3855749569999,48.85791346300027],[-119.36351057299991,48.8578966310003],[-119.165391662,48.856627557000074],[-119.16534473399992,48.84213599200017],[-119.07626779799992,48.841885114000036],[-119.07629949399991,48.87120191700018],[-119.01074274199993,48.87131271100015],[-119.01069736799988,48.856525905],[-118.96689238199988,48.85640353400015],[-118.9664616049999,48.94370208100015],[-118.988132571,48.94369566700016],[-118.98813508199993,49.000100278000154]]]},"properties":{"COUNTY":"Okanogan","PRECCODE":3006,"PRECNAME":"Chesaw","PRECINCT":"Okanogan 3006","DESCRIPTIO":"Oroville Rural Farther East (Chesaw, Myers Creek, Kipling Cemetery), Oroville Rural Far Southeast","OFFICE":"School Levy 1","JURISDICTION":"School","RACE":"Oroville School District School Levy ","Name_1":"Rejected","Party_1":"No_1","Votes_1":"9","Name_2":null,"Party_2":null,"Votes_2":"0","Name_3":null,"Party_3":null,"Votes_3":"0","Name_4":null,"Party_4":null,"Votes_4":"0","Name_5":null,"Party_5":null,"Votes_5":"0","Name_6":null,"Party_6":null,"Votes_6":"0","Name_7":null,"Party_7":null,"Votes_7":"0","Votes_total":"9","Pct_1":100,"Pct_2":0,"Pct_3":0,"Pct_4":0,"Pct_5":0,"Pct_6":0,"Pct_7":0,"Margin":100}},
{"type":"Feature","geometry":{"type":"Polygon","coordinates":[[[-119.07626779799992,48.841885114000036],[-119.07631171799993,48.82753955700014],[-119.09948157899998,48.827655400000026],[-119.09990111199988,48.74018015300015],[-119.14366027199998,48.74061523400019],[-119.14371766699993,48.69750886300005],[-119.0121141819999,48.69709907500004],[-119.01215515799998,48.68236730100005],[-118.96835249899995,48.68261756700019],[-118.96854769199996,48.65372534400017],[-118.91362836399998,48.65364922000009],[-118.91353134199993,48.62625079600008],[-118.86999763299997,48.626204728],[-118.86984666199997,48.65371111600007],[-118.83640988299993,48.65370335200009],[-118.83662778199994,49.00012970299997],[-118.98813508199993,49.000100278000154],[-118.988132571,48.94369566700016],[-118.9664616049999,48.94370208100015],[-118.96689238199988,48.85640353400015],[-119.01069736799988,48.856525905],[-119.01074274199993,48.87131271100015],[-119.07629949399991,48.87120191700018],[-119.07626779799992,48.841885114000036]]]},"properties":{"COUNTY":"Okanogan","PRECCODE":3007,"PRECNAME":"Ferry PUD","PRECINCT":"Okanogan 3007","DESCRIPTIO":"Republic Rural Far West (Wauconda) & Far Northwest (Old Toroda, Bodie), Tonasket Rural Farthest East","OFFICE":"School Levy 1","JURISDICTION":"School","RACE":"Oroville School District School Levy ","Name_1":"Approved","Party_1":"Yes_1","Votes_1":"59","Name_2":null,"Party_2":null,"Votes_2":"0","Name_3":null,"Party_3":null,"Votes_3":"0","Name_4":null,"Party_4":null,"Votes_4":"0","Name_5":null,"Party_5":null,"Votes_5":"0","Name_6":null,"Party_6":null,"Votes_6":"0","Name_7":null,"Party_7":null,"Votes_7":"0","Votes_total":"59","Pct_1":100,"Pct_2":0,"Pct_3":0,"Pct_4":0,"Pct_5":0,"Pct_6":0,"Pct_7":0,"Margin":100}},
{"type":"Feature","geometry":{"type":"Polygon","coordinates":[[[-119.43497142799988,48.92494314700019],[-119.4412906559999,48.9237697470001],[-119.44193763599989,48.93479172200016],[-119.44386461599991,48.93304480100011],[-119.44249990699988,48.93045873000011],[-119.44493303399997,48.92370572600004],[-119.44263389099993,48.91273841600013],[-119.4433277939999,48.90421580399998],[-119.44526256199988,48.90177582000007],[-119.44527107799998,48.88582700600011],[-119.44006822399994,48.87064738000003],[-119.43998481299994,48.863191051000115],[-119.42916284199991,48.849706024],[-119.42720993099996,48.84176062500012],[-119.42321592599997,48.837125238],[-119.422994314,48.8286920370001],[-119.385687465,48.82928263700011],[-119.38551115899986,48.84354837300025],[-119.36363819799992,48.84312698100001],[-119.36351057299991,48.8578966310003],[-119.3855749569999,48.85791346300027],[-119.3855288647293,48.87246801659102],[-119.4073607969999,48.87268426800017],[-119.40803485099991,48.93053923000019],[-119.41425750101997,48.93058079307655],[-119.41337778815956,48.93157517766564],[-119.41846905790877,48.93076125536294],[-119.42103402699998,48.93149959400006],[-119.42112834599996,48.93131254500013],[-119.42148361099996,48.931142569000144],[-119.42105165099991,48.928540172000176],[-119.4208248989999,48.92816737200007],[-119.42340809199993,48.92481529000002],[-119.42343734599993,48.93116756400013],[-119.42372998699994,48.932320106000134],[-119.42553471799994,48.93292393300009],[-119.43042598499996,48.93097579099998],[-119.42998290499992,48.929084464000084],[-119.43041830399989,48.92785490400012],[-119.43396845399992,48.927765953000176],[-119.43500139499999,48.925463528000186],[-119.43497142799988,48.92494314700019]]]},"properties":{"COUNTY":"Okanogan","PRECCODE":3008,"PRECNAME":"South Oroville","PRECINCT":"Okanogan 3008","DESCRIPTIO":"Oroville Rural South (Cordell, Oroville Bridge)","OFFICE":"School Levy 1","JURISDICTION":"School","RACE":"Oroville School District School Levy ","Name_1":"Approved","Party_1":"Yes_1","Votes_1":"107","Name_2":"Rejected","Party_2":"No_1","Votes_2":"77","Name_3":null,"Party_3":null,"Votes_3":"0","Name_4":null,"Party_4":null,"Votes_4":"0","Name_5":null,"Party_5":null,"Votes_5":"0","Name_6":null,"Party_6":null,"Votes_6":"0","Name_7":null,"Party_7":null,"Votes_7":"0","Votes_total":"184","Pct_1":58.15,"Pct_2":41.85,"Pct_3":0,"Pct_4":0,"Pct_5":0,"Pct_6":0,"Pct_7":0,"Margin":16.3}},
{"type":"Feature","geometry":{"type":"Polygon","coordinates":[[[-119.42103402699998,48.93149959400006],[-119.41885920999998,48.93355628800009],[-119.42028492399999,48.941418626000086],[-119.42215642099995,48.941415902000074],[-119.42346287599995,48.936970814000176],[-119.42701634499994,48.93934665200009],[-119.42591352899996,48.941559386000044],[-119.42166052399995,48.94220390600009],[-119.4216461229999,48.943298944000105],[-119.42506342699994,48.943285817000174],[-119.42237752299997,48.952299996000185],[-119.4273464964341,48.95052427535562],[-119.43376626182497,48.95203938533502],[-119.43625948499995,48.95206884000003],[-119.43629054499993,48.95094238000013],[-119.43519823499999,48.949862436000096],[-119.43648480599995,48.949743666000074],[-119.43748300999994,48.94975534600013],[-119.436070186,48.948505698000126],[-119.4361944949999,48.94850717400004],[-119.43525418899995,48.947602137000054],[-119.43437385599998,48.94629133300015],[-119.43290904599985,48.946036446999976],[-119.432930393,48.94526400500007],[-119.43704871499995,48.93665609900012],[-119.43638868687852,48.92490759434731],[-119.43497142799988,48.92494314700019],[-119.43500139499999,48.925463528000186],[-119.43396845399992,48.927765953000176],[-119.43041830399989,48.92785490400012],[-119.42998290499992,48.929084464000084],[-119.43042598499996,48.93097579099998],[-119.42553471799994,48.93292393300009],[-119.42372998699994,48.932320106000134],[-119.42343734599993,48.93116756400013],[-119.42340809199993,48.92481529000002],[-119.4208248989999,48.92816737200007],[-119.42105165099991,48.928540172000176],[-119.42148361099996,48.931142569000144],[-119.42112834599996,48.93131254500013],[-119.42103402699998,48.93149959400006]]]},"properties":{"COUNTY":"Okanogan","PRECCODE":3102,"PRECNAME":"Oroville City East","PRECINCT":"Okanogan 3102","DESCRIPTIO":"Oroville East (Henry Kniss Park, Prince Heritage Park)","OFFICE":"School Levy 1","JURISDICTION":"School","RACE":"Oroville School District School Levy ","Name_1":"Rejected","Party_1":"No_1","Votes_1":"551","Name_2":"Approved","Party_2":"Yes_1","Votes_2":"17","Name_3":null,"Party_3":null,"Votes_3":"0","Name_4":null,"Party_4":null,"Votes_4":"0","Name_5":null,"Party_5":null,"Votes_5":"0","Name_6":null,"Party_6":null,"Votes_6":"0","Name_7":null,"Party_7":null,"Votes_7":"0","Votes_total":"568","Pct_1":97.01,"Pct_2":2.99,"Pct_3":0,"Pct_4":0,"Pct_5":0,"Pct_6":0,"Pct_7":0,"Margin":94.02}},
{"type":"Feature","geometry":{"type":"Polygon","coordinates":[[[-119.432930393,48.94526400500007],[-119.43290904599996,48.94603644700004],[-119.43405563899995,48.94623596600008],[-119.43385412699996,48.94574519500002],[-119.43373776599995,48.94533637300003],[-119.432930393,48.94526400500007]]]},"properties":{"COUNTY":"Okanogan","PRECCODE":3201,"PRECNAME":"Oroville Island","PRECINCT":"Okanogan 3201","DESCRIPTIO":"Unincorporated NW Oroville (2013 N Main)","OFFICE":"School Levy 1","JURISDICTION":"School","RACE":"Oroville School District School Levy ","Name_1":"Approved","Party_1":"Yes_1","Votes_1":"54","Name_2":"Rejected","Party_2":"No_1","Votes_2":"49","Name_3":null,"Party_3":null,"Votes_3":"0","Name_4":null,"Party_4":null,"Votes_4":"0","Name_5":null,"Party_5":null,"Votes_5":"0","Name_6":null,"Party_6":null,"Votes_6":"0","Name_7":null,"Party_7":null,"Votes_7":"0","Votes_total":"103","Pct_1":52.43,"Pct_2":47.57,"Pct_3":0,"Pct_4":0,"Pct_5":0,"Pct_6":0,"Pct_7":0,"Margin":4.86}},
{"type":"Feature","geometry":{"type":"Polygon","coordinates":[[[-119.40804301899998,48.952366617000045],[-119.40796388399994,48.96509086800006],[-119.413380718,48.96515633300004],[-119.41486765699995,48.966955909000035],[-119.41479674399994,48.96214729300004],[-119.414200824,48.95992148900007],[-119.41323188299997,48.95936497300004],[-119.41268414799997,48.95588790500005],[-119.41176093599995,48.95392770400007],[-119.41019943599996,48.95305902700005],[-119.410219167,48.95235664000006],[-119.40804301899998,48.952366617000045]]]},"properties":{"COUNTY":"Okanogan","PRECCODE":3301,"PRECNAME":"Oroville Airport","PRECINCT":"Okanogan 3301","DESCRIPTIO":"Oroville Outlying Northeast (Dorothy Scott Airport)","OFFICE":"School Levy 1","JURISDICTION":"School","RACE":"Oroville School District School Levy ","Name_1":"Approved","Party_1":"Yes_1","Votes_1":"469","Name_2":"Rejected","Party_2":"No_1","Votes_2":"228","Name_3":null,"Party_3":null,"Votes_3":"0","Name_4":null,"Party_4":null,"Votes_4":"0","Name_5":null,"Party_5":null,"Votes_5":"0","Name_6":null,"Party_6":null,"Votes_6":"0","Name_7":null,"Party_7":null,"Votes_7":"0","Votes_total":"697","Pct_1":67.29,"Pct_2":32.71,"Pct_3":0,"Pct_4":0,"Pct_5":0,"Pct_6":0,"Pct_7":0,"Margin":34.58}},
{"type":"Feature","geometry":{"type":"Polygon","coordinates":[[[-119.44188799202824,48.96637431559137],[-119.44200314666378,48.966612698503276],[-119.44352312899996,48.966352270000066],[-119.44259444699995,48.96456259900003],[-119.44223121699997,48.96457783500006],[-119.44208609099998,48.96413940900004],[-119.44181935899996,48.96433910700006],[-119.44102113099997,48.96460105100004],[-119.44069056499995,48.96435865500007],[-119.44119997799999,48.96597103700003],[-119.44158100199998,48.96574116700003],[-119.44188799202824,48.96637431559137]]]},"properties":{"COUNTY":"Okanogan","PRECCODE":3502,"PRECNAME":"Oroville Deep Bay","PRECINCT":"Okanogan 3502","DESCRIPTIO":"Oroville Outlying North (Deep Bay Park)","OFFICE":"School Levy 1","JURISDICTION":"School","RACE":"Oroville School District School Levy ","Name_1":"Rejected","Party_1":"No_1","Votes_1":"20","Name_2":null,"Party_2":null,"Votes_2":"0","Name_3":null,"Party_3":null,"Votes_3":"0","Name_4":null,"Party_4":null,"Votes_4":"0","Name_5":null,"Party_5":null,"Votes_5":"0","Name_6":null,"Party_6":null,"Votes_6":"0","Name_7":null,"Party_7":null,"Votes_7":"0","Votes_total":"20","Pct_1":100,"Pct_2":0,"Pct_3":0,"Pct_4":0,"Pct_5":0,"Pct_6":0,"Pct_7":0,"Margin":100}},
{"type":"Feature","geometry":{"type":"Polygon","coordinates":[[[-122.88318302814086,48.56919010830094],[-122.88426204742407,48.57280238270585],[-122.88946451899994,48.570444552000026],[-122.89176196737368,48.56329749883516],[-122.8904997,48.5585125],[-122.89232490299995,48.55682877700007],[-122.89814359624462,48.55621070201771],[-122.90468093899992,48.550362826000026],[-122.91175394499999,48.54909080000004],[-122.91976939999998,48.5508832],[-122.92185429999998,48.5401579],[-122.91794714255492,48.529743570402616],[-122.91532779099998,48.529743644000064],[-122.915339056,48.53207922100007],[-122.91270729799999,48.53226399500006],[-122.91009466499997,48.53226067500002],[-122.91009197999993,48.53045536900003],[-122.90527521899998,48.53046274600007],[-122.91008692599996,48.52429522800002],[-122.90765217299997,48.52430999200004],[-122.90748750599994,48.522384],[-122.90451899099996,48.52237975700007],[-122.904507805,48.51751698800006],[-122.90995118999992,48.51779433800005],[-122.90994517199996,48.51599711800002],[-122.904510595,48.51598922900007],[-122.90450256999996,48.51470100300003],[-122.90994417699996,48.514705990000046],[-122.90994544899995,48.51363686800005],[-122.90450555099994,48.51286175800005],[-122.91019657299995,48.51287379200004],[-122.909975364,48.50864151400003],[-122.91397522999993,48.50878544000005],[-122.92413449999997,48.5030305],[-122.93125407556862,48.50651545737248],[-122.930320645,48.50191870200007],[-122.9362649,48.5003956],[-122.9376074,48.5010008],[-122.937403,48.5018209],[-122.93607170000001,48.5033859],[-122.93357034299999,48.50482417100006],[-122.93202629999998,48.5081171],[-122.92311581135841,48.51182037513152],[-122.92139629999998,48.5154328],[-122.91804060000001,48.5159788],[-122.91873822099996,48.51708986800002],[-122.9214473,48.5167155],[-122.91998112287105,48.51917075097643],[-122.9240253,48.5208368],[-122.9175247393311,48.522274579868046],[-122.9258594,48.521118],[-122.93215888799995,48.51718337200003],[-122.93386127599997,48.50606793300005],[-122.93704938082406,48.5027855088242],[-122.94188650000001,48.4962599],[-122.94266763099994,48.49274871200004],[-122.92343693499998,48.49278376400008],[-122.92493305399994,48.49632860000002],[-122.92087274999996,48.49632066500004],[-122.89910054999996,48.49613082800005],[-122.899113538,48.492499344000066],[-122.86398777099997,48.492572601000056],[-122.86637210000002,48.4962838],[-122.8724607,48.4997385],[-122.8742123,48.5048887],[-122.86755275207962,48.511186905416345],[-122.8609669,48.531433],[-122.85855593099996,48.53465418700005],[-122.85201062370675,48.53653707657331],[-122.85842587199996,48.537876059000034],[-122.86139041509453,48.54256130531773],[-122.87016284499997,48.54063287300006],[-122.87631477699996,48.543257298000064],[-122.87703082599995,48.545731606000054],[-122.87349509999997,48.5509482],[-122.8693147,48.55423],[-122.86657619999998,48.5537446],[-122.86529981899999,48.55509308200004],[-122.86597011260682,48.5614305120879],[-122.8676559118486,48.56378154421284],[-122.87165231739031,48.564058546024974],[-122.87349673829358,48.558656194795105],[-122.8714118,48.555219],[-122.87304869999997,48.5520302],[-122.8744429,48.5528678],[-122.872888,48.5531963],[-122.8837896,48.5544539],[-122.88254290689949,48.55805686290658],[-122.884896,48.5596175],[-122.8846036,48.5668942],[-122.88318302814086,48.56919010830094]]]},"properties":{"COUNTY":"San Juan","PRECCODE":31,"PRECNAME":"Lopez North","PRECINCT":"San Juan 31","DESCRIPTIO":"Lopez Island North (Port Stanley, Fisherman Bay, Lopez Sound Road)","OFFICE":"School Levy 1","JURISDICTION":"School","RACE":"Lopez Island School District School Levy 1 ","Name_1":"Approved","Party_1":"Yes_1","Votes_1":"149","Name_2":null,"Party_2":null,"Votes_2":"0","Name_3":null,"Party_3":null,"Votes_3":"0","Name_4":null,"Party_4":null,"Votes_4":"0","Name_5":null,"Party_5":null,"Votes_5":"0","Name_6":null,"Party_6":null,"Votes_6":"0","Name_7":null,"Party_7":null,"Votes_7":"0","Votes_total":"149","Pct_1":100,"Pct_2":0,"Pct_3":0,"Pct_4":0,"Pct_5":0,"Pct_6":0,"Pct_7":0,"Margin":100}},
{"type":"Feature","geometry":{"type":"Polygon","coordinates":[[[-122.8630522081431,48.49034277086094],[-122.86398777100003,48.492572601000056],[-122.89911353799995,48.49249934400004],[-122.89910054999996,48.496130828000034],[-122.92493305399994,48.49632860000006],[-122.92343693499994,48.49278376400012],[-122.94266763099994,48.492748712000065],[-122.94527210410507,48.47669865490566],[-122.94170980000001,48.4707277],[-122.9455097,48.4654752],[-122.9425884,48.4640233],[-122.94232248299991,48.460148061000076],[-122.93536551939654,48.45553655424366],[-122.93487790000002,48.4581573],[-122.93049232945694,48.458639779653595],[-122.92773159199992,48.46087484300007],[-122.92166173899999,48.45942676600007],[-122.91550965177406,48.45457292884031],[-122.9113975,48.4556824],[-122.91285154099995,48.453085026000096],[-122.91650149999998,48.4526496],[-122.91708003767931,48.45135492970895],[-122.9148715,48.4503806],[-122.9155643,48.4483696],[-122.91047497385651,48.44652739490603],[-122.9061687698217,48.44641451713984],[-122.90650968399996,48.44774913300003],[-122.90192860000002,48.4485182],[-122.89771506054232,48.44607106779031],[-122.89758388699994,48.44926267700002],[-122.89374126899999,48.45023408700011],[-122.89025549599998,48.44800161000005],[-122.89243860146553,48.445864276246986],[-122.8870389,48.4455558],[-122.88670270000001,48.4467142],[-122.88289060000001,48.4470184],[-122.86382969999998,48.4421496],[-122.86343289599996,48.43763639700004],[-122.86660430399996,48.435053700000054],[-122.86884818674109,48.435480563408824],[-122.8680945,48.4331528],[-122.87037162200002,48.43217099],[-122.8762254,48.4332922],[-122.87616549999998,48.4360294],[-122.87390249999999,48.4373484],[-122.876833493,48.43918897800008],[-122.8790886,48.4366999],[-122.885547708,48.438250017000016],[-122.88898078110148,48.43665921086739],[-122.88494195999996,48.43407790200005],[-122.87732700299998,48.43220822200007],[-122.8771746,48.4294764],[-122.8793046,48.4265377],[-122.88414515928713,48.42728013857135],[-122.88343046599998,48.425384640000104],[-122.89432998101518,48.422291716484615],[-122.892563996,48.42046219300005],[-122.88831180000001,48.4207484],[-122.88447676115244,48.41874327372143],[-122.87660610599993,48.41816732000006],[-122.8728233,48.4185789],[-122.87266259999997,48.4202518],[-122.86929230000001,48.4215566],[-122.8663495,48.4216723],[-122.8620313,48.4193415],[-122.85967089999998,48.4205707],[-122.855597,48.4198191],[-122.8542942,48.4202661],[-122.8564496,48.4228983],[-122.85231001444039,48.423826592288954],[-122.86307760000001,48.4262228],[-122.86094470000002,48.4304797],[-122.8432222,48.427604],[-122.8439991556118,48.425787842436584],[-122.8411988,48.4248978],[-122.8395312,48.4255409],[-122.84435390000002,48.4295212],[-122.84085020000002,48.4320883],[-122.8363577,48.4311436],[-122.83683879999997,48.4287665],[-122.831721,48.4268428],[-122.8305818,48.4302645],[-122.82565019999997,48.4295555],[-122.82394818099995,48.427195352000076],[-122.82757180799993,48.426090813],[-122.8273212,48.4247683],[-122.8127298,48.4215071],[-122.80988989999999,48.425694],[-122.80275492917218,48.42706739556024],[-122.80476507109125,48.431557029367475],[-122.81342221599998,48.43002702300007],[-122.814582956,48.43108183800005],[-122.808591,48.4367075],[-122.80875939999999,48.4433813],[-122.80390945522375,48.44397906637557],[-122.8001947,48.4473065],[-122.80553759999997,48.4530246],[-122.813132684,48.452815523],[-122.8193117,48.4572997],[-122.8188582,48.4634841],[-122.81315110000001,48.4721248],[-122.8183312,48.4751881],[-122.81977161409944,48.47826141877949],[-122.83070264699998,48.47235428500007],[-122.83357856599997,48.468882979000085],[-122.8324894,48.4676821],[-122.8287273,48.4689785],[-122.83041903592887,48.46472929134315],[-122.82778180000001,48.4648561],[-122.82113195,48.46093318300011],[-122.8192021449999,48.463092354000054],[-122.81998321599997,48.460493471000056],[-122.82733602499994,48.458867663],[-122.83622458499995,48.45040492400003],[-122.84348855115037,48.44745147149164],[-122.8457337,48.4448792],[-122.85184595699994,48.445435053000054],[-122.85475229999997,48.4485128],[-122.84383781195605,48.46001145193223],[-122.85313526199994,48.45885518100004],[-122.85563019999998,48.4572397],[-122.86288223899994,48.46029412899998],[-122.8551951,48.4671215],[-122.8545119,48.47289390000001],[-122.85689474399996,48.473425757],[-122.8525169,48.4758825],[-122.85144950000002,48.4809577],[-122.8553561,48.4815733],[-122.8561784,48.4839797],[-122.8544003,48.4860543],[-122.861370304,48.48766200900009],[-122.8630522081431,48.49034277086094]]]},"properties":{"COUNTY":"San Juan","PRECCODE":32,"PRECNAME":"Lopez South","PRECINCT":"San Juan 32","DESCRIPTIO":"Lopez Island South (Aleck Bay, Islandale, Lopez Island Airport)","OFFICE":"School Levy 1","JURISDICTION":"School","RACE":"Lopez Island School District School Levy 1 ","Name_1":"Rejected","Party_1":"No_1","Votes_1":"142","Name_2":"Approved","Party_2":"Yes_1","Votes_2":"55","Name_3":null,"Party_3":null,"Votes_3":"0","Name_4":null,"Party_4":null,"Votes_4":"0","Name_5":null,"Party_5":null,"Votes_5":"0","Name_6":null,"Party_6":null,"Votes_6":"0","Name_7":null,"Party_7":null,"Votes_7":"0","Votes_total":"197","Pct_1":72.08,"Pct_2":27.92,"Pct_3":0,"Pct_4":0,"Pct_5":0,"Pct_6":0,"Pct_7":0,"Margin":44.16}},
{"type":"Feature","geometry":{"type":"MultiPolygon","coordinates":[[[[-122.92021949999997,48.4416328],[-122.92093732806872,48.442836778970836],[-122.92611672882087,48.443254931146164],[-122.92805483852278,48.44026494149714],[-122.917789,48.4398233],[-122.9185043,48.4417576],[-122.92021949999997,48.4416328]]],[[[-122.92969938599997,48.441245375000044],[-122.9282119,48.4418586],[-122.9299702291567,48.442759766443686],[-122.92969938599997,48.441245375000044]]],[[[-122.90691492499998,48.44259693100002],[-122.90874431740545,48.44469263984523],[-122.9136607388561,48.443372736089756],[-122.91028979999997,48.4410677],[-122.90529606205001,48.44032359969523],[-122.90691492499998,48.44259693100002]]],[[[-122.94332108536503,48.45851137144878],[-122.94463135302946,48.45798761008131],[-122.94241367640407,48.45755122257779],[-122.94332108536503,48.45851137144878]]],[[[-122.82288988699997,48.41583093700007],[-122.82551756792428,48.41546595503282],[-122.81983120000001,48.4148041],[-122.82288988699997,48.41583093700007]]],[[[-122.82020676354621,48.421662148026726],[-122.82391373973111,48.4215373435873],[-122.82328590000002,48.4205858],[-122.82020676354621,48.421662148026726]]],[[[-122.80175474099997,48.431676122000056],[-122.80170650099996,48.43313295400003],[-122.80315688401686,48.43230962386603],[-122.80175474099997,48.431676122000056]]],[[[-122.83061495030722,48.47600791871335],[-122.82985981880044,48.4787129154954],[-122.83374528148967,48.47479501423837],[-122.83061495030722,48.47600791871335]]],[[[-122.82459907299994,48.49149413800006],[-122.8276278240249,48.49342758477102],[-122.83488415469888,48.493784224452995],[-122.83616845245874,48.48803174711289],[-122.83385470299996,48.484743753000025],[-122.82642589063302,48.48752977338515],[-122.82459907299994,48.49149413800006]]],[[[-122.79203439386222,48.52487684471127],[-122.80178129999999,48.5236575],[-122.8160762,48.5246261],[-122.82763167217931,48.522705459635134],[-122.83238404199992,48.51711640700005],[-122.8316382,48.5131809],[-122.8339389,48.5129079],[-122.83716463453392,48.51587916580197],[-122.83988836766402,48.51146453764833],[-122.837936,48.5093863],[-122.83007839299992,48.50906908100006],[-122.82740370000002,48.5045348],[-122.8206086,48.4997253],[-122.8169663,48.4997086],[-122.81593,48.4984741],[-122.81620495199996,48.48939494900003],[-122.8214052,48.4868432],[-122.8201565,48.4829403],[-122.82439956426587,48.48350751172412],[-122.82518758094017,48.48124850910739],[-122.82026430000002,48.4826459],[-122.81785748345804,48.48135425526584],[-122.81654278499997,48.487707743000044],[-122.80017689711403,48.494558994044226],[-122.79448609999997,48.500163],[-122.79226190000001,48.5059956],[-122.7832317354487,48.51129820051761],[-122.78573168687191,48.51302941519903],[-122.78762708926884,48.5100822986824],[-122.78587154599992,48.51001712400006],[-122.79019074399994,48.50955709600003],[-122.797055787,48.51459528800006],[-122.79592336199995,48.51993916500003],[-122.78739168028537,48.5227623790787],[-122.78829083066142,48.524444992208565],[-122.79203439386222,48.52487684471127]]],[[[-122.83983850829556,48.50434958685227],[-122.83916365871633,48.50216166292256],[-122.83731411909692,48.502290660386585],[-122.8356979105832,48.50538223784508],[-122.83685828390314,48.50633434012958],[-122.83983850829556,48.50434958685227]]],[[[-122.77866862799998,48.50942554500005],[-122.77604310130927,48.507678217009804],[-122.7692932,48.5092722],[-122.77015112237162,48.51208358383588],[-122.77430160399996,48.512322968000035],[-122.77398714828541,48.51595836315018],[-122.77752717766896,48.51767922660592],[-122.77968655995302,48.5162821746568],[-122.77916428199218,48.51352620962995],[-122.77602373699996,48.512634354000056],[-122.77866862799998,48.50942554500005]]],[[[-122.84310801404848,48.54003660445479],[-122.84556481165069,48.54242039303818],[-122.84941290000002,48.5383455],[-122.84674569999999,48.5334424],[-122.8448409,48.5341505],[-122.84576024499992,48.535681498000024],[-122.84310801404848,48.54003660445479]]]]},"properties":{"COUNTY":"San Juan","PRECCODE":33,"PRECNAME":"Decatur and Outer Is","PRECINCT":"San Juan 33","DESCRIPTIO":"Southeast San Juan County (Decatur Island, Center Island, Frost Island, Trump Island)","OFFICE":"School Levy 1","JURISDICTION":"School","RACE":"Lopez Island School District School Levy 1 ","Name_1":"Approved","Party_1":"Yes_1","Votes_1":"56","Name_2":"Rejected","Party_2":"No_1","Votes_2":"21","Name_3":null,"Party_3":null,"Votes_3":"0","Name_4":null,"Party_4":null,"Votes_4":"0","Name_5":null,"Party_5":null,"Votes_5":"0","Name_6":null,"Party_6":null,"Votes_6":"0","Name_7":null,"Party_7":null,"Votes_7":"0","Votes_total":"77","Pct_1":72.73,"Pct_2":27.27,"Pct_3":0,"Pct_4":0,"Pct_5":0,"Pct_6":0,"Pct_7":0,"Margin":45.46}},
{"type":"Feature","geometry":{"type":"Polygon","coordinates":[[[-121.57387653799996,48.38401995700008],[-121.56052931799998,48.38387496400008],[-121.55694824299997,48.387409267000024],[-121.55082376400001,48.392175024999986],[-121.5507326269999,48.39407817600008],[-121.55937442199995,48.40546933000005],[-121.556018131,48.40836587500008],[-121.557390883,48.411625140000105],[-121.57285240099996,48.43244492100002],[-121.57875497699992,48.43704274700004],[-121.58758141799997,48.43941177100003],[-121.59083650299998,48.44197405700003],[-121.59893216599994,48.45024330100007],[-121.59988163299992,48.456997103000035],[-121.60446777699994,48.45646917700006],[-121.61171742700002,48.4616448040001],[-121.60531462099993,48.47954968500008],[-121.60926574499993,48.482544555000075],[-121.618952757,48.48228162000008],[-121.62574591199997,48.48001153700001],[-121.64668723199998,48.47774351900003],[-121.6525706639999,48.48371671400007],[-121.658213936,48.50216634],[-121.668322485,48.511371064000066],[-121.67718542699996,48.51342001900005],[-121.68484446999993,48.512723825000094],[-121.70334649799995,48.50405154000001],[-121.72033161999993,48.50560512100004],[-121.72259158199994,48.51162016100008],[-121.71691800800002,48.51489981400001],[-121.71878766600001,48.517384098000036],[-121.717401624,48.52008360700002],[-121.72155374,48.52284798000004],[-121.72179578099991,48.52780293400012],[-121.72485522600003,48.53236592400001],[-121.73670189700002,48.533898703],[-121.743090414,48.52685104200005],[-121.75331335,48.526203662000036],[-121.76144658299995,48.51974828200007],[-121.76605296300002,48.51984370400007],[-121.78104554799997,48.53047739600007],[-121.78949295300002,48.541361271],[-121.79390974999998,48.542464792],[-121.80188093399997,48.54046985700005],[-121.80894505199991,48.534779095],[-121.81787348699996,48.532161417000054],[-121.82405317399996,48.53230849500005],[-121.83732925799993,48.53955308000004],[-121.84811919699996,48.538384420000064],[-121.85224294899994,48.535372773000105],[-121.85164243899999,48.532449729000106],[-121.84941167099996,48.531498180000064],[-121.83987893199995,48.532478206000064],[-121.83744839699993,48.53187820900006],[-121.8366605959999,48.529829164],[-121.84452789999995,48.52534519000007],[-121.85293977499995,48.517610728000044],[-121.857775032,48.51780020700009],[-121.86363491499998,48.52104647500002],[-121.87087615299995,48.520893232000034],[-121.89810706299994,48.51032039500009],[-121.90699741099994,48.51293637400009],[-121.91975765399994,48.514409104],[-121.91989811099991,48.500924786000034],[-121.91777719199995,48.50089481800004],[-121.91764812500001,48.49383779400002],[-121.91887697499999,48.47168511400003],[-121.92154842799995,48.47168194700004],[-121.92176532099998,48.42744153000002],[-121.96450465699995,48.42776412900007],[-121.966641762,48.29763424900001],[-121.96516061599995,48.2975009670001],[-121.94510651799996,48.29763336100003],[-121.91169207799997,48.2975247310001],[-121.901921887,48.297539480000076],[-121.88002978699997,48.297490349000014],[-121.85731279199993,48.29748218200005],[-121.70795717499995,48.29803678800001],[-121.66583597299996,48.29858853800001],[-121.64404517099999,48.298588486000014],[-121.64075423699991,48.29853771900008],[-121.626253735,48.29853770500008],[-121.57710980899998,48.29918240300004],[-121.57387653799996,48.38401995700008]]]},"properties":{"COUNTY":"Skagit","PRECCODE":107,"PRECNAME":"Sauk","PRECINCT":"Skagit 107","DESCRIPTIO":"Concrete Rural South (Cape Horn, Wilderness Village, Cedar Grove, Sauk Valley)","OFFICE":"School Levy 1","JURISDICTION":"School","RACE":"Proposition 1 Darrington School District School Levy 1 ","Name_1":"Rejected","Party_1":"No_1","Votes_1":"171","Name_2":"Rejected","Party_2":"No_2","Votes_2":"171","Name_3":"Approved","Party_3":"Yes_1","Votes_3":"3","Name_4":"Approved","Party_4":"Yes_2","Votes_4":"3","Name_5":null,"Party_5":null,"Votes_5":"0","Name_6":null,"Party_6":null,"Votes_6":"0","Name_7":null,"Party_7":null,"Votes_7":"0","Votes_total":"348","Pct_1":49.14,"Pct_2":49.14,"Pct_3":0.86,"Pct_4":0.86,"Pct_5":0,"Pct_6":0,"Pct_7":0,"Margin":0}},
{"type":"Feature","geometry":{"type":"Polygon","coordinates":[[[-121.57710980899998,48.29918240300004],[-121.57709665699994,48.297991339000085],[-121.56628110299995,48.297305635],[-121.52673574699995,48.29624197500002],[-121.4455171319999,48.29594010800009],[-121.444819991,48.303405838000074],[-121.44443184399995,48.38392974400007],[-121.48778256799996,48.38381218300003],[-121.56083615299994,48.38387514300008],[-121.57387653799996,48.38401995700008],[-121.57710980899998,48.29918240300004]]]},"properties":{"COUNTY":"Skagit","PRECCODE":133,"PRECNAME":"Mansford","PRECINCT":"Skagit 133","DESCRIPTIO":"Darrington Rural Far Northeast (Mansford, Sauk-Suiattle Reservation), Concrete Rural Farthest Southeast","OFFICE":"School Levy 1","JURISDICTION":"School","RACE":"Proposition 1 Darrington School District School Levy 1 ","Name_1":"Rejected","Party_1":"No_1","Votes_1":"961","Name_2":"Rejected","Party_2":"No_2","Votes_2":"961","Name_3":"Approved","Party_3":"Yes_1","Votes_3":"20","Name_4":"Approved","Party_4":"Yes_2","Votes_4":"20","Name_5":null,"Party_5":null,"Votes_5":"0","Name_6":null,"Party_6":null,"Votes_6":"0","Name_7":null,"Party_7":null,"Votes_7":"0","Votes_total":"1,962","Pct_1":48.98,"Pct_2":48.98,"Pct_3":1.02,"Pct_4":1.02,"Pct_5":0,"Pct_6":0,"Pct_7":0,"Margin":0}},
{"type":"Feature","geometry":{"type":"Polygon","coordinates":[[[-121.7064803349997,48.21096194357391],[-121.70978702326907,48.12459232413475],[-121.66190639265476,48.12455996253734],[-121.66915707780188,48.128624015026716],[-121.66867298697035,48.13412648460201],[-121.6809733786154,48.1385763038314],[-121.6785254492085,48.14658693044043],[-121.6852988299981,48.16328941239774],[-121.67617117334915,48.16699881616721],[-121.66766418220782,48.16720193258526],[-121.65675871674077,48.17134596048279],[-121.65683774534966,48.172827337862266],[-121.65223864552938,48.17559838990736],[-121.65102277416193,48.18243151636261],[-121.63340403097142,48.19741084961834],[-121.62858461175861,48.20535180799034],[-121.62998351331565,48.20868816659798],[-121.62715267558383,48.214313557788905],[-121.62777535427756,48.219107738866654],[-121.63308470686322,48.230219931735384],[-121.63851380635612,48.23274938188663],[-121.63908816813615,48.23810985174225],[-121.6348334639259,48.24547278997483],[-121.63793137086802,48.24849667345098],[-121.64570809818532,48.25122508956842],[-121.64708615776185,48.254165320134696],[-121.6562050623434,48.25644080748868],[-121.6592015712083,48.259741220281235],[-121.6571234235343,48.26471988540224],[-121.66129016951072,48.26687032302256],[-121.65737633717177,48.26708093286056],[-121.64786085810954,48.276431113819484],[-121.64370915882871,48.27563803331069],[-121.63921444600462,48.285563049148585],[-121.63322920668818,48.28793706442262],[-121.63359375460244,48.29175854049431],[-121.63669641930314,48.29468295095526],[-121.63641964687248,48.298493544826385],[-121.65253488676947,48.29854091979347],[-121.66329274940665,48.2986648999648],[-121.67436930648198,48.29877004675065],[-121.68610764156003,48.299012221452735],[-121.7484452676421,48.298925360991056],[-121.85798644741713,48.297485424309954],[-121.85768885078657,48.28254251721105],[-121.85767986176248,48.279157007466836],[-121.84788452784693,48.27925159238019],[-121.85016967659114,48.27575077584516],[-121.85761047754723,48.275754811958286],[-121.85715389160107,48.224770958352366],[-121.74942926638714,48.2252315621814],[-121.74941280587635,48.21066278769077],[-121.7064803349997,48.21096194357391]]]},"properties":{"COUNTY":"Snohomish","PRECCODE":83914034,"PRECNAME":"Hazel","PRECINCT":"Snohomish 83914034","DESCRIPTIO":"Darrington Rural Far West (Hazel, Whitehorse, Swede Heaven)","OFFICE":"School Levy 1","JURISDICTION":"School","RACE":"Proposition 1 Darrington School District School Levy 1 ","Name_1":"Approved","Party_1":"Yes_1","Votes_1":"163","Name_2":"Approved","Party_2":"Yes_2","Votes_2":"163","Name_3":null,"Party_3":null,"Votes_3":"0","Name_4":null,"Party_4":null,"Votes_4":"0","Name_5":null,"Party_5":null,"Votes_5":"0","Name_6":null,"Party_6":null,"Votes_6":"0","Name_7":null,"Party_7":null,"Votes_7":"0","Votes_total":"326","Pct_1":50,"Pct_2":50,"Pct_3":0,"Pct_4":0,"Pct_5":0,"Pct_6":0,"Pct_7":0,"Margin":0}}
]}