{
"type": "FeatureCollection",
"crs": { "type": "name", "properties": { "name": "urn:ogc:def:crs:OGC:1.3:CRS84" } },
"features": [
{ "type": "Feature", "properties": { "DISTRICT": "Oroville School District", "OFFICE": "School Levy", "JURISDICTION": "School", "RACE": "Oroville School District School Levy ", "Name_1": "Approved", "Party_1": "Yes_1", "Votes_1": "9,936", "Name_2": "Rejected", "Party_2": "No_1", "Votes_2": "5,375", "Name_3": null, "Party_3": null, "Votes_3": "0", "Name_4": null, "Party_4": null, "Votes_4": "0", "Name_5": null, "Party_5": null, "Votes_5": "0", "Name_6": null, "Party_6": null, "Votes_6": "0", "Name_7": null, "Party_7": null, "Votes_7": "0", "Votes_total": "15,311", "Pct_1": 64.89, "Pct_2": 35.11, "Pct_3": 0.0, "Pct_4": 0.0, "Pct_5": 0.0, "Pct_6": 0.0, "Pct_7": 0.0, "Margin": 29.78 }, "geometry": { "type": "Polygon", "coordinates": [ [ [ -118.90264834481836, 48.98884456692231 ], [ -118.902499589637884, 48.974413148924057 ], [ -118.902734535456176, 48.959951731923745 ], [ -118.902343485457109, 48.959952651925917 ], [ -118.902584314274804, 48.945432912925561 ], [ -118.902865903094465, 48.931071721925093 ], [ -118.903077515912386, 48.916547792925023 ], [ -118.902893085718262, 48.900980064927197 ], [ -118.902822430538578, 48.886582896928708 ], [ -118.902820000448301, 48.8793439479293 ], [ -118.913870304419859, 48.879254372869319 ], [ -118.919389963405465, 48.879201826839378 ], [ -118.919384706359509, 48.875518007839723 ], [ -118.919383829314043, 48.871873438840012 ], [ -118.924912694299934, 48.871838641809973 ], [ -118.925056317254345, 48.868210704809528 ], [ -118.925343501163098, 48.860954809808547 ], [ -118.925487063117501, 48.857326856808093 ], [ -118.924637500938985, 48.842840661813916 ], [ -118.924722263757545, 48.82830045281473 ], [ -118.945767091704539, 48.828236785700398 ], [ -118.946663713702193, 48.828223820695555 ], [ -118.967128014642356, 48.82750772258445 ], [ -118.989035771586003, 48.827355054465478 ], [ -119.010918691533419, 48.827504058346562 ], [ -119.033919264476069, 48.827498216221642 ], [ -119.054576493425017, 48.827530811109355 ], [ -119.054755758606333, 48.842109787107141 ], [ -119.07626920854986, 48.841885629990273 ], [ -119.099257639494525, 48.842049542865283 ], [ -119.121386927441151, 48.842203086744995 ], [ -119.143465024385449, 48.842159440624975 ], [ -119.165344970330324, 48.84213606750599 ], [ -119.165392232511152, 48.856627746504543 ], [ -119.187474093457141, 48.856732680384447 ], [ -119.209643836400517, 48.856642706263884 ], [ -119.232153953347051, 48.856885764141467 ], [ -119.232003599359189, 48.857828117142212 ], [ -119.254105248303503, 48.857813565021971 ], [ -119.276100345248707, 48.857854401902344 ], [ -119.298075333194561, 48.857945608782757 ], [ -119.320116280139175, 48.857951743662845 ], [ -119.342032446083735, 48.857931514543573 ], [ -119.363539211029902, 48.857967581426522 ], [ -119.363637814844196, 48.843126514427247 ], [ -119.385510906794195, 48.843547876308165 ], [ -119.38553077261102, 48.828886979309281 ], [ -119.407541008555995, 48.828930805189401 ], [ -119.429319219497899, 48.82869906607084 ], [ -119.451364054441456, 48.828645041950857 ], [ -119.4511800406204, 48.842931036950652 ], [ -119.47317641456435, 48.842903217830901 ], [ -119.473055279745324, 48.857357903830376 ], [ -119.495122760687281, 48.857185430710246 ], [ -119.516965413632306, 48.857227752591236 ], [ -119.522463003618185, 48.857216723561265 ], [ -119.522356160801266, 48.871819649560734 ], [ -119.538933805758845, 48.871795989470442 ], [ -119.538875236940839, 48.886320526469646 ], [ -119.56090168688614, 48.886419832349695 ], [ -119.560917133064308, 48.900647105348511 ], [ -119.560994283253308, 48.915730899347025 ], [ -119.582558136198742, 48.915752079229605 ], [ -119.604599238142939, 48.915769678109484 ], [ -119.624047720093799, 48.915796886003534 ], [ -119.624185022255588, 48.92872013600185 ], [ -119.639234784217322, 48.928724448919894 ], [ -119.654284548179064, 48.92872687083787 ], [ -119.65622576529249, 48.938159387826602 ], [ -119.668002215250851, 48.93723352276249 ], [ -119.66806451825245, 48.937373937762153 ], [ -119.668120797254488, 48.937550272761875 ], [ -119.668144210256415, 48.937708461761694 ], [ -119.668146878257843, 48.937818647761681 ], [ -119.668179716259687, 48.937974015761505 ], [ -119.668153118264073, 48.938316729761624 ], [ -119.668074298268152, 48.938623628762073 ], [ -119.667977796272226, 48.938930182762526 ], [ -119.667880530276179, 48.939224905763048 ], [ -119.66778511127967, 48.939484185763554 ], [ -119.667730613281719, 48.939637656763857 ], [ -119.667631537285558, 48.939920366764376 ], [ -119.667536708288111, 48.940108726764855 ], [ -119.667387212291786, 48.940367466765679 ], [ -119.667257290294344, 48.940543653766376 ], [ -119.667127099296991, 48.94073165776706 ], [ -119.666978140300344, 48.940966758767885 ], [ -119.666810457303754, 48.941201674768742 ], [ -119.666568020308944, 48.941566041770002 ], [ -119.666454642312615, 48.941836962770665 ], [ -119.666303274316661, 48.942131141771441 ], [ -119.666152127321183, 48.94246096077228 ], [ -119.6660381993252, 48.942755514772848 ], [ -119.665942002328521, 48.943002961773367 ], [ -119.665918476331782, 48.943256622773447 ], [ -119.666061034339037, 48.943859757772664 ], [ -119.666301336350742, 48.944843850771242 ], [ -119.666428554356472, 48.945326606770521 ], [ -119.666880880357368, 48.945484430768111 ], [ -119.667771399355999, 48.945558698763257 ], [ -119.668153048354569, 48.945521563761147 ], [ -119.668401251351852, 48.945357785759811 ], [ -119.66875847235012, 48.945295563757874 ], [ -119.669236415346063, 48.945065113755263 ], [ -119.669670207341554, 48.944799135752909 ], [ -119.669952717338106, 48.944577334751358 ], [ -119.670119480334975, 48.944361993750476 ], [ -119.670257358331909, 48.94414636774971 ], [ -119.670309255328689, 48.943899424749517 ], [ -119.670348116326309, 48.943717073749333 ], [ -119.67037567732379, 48.94352318774915 ], [ -119.670390374322096, 48.943386279749063 ], [ -119.670381581320555, 48.943265663749131 ], [ -119.67038353431947, 48.943180630749161 ], [ -119.670385277318502, 48.943104508749116 ], [ -119.670446459316494, 48.942956643748815 ], [ -119.670570330314803, 48.942847471748152 ], [ -119.670768180313559, 48.942788529747048 ], [ -119.67098188031305, 48.942794462745908 ], [ -119.671194882313017, 48.942830846744727 ], [ -119.671408059312824, 48.942859620743533 ], [ -119.671638307312719, 48.942899978742332 ], [ -119.671856391313057, 48.942966871741163 ], [ -119.672097850313136, 48.943022570739799 ], [ -119.672310418313231, 48.943077983738654 ], [ -119.672527721313983, 48.943179127737487 ], [ -119.672747680314544, 48.943270398736225 ], [ -119.672852717315607, 48.943372710735673 ], [ -119.672989734316161, 48.943446406734914 ], [ -119.673097432317064, 48.94353884673437 ], [ -119.673238138318723, 48.943703947733574 ], [ -119.673361950320313, 48.943849845732842 ], [ -119.673440235321564, 48.943964833732409 ], [ -119.673413814323439, 48.944109239732583 ], [ -119.673388435324682, 48.944207972732698 ], [ -119.673389949327102, 48.944394532732673 ], [ -119.67333780533049, 48.944652893732965 ], [ -119.673287903334739, 48.944985169733215 ], [ -119.673323515336776, 48.945156671732988 ], [ -119.673320206338545, 48.945301401733005 ], [ -119.673293816342337, 48.945590836733125 ], [ -119.673364572347239, 48.94599961673272 ], [ -119.673474186351939, 48.946392507732078 ], [ -119.673588586355692, 48.946712808731441 ], [ -119.673743215357774, 48.946911701730563 ], [ -119.673880621359018, 48.94704480572986 ], [ -119.674039854359791, 48.947133417728949 ], [ -119.674276555360592, 48.947246265727635 ], [ -119.67435303736238, 48.947404982727278 ], [ -119.674610668363158, 48.947512895725801 ], [ -119.674927589363634, 48.947621231724128 ], [ -119.675226088364099, 48.94771636072246 ], [ -119.675306778363563, 48.947690949722016 ], [ -119.675486121363477, 48.947718937720992 ], [ -119.675584476364051, 48.947785699720498 ], [ -119.675703929364431, 48.947839649719853 ], [ -119.675922797364208, 48.947868202718638 ], [ -119.67632175736405, 48.947937941716482 ], [ -119.676841830362847, 48.947943094713594 ], [ -119.677342447361468, 48.94793485971087 ], [ -119.677662674360135, 48.947898455709108 ], [ -119.677923010359365, 48.94788801170774 ], [ -119.678163284358789, 48.947890388706448 ], [ -119.678383499358432, 48.947905588705275 ], [ -119.678562246358666, 48.947960120704273 ], [ -119.678781116358451, 48.947988667703065 ], [ -119.678982164357819, 48.947977464701978 ], [ -119.679183076356679, 48.947926685700907 ], [ -119.679384581355208, 48.947849701699774 ], [ -119.679587428353528, 48.947759537698701 ], [ -119.679674944352655, 48.947708321698187 ], [ -119.679689624387038, 48.950447476697967 ], [ -119.685335007372643, 48.950448639667179 ], [ -119.687113109368127, 48.950448975657515 ], [ -119.687248228369015, 48.950547092656777 ], [ -119.687363985370894, 48.950719374656131 ], [ -119.687619580372711, 48.950919239654674 ], [ -119.687856004374339, 48.951092706653391 ], [ -119.688013227375578, 48.951225988652546 ], [ -119.688150088377256, 48.951385285651803 ], [ -119.688206115378961, 48.951530597651455 ], [ -119.688241328381821, 48.951768044651274 ], [ -119.688278184383194, 48.951886783651076 ], [ -119.688415052384826, 48.952046079650295 ], [ -119.688571088386865, 48.952231946649412 ], [ -119.688784936389425, 48.952484165648222 ], [ -119.68902047939153, 48.952697191646983 ], [ -119.689217533392494, 48.952817671645874 ], [ -119.689354703394017, 48.952963778645156 ], [ -119.689511339395608, 48.953123265644251 ], [ -119.689628002396987, 48.953255980643604 ], [ -119.689784935398379, 48.953402450642777 ], [ -119.690019898400863, 48.953641683641436 ], [ -119.690215475402667, 48.953827932640401 ], [ -119.690433250404425, 48.954009806639149 ], [ -119.690524573404133, 48.954009640638645 ], [ -119.69069015140488, 48.954095890637809 ], [ -119.690885732406656, 48.954282140636657 ], [ -119.691008158408849, 48.954482580636004 ], [ -119.691136614411207, 48.954692670635275 ], [ -119.69117303441341, 48.954877360635102 ], [ -119.691269051415361, 48.95504944463454 ], [ -119.69128555541711, 48.955194369634462 ], [ -119.69144250541855, 48.955340665633571 ], [ -119.691536444421629, 48.955604897633016 ], [ -119.691612102423903, 48.955803163632623 ], [ -119.691589079425782, 48.95594769863272 ], [ -119.691545538427562, 48.956079014632962 ], [ -119.691622684429049, 48.9562113406325 ], [ -119.691699233430839, 48.956370044632116 ], [ -119.691837603431651, 48.956463562631377 ], [ -119.692034085433022, 48.956610417630273 ], [ -119.692252268433805, 48.956717737629099 ], [ -119.692428987435207, 48.956864397628109 ], [ -119.69266693443592, 48.956972080626826 ], [ -119.693003873436979, 48.957120132624958 ], [ -119.693201546437635, 48.957214232623869 ], [ -119.693278994438884, 48.957333365623462 ], [ -119.69339596944009, 48.957453058622811 ], [ -119.693635399440012, 48.957494968621496 ], [ -119.693835599439893, 48.957523134620381 ], [ -119.693894441440548, 48.957590349620084 ], [ -119.697012116432546, 48.957586121603114 ], [ -119.697262709434327, 48.957780261601684 ], [ -119.697530992435517, 48.95792814660026 ], [ -119.698003934435775, 48.958044445597636 ], [ -119.698459196436062, 48.958160566595176 ], [ -119.698878669437931, 48.958388038592894 ], [ -119.699264852439725, 48.958615182590776 ], [ -119.699550290440584, 48.958740787589186 ], [ -119.699917793443092, 48.959012465587143 ], [ -119.700151506444456, 48.959171145585884 ], [ -119.700486476446585, 48.959408925584015 ], [ -119.700738130447832, 48.959556639582686 ], [ -119.701575875452164, 48.96006740157808 ], [ -119.70191030945395, 48.960282901576235 ], [ -119.702229850454842, 48.960419964574463 ], [ -119.702516052455294, 48.960512162572876 ], [ -119.702802548456162, 48.960637769571328 ], [ -119.703358557456923, 48.960810698568302 ], [ -119.70352595145836, 48.960957591567386 ], [ -119.703963857459129, 48.961107103565013 ], [ -119.704095879460638, 48.96125348156427 ], [ -119.705755671488163, 48.963782882555016 ], [ -119.706022270490323, 48.964008851553572 ], [ -119.706153563492251, 48.964188798552868 ], [ -119.706498286498288, 48.964739474550939 ], [ -119.706597043499258, 48.964838248550379 ], [ -119.706913632502506, 48.965156864548632 ], [ -119.707115344503251, 48.965259199547546 ], [ -119.707487151503372, 48.965341076545485 ], [ -119.707671915503724, 48.965409841544506 ], [ -119.707804999505271, 48.96555639754375 ], [ -119.70798703850717, 48.965747969542775 ], [ -119.708219615509861, 48.966007181541478 ], [ -119.708433274513268, 48.966321888540286 ], [ -119.708598170515558, 48.96653573653942 ], [ -119.708731757516759, 48.966660025538658 ], [ -119.710455434527006, 48.967826985529179 ], [ -119.710722078529159, 48.968052943527674 ], [ -119.710923307530194, 48.968177882526639 ], [ -119.711682153531726, 48.968453043522437 ], [ -119.712017918532354, 48.968568198520607 ], [ -119.71210077753355, 48.968680690520131 ], [ -119.712144357537667, 48.969016201519871 ], [ -119.712165113545311, 48.969630733519708 ], [ -119.712174351549507, 48.969965914519669 ], [ -119.712166451554012, 48.970323198519694 ], [ -119.711999642562276, 48.970947235520548 ], [ -119.711927558565009, 48.971147495520981 ], [ -119.711749284570416, 48.971536893521908 ], [ -119.711623430574164, 48.971814927522594 ], [ -119.711508186577888, 48.972083982523181 ], [ -119.709125407584025, 48.972093451536132 ], [ -119.709083930588264, 48.972414953536372 ], [ -119.709004636593789, 48.972845731536772 ], [ -119.708856184600506, 48.973344024537575 ], [ -119.708675370605448, 48.973705810538519 ], [ -119.708492534611679, 48.974158377539446 ], [ -119.708240475617671, 48.974587489540824 ], [ -119.707955612623465, 48.974993671542357 ], [ -119.707741956627785, 48.975286785543489 ], [ -119.707426239631062, 48.975488293545226 ], [ -119.707113354635169, 48.975749443546896 ], [ -119.706969105637071, 48.975870026547689 ], [ -119.706617525641377, 48.976139198549561 ], [ -119.706161363646174, 48.976430142552097 ], [ -119.7059471856507, 48.976746033553169 ], [ -119.705839605653537, 48.976949373553822 ], [ -119.705870919655183, 48.977086041553605 ], [ -119.705967385658639, 48.977382316553062 ], [ -119.706368004665975, 48.978044883550837 ], [ -119.706773148670095, 48.978457719548608 ], [ -119.707108600674999, 48.978915103546761 ], [ -119.707470694680097, 48.979391935544747 ], [ -119.708551980695219, 48.980814487538737 ], [ -119.708991513699345, 48.981227473536308 ], [ -119.710412256712985, 48.982604108528498 ], [ -119.71044257971522, 48.982786162528384 ], [ -119.710608827718517, 48.983083105527413 ], [ -119.710709014719313, 48.983166124526853 ], [ -119.710914519720887, 48.983335815525678 ], [ -119.711532407721421, 48.98350073052238 ], [ -119.712254394721683, 48.9836666385184 ], [ -119.71297393972273, 48.983895905514473 ], [ -119.713033137761158, 48.986964004513972 ], [ -119.712970894788469, 48.989120063514164 ], [ -119.709918027796277, 48.989119703530847 ], [ -119.70940663879469, 48.988891565533663 ], [ -119.708575811798568, 48.989029185538165 ], [ -119.708505016805802, 48.989591609538529 ], [ -119.707496253818874, 48.990426465543948 ], [ -119.706313347823084, 48.990521961550414 ], [ -119.704136388840212, 48.99144265056222 ], [ -119.703733120843793, 48.991642614564412 ], [ -119.703162467850532, 48.992064180567496 ], [ -119.702692921858116, 48.992574260570038 ], [ -119.702253988865422, 48.993065106572409 ], [ -119.701965294870391, 48.993402709573921 ], [ -119.702030675872777, 48.993599325573534 ], [ -119.702075444874993, 48.993786148573328 ], [ -119.701998271876988, 48.993931188573725 ], [ -119.701917843880878, 48.994222154574146 ], [ -119.701758789887592, 48.994722903575031 ], [ -119.701690308891685, 48.995038139575286 ], [ -119.701609154895976, 48.995361477575806 ], [ -119.701524195902408, 48.995854892576183 ], [ -119.701500481908809, 48.996356950576292 ], [ -119.701468075913084, 48.996688811576462 ], [ -119.70152316791652, 48.996973038576165 ], [ -119.701509908917515, 48.997053769576219 ], [ -119.70144327492001, 48.997239512576577 ], [ -119.701362114924336, 48.99756284957698 ], [ -119.701300145931853, 48.998145568577264 ], [ -119.701300699938571, 48.998680237577219 ], [ -119.701283863948106, 48.999433677577308 ], [ -119.701258122955608, 49.000026017577383 ], [ -119.701254353956713, 49.00011271357743 ], [ -119.701176787956925, 49.000112697577862 ], [ -119.701093536957103, 49.000112679578287 ], [ -119.701060087957202, 49.000112672578496 ], [ -119.690740327983548, 49.000112876634724 ], [ -119.690614418983827, 49.000112710635428 ], [ -119.668784422039366, 49.000112424754391 ], [ -119.654205396076463, 49.000109969833844 ], [ -119.646733775095441, 49.000108318874553 ], [ -119.635821901123123, 49.00010469993402 ], [ -119.624482218152039, 49.000107260995783 ], [ -119.604794596202069, 49.000109253103076 ], [ -119.582820764257775, 49.00010765722277 ], [ -119.580786329262949, 49.000107463233853 ], [ -119.560802011313669, 49.000111624342715 ], [ -119.538963222369034, 49.000112633461669 ], [ -119.523480659408179, 49.00011064454597 ], [ -119.516914360424735, 49.000104847581731 ], [ -119.505512287453399, 49.000093918643827 ], [ -119.495559277478534, 49.000090577698003 ], [ -119.473381852534402, 49.000081347818757 ], [ -119.45878039757126, 49.000072828898261 ], [ -119.458328189572327, 49.000072553900708 ], [ -119.451428175589726, 49.000067891938293 ], [ -119.443281550610166, 49.00006191998262 ], [ -119.431012647641268, 49.000072796049395 ], [ -119.430584984642365, 49.000073153051709 ], [ -119.429760244644399, 49.000073836056167 ], [ -119.429513402645057, 49.00007401205756 ], [ -119.407399949700959, 49.000089823177944 ], [ -119.402918514712283, 49.000092521202355 ], [ -119.38541539475645, 49.000097930297564 ], [ -119.382252608764375, 49.000098580314777 ], [ -119.36325611781217, 49.00009689741816 ], [ -119.342173003865014, 49.00009181653283 ], [ -119.341434075866914, 49.000090921536881 ], [ -119.320106160920432, 49.000091259652933 ], [ -119.311406621942325, 49.00008975370023 ], [ -119.29830885597508, 49.000088275771496 ], [ -119.276132738030654, 49.000081952892089 ], [ -119.265610827056946, 49.000077182949354 ], [ -119.25402404008598, 49.000079402012361 ], [ -119.231937377141151, 49.000077422132442 ], [ -119.224148292160621, 49.000075760174809 ], [ -119.208262945200403, 49.000077524261179 ], [ -119.196058364230836, 49.000077646327547 ], [ -119.186432360255424, 49.000120613379899 ], [ -119.183221644263625, 49.000134961397343 ], [ -119.164442135309955, 49.000095255499446 ], [ -119.157560731326981, 49.000079876536844 ], [ -119.14247950736457, 49.000084335618851 ], [ -119.128836482398626, 49.000086979692959 ], [ -119.120282263419938, 49.000088603739471 ], [ -119.101340141467048, 49.000090221842413 ], [ -119.098192143474876, 49.000089684859553 ], [ -119.075768107530564, 49.000082704981367 ], [ -119.074323694534129, 49.000082293989237 ], [ -119.053741447585224, 49.000076675101042 ], [ -119.047140543601543, 49.000074090136877 ], [ -119.042740481612483, 49.000075173160774 ], [ -119.037239997626159, 49.000076300190649 ], [ -119.03173950963982, 49.00007717522054 ], [ -119.01691187467658, 49.000078531301121 ], [ -119.01007556769359, 49.00008093433825 ], [ -119.004590481707154, 49.000082141368033 ], [ -118.988135223747989, 49.000084250457469 ], [ -118.974074062782805, 49.000084548533792 ], [ -118.96620611680224, 49.000087884576516 ], [ -118.957171515824612, 49.000090018625585 ], [ -118.946729935850428, 49.000089599682269 ], [ -118.942656536860483, 49.000089993704393 ], [ -118.924880798904411, 49.000091148800898 ], [ -118.910264704940545, 49.00009102188023 ], [ -118.902764937959162, 49.000098171920939 ], [ -118.90264834481836, 48.98884456692231 ] ] ] } }
]
}
